State,Station_Number,Station_Name,Station_WMO,Latitude,Longitude,ZIP Codes
AL,G0100010,Maxwell Afb,722265,32.38,-86.35,36112
AL,G0100030,Mobile Downtown Ap,722235,30.63,-88.07,36605
GA,G0100050,Fort Benning Lawson,722250,32.35,-85,36856
AL,G0100070,Tuscaloosa Municipal Ap,722286,33.22,-87.62,35401
AL,G0100090,Birmingham Municipal Ap,722280,33.57,-86.75,35217
AL,G0100110,Troy Af,722267,31.87,-86.02,
AL,G0100130,Montgomery Dannelly Field,722260,32.3,-86.4,36043
AL,G0100150,Anniston Metropolitan Ap,722287,33.58,-85.85,36268
AL,G0100170,Auburn Opelika Apt,722284,32.62,-85.43,36801
AL,G0100190,Gadsen Muni  Awos,722285,33.97,-86.08,35904
AL,G0100210,Maxwell Afb,722265,32.38,-86.35,36112
MS,G0100230,Meridian Key Field,722340,32.33,-88.75,39307
MS,G0100250,Meridian Key Field,722340,32.33,-88.75,39307
AL,G0100270,Anniston Metropolitan Ap,722287,33.58,-85.85,36268
AL,G0100290,Anniston Metropolitan Ap,722287,33.58,-85.85,36268
AL,G0100310,Cairns Field Fort Rucker,722269,31.27,-85.72,36322
AL,G0100330,Muscle Shoals Regional Ap,723235,34.75,-87.6,35661
AL,G0100350,Montgomery Dannelly Field,722260,32.3,-86.4,36043
AL,G0100370,Maxwell Afb,722265,32.38,-86.35,36112
AL,G0100390,Cairns Field Fort Rucker,722269,31.27,-85.72,36322
AL,G0100410,Troy Af,722267,31.87,-86.02,
AL,G0100430,Huntsville Intl Jones Field,723230,34.65,-86.78,35824
AL,G0100450,Cairns Field Fort Rucker,722269,31.27,-85.72,36322
AL,G0100470,Montgomery Dannelly Field,722260,32.3,-86.4,36043
AL,G0100490,Gadsen Muni  Awos,722285,33.97,-86.08,35904
AL,G0100510,Maxwell Afb,722265,32.38,-86.35,36112
AL,G0100530,Troy Af,722267,31.87,-86.02,
AL,G0100550,Gadsen Muni  Awos,722285,33.97,-86.08,35904
AL,G0100570,Tuscaloosa Municipal Ap,722286,33.22,-87.62,35401
AL,G0100590,Muscle Shoals Regional Ap,723235,34.75,-87.6,35661
AL,G0100610,Cairns Field Fort Rucker,722269,31.27,-85.72,36322
AL,G0100630,Tuscaloosa Municipal Ap,722286,33.22,-87.62,35401
AL,G0100650,Tuscaloosa Municipal Ap,722286,33.22,-87.62,35401
AL,G0100670,Dothan Municipal Ap,722268,31.23,-85.43,36301
AL,G0100690,Dothan Municipal Ap,722268,31.23,-85.43,36301
AL,G0100710,Gadsen Muni  Awos,722285,33.97,-86.08,35904
AL,G0100730,Birmingham Municipal Ap,722280,33.57,-86.75,35217
MS,G0100750,Columbus Afb,723306,33.65,-88.45,
AL,G0100770,Muscle Shoals Regional Ap,723235,34.75,-87.6,35661
AL,G0100790,Muscle Shoals Regional Ap,723235,34.75,-87.6,35661
AL,G0100810,Auburn Opelika Apt,722284,32.62,-85.43,36801
AL,G0100830,Huntsville Intl Jones Field,723230,34.65,-86.78,35824
AL,G0100850,Montgomery Dannelly Field,722260,32.3,-86.4,36043
AL,G0100870,Auburn Opelika Apt,722284,32.62,-85.43,36801
AL,G0100890,Huntsville Intl Jones Field,723230,34.65,-86.78,35824
MS,G0100910,Meridian Naas,722345,32.55,-88.57,39309
AL,G0100930,Muscle Shoals Regional Ap,723235,34.75,-87.6,35661
AL,G0100950,Gadsen Muni  Awos,722285,33.97,-86.08,35904
AL,G0100970,Mobile Regional Ap,722230,30.68,-88.25,36608
AL,G0100990,Montgomery Dannelly Field,722260,32.3,-86.4,36043
AL,G0101010,Maxwell Afb,722265,32.38,-86.35,36112
AL,G0101030,Huntsville Intl Jones Field,723230,34.65,-86.78,35824
AL,G0101050,Tuscaloosa Municipal Ap,722286,33.22,-87.62,35401
AL,G0101070,Tuscaloosa Municipal Ap,722286,33.22,-87.62,35401
AL,G0101090,Troy Af,722267,31.87,-86.02,
AL,G0101110,Anniston Metropolitan Ap,722287,33.58,-85.85,36268
GA,G0101130,Fort Benning Lawson,722250,32.35,-85,36856
AL,G0101150,Birmingham Municipal Ap,722280,33.57,-86.75,35217
AL,G0101170,Birmingham Municipal Ap,722280,33.57,-86.75,35217
MS,G0101190,Meridian Naas,722345,32.55,-88.57,39309
AL,G0101210,Anniston Metropolitan Ap,722287,33.58,-85.85,36268
AL,G0101230,Auburn Opelika Apt,722284,32.62,-85.43,36801
AL,G0101250,Tuscaloosa Municipal Ap,722286,33.22,-87.62,35401
AL,G0101270,Birmingham Municipal Ap,722280,33.57,-86.75,35217
AL,G0101290,Mobile Regional Ap,722230,30.68,-88.25,36608
AL,G0101310,Montgomery Dannelly Field,722260,32.3,-86.4,36043
AL,G0101330,Muscle Shoals Regional Ap,723235,34.75,-87.6,35661
AK,G0200130,Cold Bay Arpt,703160,55.2,-162.72,99571
AK,G0200160,Dutch Harbor,704890,53.9,-166.55,99692
AK,G0200200,Anchorage Elmendorf,702720,61.25,-149.8,99506
AK,G0200500,Bethel Airport,702190,60.78,-161.83,99559
AK,G0200600,King Salmon Arpt,703260,58.68,-156.65,
AK,G0200680,Healy River Airport,702647,63.88,-149.02,99743
AK,G0200700,Dillingham  Amos,703210,59.05,-158.52,
AK,G0200900,Fairbanks Intl Arpt,702610,64.82,-147.85,99709
AK,G0201100,Juneau IntL Arpt,703810,58.35,-134.58,99801
AK,G0201220,Soldotna,702595,60.47,-151.03,
AK,G0201300,Ketchikan Intl Ap,703950,55.37,-131.72,99901
AK,G0201500,Kodiak Airport,703500,57.75,-152.5,99619
AK,G0201640,King Salmon Arpt,703260,58.68,-156.65,
AK,G0201700,Birchwood,702746,61.42,-149.52,
AK,G0201800,Nome Municipal Arpt,702000,64.52,-165.45,
AK,G0201850,Barrow W Post W Rogers Arpt  N,700260,71.32,-156.62,
AK,G0201880,Kotzebue Ralph Wein Memorial,701330,66.88,-162.6,
AK,G0202200,Sitka Japonski Ap,703710,57.05,-135.37,99835
AK,G0202400,Big Delta Allen Aaf,702670,64,-145.72,99731
AK,G0202610,Valdez Pioneer Fiel,702756,61.13,-146.27,
NM,G0400010,Gallup Sen Clarke Fld,723627,35.52,-108.78,87301
AZ,G0400030,Douglas Bisbee Douglas Intl A,722735,31.47,-109.6,
AZ,G0400050,Flagstaff Pulliam Arpt,723755,35.13,-111.67,86005
AZ,G0400070,Prescott Love Field,723723,34.65,-112.42,
AZ,G0400090,Safford  Amos,722747,32.82,-109.68,85548
AZ,G0400110,Safford  Amos,722747,32.82,-109.68,85548
CA,G0400120,Blythe Riverside Co Arpt,747188,33.62,-114.72,
AZ,G0400130,Phoenix Sky Harbor Intl Ap,722780,33.45,-111.98,85034
AZ,G0400150,Kingman  Amos,723700,35.27,-113.95,
AZ,G0400170,Winslow Municipal Ap,723740,35.03,-110.72,86247
AZ,G0400190,Tucson International Ap,722740,32.13,-110.95,85706
AZ,G0400210,Casa Granda  Awos,722748,32.95,-111.77,8512
AZ,G0400230,Bisbee Douglas Intl AP,722720,31.467,-109.6,
AZ,G0400250,Prescott Love Field,723723,34.65,-112.42,
AZ,G0400270,Yuma Intl Arpt,722800,32.67,-114.6,85365
AR,G0500010,Stuttgart  Awos,723416,34.6,-91.57,
LA,G0500030,Monroe Regional Ap,722486,32.52,-92.03,71211
AR,G0500050,Flippin  Awos,723447,36.3,-92.47,72635
AR,G0500070,Bentonville  Awos,723444,36.35,-94.22,72712
AR,G0500090,Harrison-Boone County Rgnl AP,723450,36.267,-93.15,72601
AR,G0500110,Pine Bluff Faa Ap,723417,34.17,-91.93,
AR,G0500130,El Dorado Goodwin Field,723419,33.22,-92.82,
AR,G0500150,Harrison Faa Ap,723446,36.27,-93.15,72601
MS,G0500170,Greenville Municipal,722356,33.48,-90.98,38782
AR,G0500190,Memorial Fld,723415,34.47,-93.1,71913
AR,G0500210,Walnut Ridge  Awos,723406,36.13,-90.92,
AR,G0500230,Batesville  Awos,723448,35.73,-91.65,72501
AR,G0500250,Pine Bluff Faa Ap,723417,34.17,-91.93,
AR,G0500270,El Dorado Goodwin Field,723419,33.22,-92.82,
AR,G0500290,Little Rock Afb,723405,34.92,-92.15,72099
AR,G0500310,Jonesboro Muni,723407,35.83,-90.65,72401
AR,G0500330,Fort Smith Regional Ap,723440,35.33,-94.37,72903
TN,G0500350,Memphis International Ap,723340,35.07,-89.98,38131
AR,G0500370,Jonesboro Muni,723407,35.83,-90.65,72401
AR,G0500390,Pine Bluff Faa Ap,723417,34.17,-91.93,
MS,G0500410,Greenville Municipal,722356,33.48,-90.98,38782
AR,G0500430,Pine Bluff Faa Ap,723417,34.17,-91.93,
AR,G0500450,Little Rock Afb,723405,34.92,-92.15,72099
AR,G0500470,Fort Smith Regional Ap,723440,35.33,-94.37,72903
AR,G0500490,Flippin  Awos,723447,36.3,-92.47,72635
AR,G0500510,Memorial Fld,723415,34.47,-93.1,71913
AR,G0500530,Little Rock Adams Field,723403,34.75,-92.23,72114
AR,G0500550,Jonesboro Muni,723407,35.83,-90.65,72401
AR,G0500570,Texarkana Webb Field,723418,33.45,-94,71854
AR,G0500590,Memorial Fld,723415,34.47,-93.1,71913
AR,G0500610,Texarkana Webb Field,723418,33.45,-94,71854
AR,G0500630,Batesville  Awos,723448,35.73,-91.65,72501
AR,G0500650,Batesville  Awos,723448,35.73,-91.65,72501
AR,G0500670,Batesville  Awos,723448,35.73,-91.65,72501
AR,G0500690,Pine Bluff Faa Ap,723417,34.17,-91.93,
AR,G0500710,Fort Smith Regional Ap,723440,35.33,-94.37,72903
AR,G0500730,Texarkana Webb Field,723418,33.45,-94,71854
AR,G0500750,Walnut Ridge  Awos,723406,36.13,-90.92,
AR,G0500770,Stuttgart  Awos,723416,34.6,-91.57,
AR,G0500790,Pine Bluff Faa Ap,723417,34.17,-91.93,
AR,G0500810,Texarkana Webb Field,723418,33.45,-94,71854
AR,G0500830,Fort Smith Regional Ap,723440,35.33,-94.37,72903
AR,G0500850,Little Rock Afb,723405,34.92,-92.15,72099
AR,G0500870,Springdale Muni,723434,36.18,-94.12,72764
AR,G0500890,Flippin  Awos,723447,36.3,-92.47,72635
AR,G0500910,Texarkana Webb Field,723418,33.45,-94,71854
TN,G0500930,Dyersburg Municipal Ap,723347,36.02,-89.4,38024
AR,G0500950,Stuttgart  Awos,723416,34.6,-91.57,
AR,G0500970,Memorial Fld,723415,34.47,-93.1,71913
AR,G0500990,Texarkana Webb Field,723418,33.45,-94,71854
AR,G0501010,Harrison-Boone County Rgnl AP,723450,36.267,-93.15,72601
AR,G0501030,El Dorado Goodwin Field,723419,33.22,-92.82,
AR,G0501050,Little Rock Adams Field,723403,34.75,-92.23,72114
AR,G0501070,Stuttgart  Awos,723416,34.6,-91.57,
AR,G0501090,Memorial Fld,723415,34.47,-93.1,71913
AR,G0501110,Jonesboro Muni,723407,35.83,-90.65,72401
AR,G0501130,Fort Smith Regional Ap,723440,35.33,-94.37,72903
AR,G0501150,Memorial Fld,723415,34.47,-93.1,71913
AR,G0501170,Stuttgart  Awos,723416,34.6,-91.57,
AR,G0501190,Little Rock Adams Field,723403,34.75,-92.23,72114
AR,G0501210,Walnut Ridge  Awos,723406,36.13,-90.92,
TN,G0501230,Memphis International Ap,723340,35.07,-89.98,38131
AR,G0501250,Little Rock Adams Field,723403,34.75,-92.23,72114
AR,G0501270,Fort Smith Regional Ap,723440,35.33,-94.37,72903
AR,G0501290,Batesville  Awos,723448,35.73,-91.65,72501
AR,G0501310,Fort Smith Regional Ap,723440,35.33,-94.37,72903
AR,G0501330,Texarkana Webb Field,723418,33.45,-94,71854
AR,G0501350,Batesville  Awos,723448,35.73,-91.65,72501
AR,G0501370,Batesville  Awos,723448,35.73,-91.65,72501
AR,G0501390,El Dorado Goodwin Field,723419,33.22,-92.82,
AR,G0501410,Little Rock Afb,723405,34.92,-92.15,72099
AR,G0501430,Fayetteville Drake Field,723445,36,-94.17,72703
AR,G0501450,Batesville  Awos,723448,35.73,-91.65,72501
AR,G0501470,Batesville  Awos,723448,35.73,-91.65,72501
AR,G0501490,Memorial Fld,723415,34.47,-93.1,71913
CA,G0600010,Hayward Air Term,724935,37.67,-122.12,94541
CA,G0600030,South Lake Tahoe,725847,38.9,-120,96150
CA,G0600050,South Lake Tahoe,725847,38.9,-120,96150
CA,G0600070,Yuba Co,724838,39.1,-121.57,95961
CA,G0600090,South Lake Tahoe,725847,38.9,-120,96150
CA,G0600110,Yuba Co,724838,39.1,-121.57,95961
CA,G0600130,Concord Concord Buchanan Fiel,724936,38,-122.05,94520
CA,G0600150,Crescent City Faa Ai,725946,41.78,-124.23,
CA,G0600170,South Lake Tahoe,725847,38.9,-120,96150
CA,G0600190,Fresno Yosemite Intl Ap,723890,36.78,-119.72,93727
CA,G0600210,Red Bluff Municipal Arpt,725910,40.15,-122.25,96080
CA,G0600230,Arcata Airport,725945,40.98,-124.1,95519
CA,G0600250,Imperial,747185,32.83,-115.58,92251
CA,G0600270,Bishop Airport,724800,37.37,-118.35,93515
CA,G0600290,Bakersfield Meadows Field,723840,35.43,-119.05,93302
CA,G0600310,Lemoore Reeves Nas,747020,36.33,-119.95,
CA,G0600330,Santa Rosa  Awos,724957,38.52,-122.82,95492
CA,G0600350,Alturas,725958,41.5,-120.53,
CA,G0600370,Jack Northrop Fld H,722956,33.92,-118.33,90250
CA,G0600390,Fresno Yosemite Intl Ap,723890,36.78,-119.72,93727
CA,G0600410,Napa Co  Airport,724955,38.22,-122.28,94503
CA,G0600430,Merced Macready Fld,724815,37.28,-120.52,95341
CA,G0600450,Ukiah Municipal Ap,725905,39.13,-123.2,95482
CA,G0600470,Merced Macready Fld,724815,37.28,-120.52,95341
CA,G0600490,Alturas,725958,41.5,-120.53,
CA,G0600510,Bishop Airport,724800,37.37,-118.35,93515
CA,G0600530,Salinas Muni AP,725930,36.667,-121.6,93905
CA,G0600550,Napa Co  Airport,724955,38.22,-122.28,94503
CA,G0600570,Truckee Tahoe,725846,39.32,-120.13,
CA,G0600590,Santa Ana John Wayne Ap,722977,33.68,-117.87,92626
CA,G0600610,Beale Afb,724837,39.13,-121.43,95903
CA,G0600630,Truckee Tahoe,725846,39.32,-120.13,
CA,G0600650,March Afb,722860,33.9,-117.25,92518
CA,G0600670,Sacramento Executive Arpt,724830,38.5,-121.5,95822
CA,G0600690,Salinas Municipal Ap,724917,36.67,-121.6,93905
CA,G0600710,Riverside Muni,722869,33.95,-117.45,92504
CA,G0600730,San Diego Miramar Nas,722930,32.87,-117.13,92137
CA,G0600750,San Francisco Intl Ap,724940,37.62,-122.4,94066
CA,G0600770,Stockton Metropolitan Arpt,724920,37.9,-121.23,95213
CA,G0600790,San Luis Co Rgnl,722897,35.23,-120.63,93401
CA,G0600810,San Francisco Intl Ap,724940,37.62,-122.4,94066
CA,G0600830,Santa Barbara Municipal Ap,723925,34.43,-119.85,93117
CA,G0600850,San Jose Intl Ap,724945,37.37,-121.93,95110
CA,G0600870,San Jose Intl Ap,724945,37.37,-121.93,95110
CA,G0600890,Redding Municipal Arpt,725920,40.52,-122.32,
CA,G0600910,Truckee Tahoe,725846,39.32,-120.13,
CA,G0600930,Montague Siskiyou County Ap,725955,41.78,-122.47,
CA,G0600950,Travis Field Afb,745160,38.27,-121.93,94535
CA,G0600970,Santa Rosa  Awos,724957,38.52,-122.82,95492
CA,G0600990,Modesto City County Ap,724926,37.63,-120.95,95354
CA,G0601010,Yuba Co,724838,39.1,-121.57,95961
CA,G0601030,Red Bluff Municipal Arpt,725910,40.15,-122.25,96080
CA,G0601050,Redding Municipal Arpt,725920,40.52,-122.32,
CA,G0601070,Visalia Muni  Awos,723896,36.32,-119.4,93227
CA,G0601090,South Lake Tahoe,725847,38.9,-120,96150
CA,G0601110,Camarillo  Awos,723926,34.22,-119.08,93010
CA,G0601130,Sacramento Metropolitan Ap,724839,38.7,-121.58,95837
CA,G0601150,Yuba Co,724838,39.1,-121.57,95961
CO,G0800010,Aurora Buckley Field Angb,724695,39.72,-104.75,80018
CO,G0800030,Alamosa San Luis Valley Rgnl,724620,37.43,-105.87,81101
CO,G0800050,Aurora Buckley Field Angb,724695,39.72,-104.75,80018
CO,G0800070,Alamosa San Luis Valley Rgnl,724620,37.43,-105.87,81101
NM,G0800090,Clayton Municipal Airpark,723600,36.45,-103.15,
CO,G0800110,La Junta Municipal Ap,724635,38.05,-103.53,81030
CO,G0800130,Broomfield Jeffco  Boulder   S,724699,40.13,-105.24,80544
CO,G0800140,Denver Centennial  Golden   Nr,724666,39.74,-105.18,80401
CO,G0800150,Alamosa San Luis Valley Rgnl,724620,37.43,-105.87,81101
CO,G0800170,Lamar Municipal,724636,38.07,-102.68,
CO,G0800190,Leadville Lake Co,724673,39.22,-106.32,80461
CO,G0800210,Alamosa San Luis Valley Rgnl,724620,37.43,-105.87,81101
NM,G0800230,Taos Muni Apt Awos,723663,36.45,-105.67,87529
CO,G0800250,La Junta Municipal Ap,724635,38.05,-103.53,81030
CO,G0800270,Pueblo Memorial Ap,724640,38.28,-104.5,81006
CO,G0800290,Montrose Co  Arpt,724765,38.5,-107.9,81401
CO,G0800310,Aurora Buckley Field Angb,724695,39.72,-104.75,80018
CO,G0800330,Cortez Montezuma Co,724767,37.3,-108.63,
CO,G0800350,Aurora Buckley Field Angb,724695,39.72,-104.75,80018
CO,G0800370,Eagle County Ap,724675,39.65,-106.92,81637
CO,G0800390,Aurora Buckley Field Angb,724695,39.72,-104.75,80018
CO,G0800410,Colorado Springs Muni Ap,724660,38.82,-104.72,80916
CO,G0800430,Colorado Springs Muni Ap,724660,38.82,-104.72,80916
CO,G0800450,Rifle Garfield Rgnl,725717,39.53,-107.72,81650
CO,G0800470,Leadville Lake Co,724673,39.22,-106.32,80461
CO,G0800490,Leadville Lake Co,724673,39.22,-106.32,80461
CO,G0800510,Gunnison Co   Awos,724677,38.53,-106.93,
CO,G0800530,Alamosa San Luis Valley Rgnl,724620,37.43,-105.87,81101
CO,G0800550,Pueblo Memorial Ap,724640,38.28,-104.5,81006
CO,G0800570,Hayden Yampa  Awos,725715,40.48,-107.22,81639
CO,G0800590,Denver Centennial  Golden   Nr,724666,39.74,-105.18,80401
CO,G0800610,Lamar Municipal,724636,38.07,-102.68,
CO,G0800630,Akron Washington Co Ap,724698,40.17,-103.23,80720
CO,G0800650,Leadville Lake Co,724673,39.22,-106.32,80461
CO,G0800670,Durango La Plata Co,724625,37.15,-107.75,
CO,G0800690,Fort Collins  Awos,724769,40.45,-105.02,80538
CO,G0800710,Trinidad Las Animas County Ap,724645,37.27,-104.33,81046
CO,G0800730,Limon,724665,39.18,-103.72,
CO,G0800750,Akron Washington Co Ap,724698,40.17,-103.23,80720
CO,G0800770,Grand Junction Walker Field,724760,39.13,-108.53,81506
CO,G0800790,Gunnison Co   Awos,724677,38.53,-106.93,
CO,G0800810,Craig Moffat,725700,40.5,-107.53,81625
CO,G0800830,Cortez Montezuma Co,724767,37.3,-108.63,
CO,G0800850,Montrose Co  Arpt,724765,38.5,-107.9,81401
CO,G0800870,Akron Washington Co Ap,724698,40.17,-103.23,80720
CO,G0800890,La Junta Municipal Ap,724635,38.05,-103.53,81030
CO,G0800910,Eagle County Ap,724675,39.65,-106.92,81637
CO,G0800930,Leadville Lake Co,724673,39.22,-106.32,80461
CO,G0800950,Akron Washington Co Ap,724698,40.17,-103.23,80720
CO,G0800970,Aspen Pitkin Co Sar,724676,39.22,-106.87,81611
CO,G0800990,Lamar Municipal,724636,38.07,-102.68,
CO,G0801010,Pueblo Memorial Ap,724640,38.28,-104.5,81006
CO,G0801030,Craig Moffat,725700,40.5,-107.53,81625
CO,G0801050,Alamosa San Luis Valley Rgnl,724620,37.43,-105.87,81101
CO,G0801070,Hayden Yampa  Awos,725715,40.48,-107.22,81639
CO,G0801090,Alamosa San Luis Valley Rgnl,724620,37.43,-105.87,81101
CO,G0801110,Alamosa San Luis Valley Rgnl,724620,37.43,-105.87,81101
CO,G0801130,Montrose Co  Arpt,724765,38.5,-107.9,81401
CO,G0801150,Akron Washington Co Ap,724698,40.17,-103.23,80720
CO,G0801170,Leadville Lake Co,724673,39.22,-106.32,80461
CO,G0801190,Colorado Springs Muni Ap,724660,38.82,-104.72,80916
CO,G0801210,Akron Washington Co Ap,724698,40.17,-103.23,80720
CO,G0801230,Greeley Weld  Awos,724768,40.43,-104.63,
CO,G0801250,Akron Washington Co Ap,724698,40.17,-103.23,80720
CT,G0900010,Danbury Municipal,725086,41.37,-73.48,6813
CT,G0900030,Hartford Brainard Fd,725087,41.73,-72.65,6109
CT,G0900050,Oxford  Awos,725029,41.48,-73.13,
CT,G0900070,Hartford Brainard Fd,725087,41.73,-72.65,6109
CT,G0900090,New Haven Tweed Airport,725045,41.27,-72.88,6512
CT,G0900110,Groton New London Ap,725046,41.33,-72.05,6340
CT,G0900130,Hartford Brainard Fd,725087,41.73,-72.65,6109
MA,G0900150,Worcester Rgnl AP,725100,42.267,-71.883,1602
DE,G1000010,Dover Afb,724088,39.13,-75.47,19961
DE,G1000030,Wilmington New Castle Cnty Ap,724089,39.67,-75.6,19720
MD,G1000050,Salisbury-Ocean City-Wicomico Rgnl AP,723980,38.333,-75.517,21804
VA,G1100010,Washington Dc Reagan Ap,724050,38.87,-77.03,20242
FL,G1200010,Gainesville Rgnl AP,747560,29.7,-82.283,32609
FL,G1200030,Jacksonville Nas,722065,30.23,-81.67,32212
FL,G1200050,Panama City Bay Co,722245,30.2,-85.68,32405
FL,G1200070,Gainesville Regional Ap,722146,29.7,-82.28,32609
FL,G1200090,Melbourne Regional Ap,722040,28.12,-80.65,32935
FL,G1200110,Fort Lauderdale,722039,26.2,-80.17,33309
FL,G1200130,Tyndall Afb,747750,30.07,-85.58,32403
FL,G1200150,Fort Myers Page Field,722106,26.58,-81.87,33907
FL,G1200170,Ocala Muni  Awos,722055,29.17,-82.22,34474
FL,G1200190,Jacksonville Nas,722065,30.23,-81.67,32212
FL,G1200210,Naples Municipal,722038,26.15,-81.77,34104
FL,G1200230,Gainesville Rgnl AP,747560,29.7,-82.283,32609
FL,G1200270,Fort Myers Page Field,722106,26.58,-81.87,33907
FL,G1200290,Gainesville Rgnl AP,747560,29.7,-82.283,32609
FL,G1200310,Jacksonville Nas,722065,30.23,-81.67,32212
FL,G1200330,Pensacola Regional Ap,722223,30.48,-87.18,32504
FL,G1200350,Daytona Beach Intl AP,747870,29.183,-81.067,32114
FL,G1200370,Tallahassee Regional Ap  Isis,722140,30.38,-84.37,32310
FL,G1200390,Tallahassee Regional Ap  Isis,722140,30.38,-84.37,32310
FL,G1200410,Gainesville Rgnl AP,747560,29.7,-82.283,32609
FL,G1200430,Southwest Florida I,722108,26.53,-81.75,33913
FL,G1200450,Tyndall Afb,747750,30.07,-85.58,32403
GA,G1200470,Valdosta Wb Airport,722166,30.78,-83.28,31601
FL,G1200490,Lakeland Linder Rgn,722119,27.98,-82.02,33811
FL,G1200510,Southwest Florida I,722108,26.53,-81.75,33913
FL,G1200530,Tampa International Ap,722110,27.97,-82.53,33607
FL,G1200550,Lakeland Linder Rgn,722119,27.98,-82.02,33811
FL,G1200570,Tampa International Ap,722110,27.97,-82.53,33607
FL,G1200590,Panama City Bay Co,722245,30.2,-85.68,32405
FL,G1200610,Vero Beach Municipal Arpt,722045,27.65,-80.42,32960
FL,G1200630,Panama City Bay Co,722245,30.2,-85.68,32405
FL,G1200650,Tallahassee Regional Ap  Isis,722140,30.38,-84.37,32310
GA,G1200670,Valdosta Wb Airport,722166,30.78,-83.28,31601
FL,G1200690,Orlando Executive Ap,722053,28.55,-81.33,32814
FL,G1200710,Fort Myers Page Field,722106,26.58,-81.87,33907
FL,G1200730,Tallahassee Regional Ap  Isis,722140,30.38,-84.37,32310
FL,G1200750,Ocala Muni  Awos,722055,29.17,-82.22,34474
FL,G1200770,Tallahassee Regional Ap  Isis,722140,30.38,-84.37,32310
GA,G1200790,Valdosta Wb Airport,722166,30.78,-83.28,31601
FL,G1200810,Sarasota Bradenton,722115,27.38,-82.55,34234
FL,G1200830,Ocala Muni  Awos,722055,29.17,-82.22,34474
FL,G1200850,St Lucie Co Intl,722103,27.48,-80.37,34946
FL,G1200860,Miami Intl Ap,722020,25.82,-80.3,33166
FL,G1200870,Marathon Airport,722016,24.73,-81.05,33050
FL,G1200890,Jacksonville Intl Arpt,722060,30.5,-81.7,
FL,G1200910,Valparaiso Elgin Afb,722210,30.48,-86.52,32580
FL,G1200930,St Lucie Co Intl,722103,27.48,-80.37,34946
FL,G1200950,Orlando Executive Ap,722053,28.55,-81.33,32814
FL,G1200970,Orlando Intl Arpt,722050,28.43,-81.33,32862
FL,G1200990,West Palm Beach Intl Arpt,722030,26.68,-80.1,33406
FL,G1201010,Tampa International Ap,722110,27.97,-82.53,33607
FL,G1201030,St Petersburg Clear,722116,27.9,-82.68,33762
FL,G1201050,Lakeland Linder Rgn,722119,27.98,-82.02,33811
FL,G1201070,Gainesville Regional Ap,722146,29.7,-82.28,32609
FL,G1201090,Jacksonville Nas,722065,30.23,-81.67,32212
FL,G1201110,St Lucie Co Intl,722103,27.48,-80.37,34946
FL,G1201130,Pensacola Regional Ap,722223,30.48,-87.18,32504
FL,G1201150,Sarasota Bradenton,722115,27.38,-82.55,34234
FL,G1201170,Orlando Sanford Airport,722057,28.78,-81.25,32773
FL,G1201190,Ocala Muni  Awos,722055,29.17,-82.22,34474
GA,G1201210,Valdosta Wb Airport,722166,30.78,-83.28,31601
GA,G1201230,Valdosta Wb Airport,722166,30.78,-83.28,31601
FL,G1201250,Gainesville Rgnl AP,747560,29.7,-82.283,32609
FL,G1201270,Daytona Beach Intl Ap,722056,29.18,-81.07,32114
FL,G1201290,Tallahassee Regional Ap  Isis,722140,30.38,-84.37,32310
FL,G1201310,Valparaiso Elgin Afb,722210,30.48,-86.52,32580
FL,G1201330,Panama City Bay Co,722245,30.2,-85.68,32405
GA,G1300010,Alma-Bacon County AP,723160,31.533,-82.5,31510
GA,G1300030,Albany Dougherty County Ap,722160,31.53,-84.18,31707
GA,G1300050,Alma-Bacon County AP,723160,31.533,-82.5,31510
GA,G1300070,Albany Dougherty County Ap,722160,31.53,-84.18,31707
GA,G1300090,Macon Middle Ga Regional Ap,722170,32.68,-83.65,31297
GA,G1300110,Athens Ben Epps Ap,723110,33.95,-83.33,30605
GA,G1300130,Athens Ben Epps Ap,723110,33.95,-83.33,30605
GA,G1300150,Marietta Dobbins Afb,722270,33.92,-84.52,30069
GA,G1300170,Albany Dougherty County Ap,722160,31.53,-84.18,31707
GA,G1300190,Moody Afb Valdosta,747810,30.97,-83.2,31699
GA,G1300210,Macon Middle Ga Regional Ap,722170,32.68,-83.65,31297
GA,G1300230,Warner Robins Afb,722175,32.63,-83.6,31098
GA,G1300250,Brunswick Golden Is,722136,31.25,-81.47,31524
GA,G1300270,Valdosta Wb Airport,722166,30.78,-83.28,31601
GA,G1300290,Savannah Intl Ap,722070,32.12,-81.2,31418
GA,G1300310,Augusta Bush Field,722180,33.37,-81.97,
GA,G1300330,Augusta Bush Field,722180,33.37,-81.97,
GA,G1300350,Atlanta Hartsfield Intl Ap,722190,33.63,-84.43,30321
GA,G1300370,Albany Dougherty County Ap,722160,31.53,-84.18,31707
FL,G1300390,Jacksonville Intl Arpt,722060,30.5,-81.7,
GA,G1300430,Savannah Intl Ap,722070,32.12,-81.2,31418
GA,G1300450,Fulton Co Arpt Brow,722195,33.77,-84.52,30318
TN,G1300470,Chattanooga Lovell Field Ap,723240,35.03,-85.2,37421
FL,G1300490,Jacksonville Intl Arpt,722060,30.5,-81.7,
GA,G1300510,Hunter Aaf,747804,32,-81.15,31409
GA,G1300530,Fort Benning Lawson,722250,32.35,-85,36856
GA,G1300550,Rome R B Russell Ap,723200,34.35,-85.17,30165
GA,G1300570,Marietta Dobbins Afb,722270,33.92,-84.52,30069
GA,G1300590,Athens Ben Epps Ap,723110,33.95,-83.33,30605
AL,G1300610,Dothan Municipal Ap,722268,31.23,-85.43,36301
GA,G1300630,Atlanta Hartsfield Intl Ap,722190,33.63,-84.43,30321
GA,G1300650,Moody Afb Valdosta,747810,30.97,-83.2,31699
GA,G1300670,Marietta Dobbins Afb,722270,33.92,-84.52,30069
GA,G1300690,Albany Dougherty County Ap,722160,31.53,-84.18,31707
GA,G1300710,Moody Afb Valdosta,747810,30.97,-83.2,31699
GA,G1300730,Augusta Bush Field,722180,33.37,-81.97,
GA,G1300750,Moody Afb Valdosta,747810,30.97,-83.2,31699
GA,G1300770,Atlanta Hartsfield Intl Ap,722190,33.63,-84.43,30321
GA,G1300790,Macon Middle Ga Regional Ap,722170,32.68,-83.65,31297
GA,G1300810,Albany Dougherty County Ap,722160,31.53,-84.18,31707
TN,G1300830,Chattanooga Lovell Field Ap,723240,35.03,-85.2,37421
GA,G1300850,Rome R B Russell Ap,723200,34.35,-85.17,30165
FL,G1300870,Tallahassee Regional Ap  Isis,722140,30.38,-84.37,32310
GA,G1300890,Dekalb Peachtree,722196,33.87,-84.3,30345
GA,G1300910,Warner Robins Afb,722175,32.63,-83.6,31098
GA,G1300930,Warner Robins Afb,722175,32.63,-83.6,31098
GA,G1300950,Albany Dougherty County Ap,722160,31.53,-84.18,31707
GA,G1300970,Fulton Co Arpt Brow,722195,33.77,-84.52,30318
AL,G1300990,Dothan Municipal Ap,722268,31.23,-85.43,36301
GA,G1301010,Valdosta Wb Airport,722166,30.78,-83.28,31601
GA,G1301030,Savannah Intl Ap,722070,32.12,-81.2,31418
SC,G1301050,Anderson County Ap,723125,34.5,-82.72,29626
GA,G1301070,Augusta Bush Field,722180,33.37,-81.97,
GA,G1301090,Savannah Intl Ap,722070,32.12,-81.2,31418
TN,G1301110,Chattanooga Lovell Field Ap,723240,35.03,-85.2,37421
GA,G1301130,Atlanta Hartsfield Intl Ap,722190,33.63,-84.43,30321
GA,G1301150,Rome R B Russell Ap,723200,34.35,-85.17,30165
GA,G1301170,Dekalb Peachtree,722196,33.87,-84.3,30345
NC,G1301190,Asheville Regional Arpt,723150,35.43,-82.53,28704
GA,G1301210,Dekalb Peachtree,722196,33.87,-84.3,30345
GA,G1301230,Rome R B Russell Ap,723200,34.35,-85.17,30165
GA,G1301250,Augusta Bush Field,722180,33.37,-81.97,
GA,G1301270,Brunswick Golden Is,722136,31.25,-81.47,31524
GA,G1301290,Rome R B Russell Ap,723200,34.35,-85.17,30165
FL,G1301310,Tallahassee Regional Ap  Isis,722140,30.38,-84.37,32310
GA,G1301330,Athens Ben Epps Ap,723110,33.95,-83.33,30605
GA,G1301350,Dekalb Peachtree,722196,33.87,-84.3,30345
TN,G1301370,Knoxville Mcghee Tyson Ap,723260,35.82,-83.98,37701
GA,G1301390,Rome R B Russell Ap,723200,34.35,-85.17,30165
GA,G1301410,Athens Ben Epps Ap,723110,33.95,-83.33,30605
GA,G1301430,Fulton Co Arpt Brow,722195,33.77,-84.52,30318
GA,G1301450,Columbus Metropolitan Arpt,722255,32.52,-84.95,31904
SC,G1301470,Anderson County Ap,723125,34.5,-82.72,29626
GA,G1301490,Fulton Co Arpt Brow,722195,33.77,-84.52,30318
GA,G1301510,Atlanta Hartsfield Intl Ap,722190,33.63,-84.43,30321
GA,G1301530,Warner Robins Afb,722175,32.63,-83.6,31098
GA,G1301550,Albany Dougherty County Ap,722160,31.53,-84.18,31707
GA,G1301570,Athens Ben Epps Ap,723110,33.95,-83.33,30605
GA,G1301590,Macon Middle Ga Regional Ap,722170,32.68,-83.65,31297
GA,G1301610,Alma-Bacon County AP,723160,31.533,-82.5,31510
GA,G1301630,Augusta Bush Field,722180,33.37,-81.97,
GA,G1301650,Augusta Bush Field,722180,33.37,-81.97,
GA,G1301670,Warner Robins Afb,722175,32.63,-83.6,31098
GA,G1301690,Macon Middle Ga Regional Ap,722170,32.68,-83.65,31297
GA,G1301710,Atlanta Hartsfield Intl Ap,722190,33.63,-84.43,30321
GA,G1301730,Moody Afb Valdosta,747810,30.97,-83.2,31699
GA,G1301750,Warner Robins Afb,722175,32.63,-83.6,31098
GA,G1301770,Albany Dougherty County Ap,722160,31.53,-84.18,31707
GA,G1301790,Hunter Aaf,747804,32,-81.15,31409
GA,G1301810,Augusta Bush Field,722180,33.37,-81.97,
GA,G1301830,Brunswick Golden Is,722136,31.25,-81.47,31524
GA,G1301850,Valdosta Wb Airport,722166,30.78,-83.28,31601
GA,G1301870,Rome R B Russell Ap,723200,34.35,-85.17,30165
GA,G1301890,Augusta Bush Field,722180,33.37,-81.97,
GA,G1301910,Brunswick Golden Is,722136,31.25,-81.47,31524
GA,G1301930,Macon Middle Ga Regional Ap,722170,32.68,-83.65,31297
GA,G1301950,Athens Ben Epps Ap,723110,33.95,-83.33,30605
GA,G1301970,Columbus Metropolitan Arpt,722255,32.52,-84.95,31904
GA,G1301990,Columbus Metropolitan Arpt,722255,32.52,-84.95,31904
FL,G1302010,Tallahassee Regional Ap  Isis,722140,30.38,-84.37,32310
GA,G1302050,Albany Dougherty County Ap,722160,31.53,-84.18,31707
GA,G1302070,Macon Middle Ga Regional Ap,722170,32.68,-83.65,31297
GA,G1302090,Alma-Bacon County AP,723160,31.533,-82.5,31510
GA,G1302110,Athens Ben Epps Ap,723110,33.95,-83.33,30605
TN,G1302130,Chattanooga Lovell Field Ap,723240,35.03,-85.2,37421
GA,G1302150,Columbus Metropolitan Arpt,722255,32.52,-84.95,31904
GA,G1302170,Dekalb Peachtree,722196,33.87,-84.3,30345
GA,G1302190,Athens Ben Epps Ap,723110,33.95,-83.33,30605
GA,G1302210,Athens Ben Epps Ap,723110,33.95,-83.33,30605
GA,G1302230,Marietta Dobbins Afb,722270,33.92,-84.52,30069
GA,G1302250,Macon Middle Ga Regional Ap,722170,32.68,-83.65,31297
GA,G1302270,Marietta Dobbins Afb,722270,33.92,-84.52,30069
GA,G1302290,Alma Bacon County Ap,722135,31.53,-82.5,31510
GA,G1302310,Atlanta Hartsfield Intl Ap,722190,33.63,-84.43,30321
GA,G1302330,Marietta Dobbins Afb,722270,33.92,-84.52,30069
GA,G1302350,Warner Robins Afb,722175,32.63,-83.6,31098
GA,G1302370,Athens Ben Epps Ap,723110,33.95,-83.33,30605
GA,G1302390,Fort Benning Lawson,722250,32.35,-85,36856
NC,G1302410,Asheville Regional Arpt,723150,35.43,-82.53,28704
GA,G1302430,Albany Dougherty County Ap,722160,31.53,-84.18,31707
GA,G1302450,Augusta Bush Field,722180,33.37,-81.97,
GA,G1302470,Dekalb Peachtree,722196,33.87,-84.3,30345
GA,G1302490,Columbus Metropolitan Arpt,722255,32.52,-84.95,31904
GA,G1302510,Augusta Bush Field,722180,33.37,-81.97,
FL,G1302530,Tallahassee Regional Ap  Isis,722140,30.38,-84.37,32310
GA,G1302550,Atlanta Hartsfield Intl Ap,722190,33.63,-84.43,30321
NC,G1302570,Asheville Regional Arpt,723150,35.43,-82.53,28704
GA,G1302590,Fort Benning Lawson,722250,32.35,-85,36856
GA,G1302610,Albany Dougherty County Ap,722160,31.53,-84.18,31707
GA,G1302630,Columbus Metropolitan Arpt,722255,32.52,-84.95,31904
GA,G1302650,Athens Ben Epps Ap,723110,33.95,-83.33,30605
GA,G1302670,Alma-Bacon County AP,723160,31.533,-82.5,31510
GA,G1302690,Macon Middle Ga Regional Ap,722170,32.68,-83.65,31297
GA,G1302710,Alma-Bacon County AP,723160,31.533,-82.5,31510
GA,G1302730,Albany Dougherty County Ap,722160,31.53,-84.18,31707
FL,G1302750,Tallahassee Regional Ap  Isis,722140,30.38,-84.37,32310
GA,G1302770,Albany Dougherty County Ap,722160,31.53,-84.18,31707
GA,G1302790,Alma-Bacon County AP,723160,31.533,-82.5,31510
TN,G1302810,Knoxville Mcghee Tyson Ap,723260,35.82,-83.98,37701
GA,G1302830,Alma-Bacon County AP,723160,31.533,-82.5,31510
GA,G1302850,Columbus Metropolitan Arpt,722255,32.52,-84.95,31904
GA,G1302870,Albany Dougherty County Ap,722160,31.53,-84.18,31707
GA,G1302890,Warner Robins Afb,722175,32.63,-83.6,31098
TN,G1302910,Knoxville Mcghee Tyson Ap,723260,35.82,-83.98,37701
GA,G1302930,Macon Middle Ga Regional Ap,722170,32.68,-83.65,31297
TN,G1302950,Chattanooga Lovell Field Ap,723240,35.03,-85.2,37421
GA,G1302970,Athens Ben Epps Ap,723110,33.95,-83.33,30605
GA,G1302990,Alma Bacon County Ap,722135,31.53,-82.5,31510
GA,G1303010,Augusta Bush Field,722180,33.37,-81.97,
GA,G1303030,Warner Robins Afb,722175,32.63,-83.6,31098
GA,G1303050,Brunswick Golden Is,722136,31.25,-81.47,31524
GA,G1303070,Fort Benning Lawson,722250,32.35,-85,36856
GA,G1303090,Alma-Bacon County AP,723160,31.533,-82.5,31510
TN,G1303110,Knoxville Mcghee Tyson Ap,723260,35.82,-83.98,37701
TN,G1303130,Chattanooga Lovell Field Ap,723240,35.03,-85.2,37421
GA,G1303150,Warner Robins Afb,722175,32.63,-83.6,31098
GA,G1303170,Athens Ben Epps Ap,723110,33.95,-83.33,30605
GA,G1303190,Warner Robins Afb,722175,32.63,-83.6,31098
GA,G1303210,Albany Dougherty County Ap,722160,31.53,-84.18,31707
HI,G1500010,Hilo International Ap,912850,19.72,-155.05,96720
HI,G1500030,Honolulu Intl Arpt,911820,21.32,-157.93,96853
HI,G1500070,Lihue Airport,911650,21.98,-159.33,96766
HI,G1500090,Kahului Airport,911900,20.9,-156.43,96732
ID,G1600010,Boise Air Terminal  Uo,726810,43.62,-116.21,83702
ID,G1600030,Boise Air Terminal  Uo,726810,43.62,-116.21,83702
ID,G1600050,Pocatello Regional Ap,725780,42.92,-112.57,
ID,G1600070,Soda Springs Tigert,725868,42.65,-111.58,83276
ID,G1600090,Coeur D Alene Awos,727834,47.77,-116.82,83835
ID,G1600110,Pocatello Regional Ap,725780,42.92,-112.57,
ID,G1600130,Hailey Friedman Mem,725865,43.5,-114.3,83333
ID,G1600150,Boise Air Terminal  Uo,726810,43.62,-116.21,83702
MT,G1600170,Kalispell Glacier Pk IntL Ar,727790,48.32,-114.25,
ID,G1600190,Idaho Falls Fanning Field,725785,43.52,-112.07,83402
MT,G1600210,Kalispell Glacier Pk IntL Ar,727790,48.32,-114.25,
ID,G1600230,Hailey Friedman Mem,725865,43.5,-114.3,83333
ID,G1600250,Hailey Friedman Mem,725865,43.5,-114.3,83333
ID,G1600270,Caldwell  Awos,726813,43.63,-116.63,83651
ID,G1600290,Soda Springs Tigert,725868,42.65,-111.58,83276
ID,G1600310,Burley Municipal Arpt,725867,42.53,-113.77,83318
ID,G1600330,Idaho Falls Fanning Field,725785,43.52,-112.07,83402
ID,G1600350,Lewiston Nez Perce Cnty Ap,727830,46.37,-117.02,83501
ID,G1600370,Hailey Friedman Mem,725865,43.5,-114.3,83333
ID,G1600390,Mountain Home Afb,726815,43.05,-115.87,83648
ID,G1600410,Malad City,725786,42.15,-112.28,
ID,G1600430,Idaho Falls Fanning Field,725785,43.52,-112.07,83402
ID,G1600450,Caldwell  Awos,726813,43.63,-116.63,83651
ID,G1600470,Joslin Fld Magic Va  Twin Fall,725866,42.55,-114.35,83341
ID,G1600490,Lewiston Nez Perce Cnty Ap,727830,46.37,-117.02,83501
ID,G1600510,Idaho Falls Fanning Field,725785,43.52,-112.07,83402
ID,G1600530,Joslin Fld Magic Va  Twin Fall,725866,42.55,-114.35,83341
ID,G1600550,Coeur D Alene Awos,727834,47.77,-116.82,83835
WA,G1600570,Pullman Moscow Rgnl,727857,46.75,-117.12,99164
ID,G1600590,Salmon Lemhi  Awos,726865,45.12,-113.88,83467
ID,G1600610,Lewiston Nez Perce Cnty Ap,727830,46.37,-117.02,83501
ID,G1600630,Joslin Fld Magic Va  Twin Fall,725866,42.55,-114.35,83341
ID,G1600650,Idaho Falls Fanning Field,725785,43.52,-112.07,83402
ID,G1600670,Burley Municipal Arpt,725867,42.53,-113.77,83318
ID,G1600690,Lewiston Nez Perce Cnty Ap,727830,46.37,-117.02,83501
ID,G1600710,Malad City,725786,42.15,-112.28,
ID,G1600730,Caldwell  Awos,726813,43.63,-116.63,83651
ID,G1600750,Caldwell  Awos,726813,43.63,-116.63,83651
ID,G1600770,Pocatello Regional Ap,725780,42.92,-112.57,
MT,G1600790,Kalispell Glacier Pk IntL Ar,727790,48.32,-114.25,
ID,G1600810,Idaho Falls Fanning Field,725785,43.52,-112.07,83402
ID,G1600830,Joslin Fld Magic Va  Twin Fall,725866,42.55,-114.35,83341
ID,G1600850,Hailey Friedman Mem,725865,43.5,-114.3,83333
ID,G1600870,Caldwell  Awos,726813,43.63,-116.63,83651
IL,G1700010,Quincy Rgnl AP-Baldwin Field,724430,39.933,-91.2,62305
MO,G1700030,Cape Girardeau Rgnl AP,723290,37.233,-89.567,63780
IL,G1700050,Belleville Scott Afb,724338,38.55,-89.85,62225
IL,G1700070,Rockford Greater Rockford Ap,725430,42.2,-89.1,61104
IL,G1700090,Quincy Rgnl AP-Baldwin Field,724430,39.933,-91.2,62305
IL,G1700110,Sterling Rockfalls,725326,41.75,-89.67,61071
MO,G1700130,St Louis Lambert IntL Arpt,724340,38.75,-90.37,63145
IL,G1700150,Sterling Rockfalls,725326,41.75,-89.67,61071
IL,G1700170,Springfield Capital Ap,724390,39.85,-89.68,62702
IL,G1700190,Univ Of Illinois Wi  Bondville,725315,40.06,-88.37,61822
IL,G1700210,Belleville Scott Afb,724338,38.55,-89.85,62225
IN,G1700230,Monroe Co,724375,39.13,-86.62,47403
IL,G1700250,Mount Vernon  Awos,724335,38.32,-88.87,62864
IL,G1700270,Belleville Scott Afb,724338,38.55,-89.85,62225
IL,G1700290,Univ Of Illinois Wi  Bondville,725315,40.06,-88.37,61822
IL,G1700310,Chicago Midway Ap,725340,41.78,-87.75,60638
IN,G1700330,Evansville Regional Ap,724320,38.05,-87.53,47711
IL,G1700350,Univ Of Illinois Wi  Bondville,725315,40.06,-88.37,61822
IL,G1700370,Aurora Municipal,744655,41.77,-88.47,60554
IL,G1700390,Central Illinois Rg,724397,40.47,-88.92,61704
IL,G1700410,Univ Of Illinois Wi  Bondville,725315,40.06,-88.37,61822
IL,G1700430,W  Chicago Du Page,725305,41.92,-88.25,60174
IN,G1700450,Terre Haute Hulman Regional A,724373,39.45,-87.3,47871
IN,G1700470,Evansville Regional Ap,724320,38.05,-87.53,47711
IL,G1700490,Mount Vernon  Awos,724335,38.32,-88.87,62864
IL,G1700510,Mount Vernon  Awos,724335,38.32,-88.87,62864
IL,G1700530,Univ Of Illinois Wi  Bondville,725315,40.06,-88.37,61822
IL,G1700550,Marion Regional,724339,37.75,-89.02,62948
IL,G1700570,Peoria Greater Peoria Ap,725320,40.67,-89.68,61607
KY,G1700590,Henderson City,724238,37.82,-87.68,42420
IL,G1700610,Springfield Capital Ap,724390,39.85,-89.68,62702
IL,G1700630,Aurora Municipal,744655,41.77,-88.47,60554
IL,G1700650,Mount Vernon  Awos,724335,38.32,-88.87,62864
IA,G1700670,Keokuk Muni,725456,40.47,-91.43,52632
KY,G1700690,Paducah Barkley Regional Ap,724350,37.05,-88.77,42086
IA,G1700710,Burlington-Southeast Iowa Rgnl AP,725420,40.783,-91.117,52601
IL,G1700730,Moline Quad City Intl Ap,725440,41.47,-90.52,61265
IL,G1700750,Univ Of Illinois Wi  Bondville,725315,40.06,-88.37,61822
IL,G1700770,Southern Illinois,724336,37.77,-89.25,62966
IL,G1700790,Mount Vernon  Awos,724335,38.32,-88.87,62864
IL,G1700810,Mount Vernon  Awos,724335,38.32,-88.87,62864
MO,G1700830,St Louis Lambert IntL Arpt,724340,38.75,-90.37,63145
WI,G1700850,Lone Rock Faa Ap,726416,43.2,-90.18,53588
IL,G1700870,Marion Regional,724339,37.75,-89.02,62948
IL,G1700890,W  Chicago Du Page,725305,41.92,-88.25,60174
IL,G1700910,Chicago Midway Ap,725340,41.78,-87.75,60638
IL,G1700930,Aurora Municipal,744655,41.77,-88.47,60554
IL,G1700950,Moline Quad City Intl Ap,725440,41.47,-90.52,61265
IL,G1700970,Chicago Waukegan,725347,42.42,-87.87,60087
IL,G1700990,Aurora Municipal,744655,41.77,-88.47,60554
IN,G1701010,Evansville Regional Ap,724320,38.05,-87.53,47711
IL,G1701030,Sterling Rockfalls,725326,41.75,-89.67,61071
IL,G1701050,Central Illinois Rg,724397,40.47,-88.92,61704
IL,G1701070,Springfield Capital Ap,724390,39.85,-89.68,62702
IA,G1701090,Burlington-Southeast Iowa Rgnl AP,725420,40.783,-91.117,52601
IL,G1701110,W  Chicago Du Page,725305,41.92,-88.25,60174
IL,G1701130,Central Illinois Rg,724397,40.47,-88.92,61704
IL,G1701150,Decatur,725316,39.83,-88.87,
IL,G1701170,Belleville Scott Afb,724338,38.55,-89.85,62225
IL,G1701190,Cahokia St  Louis,725314,38.57,-90.15,62206
IL,G1701210,Mount Vernon  Awos,724335,38.32,-88.87,62864
IL,G1701230,Peoria Greater Peoria Ap,725320,40.67,-89.68,61607
IL,G1701250,Peoria Greater Peoria Ap,725320,40.67,-89.68,61607
KY,G1701270,Paducah Barkley Regional Ap,724350,37.05,-88.77,42086
IL,G1701290,Springfield Capital Ap,724390,39.85,-89.68,62702
IL,G1701310,Moline Quad City Intl Ap,725440,41.47,-90.52,61265
IL,G1701330,Cahokia St  Louis,725314,38.57,-90.15,62206
IL,G1701350,Belleville Scott Afb,724338,38.55,-89.85,62225
IL,G1701370,Springfield Capital Ap,724390,39.85,-89.68,62702
IL,G1701390,Decatur,725316,39.83,-88.87,
IL,G1701410,Rockford Greater Rockford Ap,725430,42.2,-89.1,61104
IL,G1701430,Peoria Greater Peoria Ap,725320,40.67,-89.68,61607
IL,G1701450,Southern Illinois,724336,37.77,-89.25,62966
IL,G1701470,Univ Of Illinois Wi  Bondville,725315,40.06,-88.37,61822
IL,G1701490,Quincy Muni Baldwin Fld,724396,39.93,-91.2,62338
KY,G1701510,Paducah Barkley Regional Ap,724350,37.05,-88.77,42086
KY,G1701530,Paducah Barkley Regional Ap,724350,37.05,-88.77,42086
IL,G1701550,Sterling Rockfalls,725326,41.75,-89.67,61071
IL,G1701570,Belleville Scott Afb,724338,38.55,-89.85,62225
IN,G1701590,Evansville Regional Ap,724320,38.05,-87.53,47711
IL,G1701610,Moline Quad City Intl Ap,725440,41.47,-90.52,61265
IL,G1701630,Cahokia St  Louis,725314,38.57,-90.15,62206
IL,G1701650,Marion Regional,724339,37.75,-89.02,62948
IL,G1701670,Springfield Capital Ap,724390,39.85,-89.68,62702
IL,G1701690,Quincy Rgnl AP-Baldwin Field,724430,39.933,-91.2,62305
IL,G1701710,Quincy Muni Baldwin Fld,724396,39.93,-91.2,62338
IL,G1701730,Mount Vernon  Awos,724335,38.32,-88.87,62864
IL,G1701750,Peoria Greater Peoria Ap,725320,40.67,-89.68,61607
IL,G1701770,Rockford Greater Rockford Ap,725430,42.2,-89.1,61104
IL,G1701790,Peoria Greater Peoria Ap,725320,40.67,-89.68,61607
IL,G1701810,Southern Illinois,724336,37.77,-89.25,62966
IL,G1701830,Univ Of Illinois Wi  Bondville,725315,40.06,-88.37,61822
IN,G1701850,Evansville Regional Ap,724320,38.05,-87.53,47711
IA,G1701870,Burlington-Southeast Iowa Rgnl AP,725420,40.783,-91.117,52601
IL,G1701890,Belleville Scott Afb,724338,38.55,-89.85,62225
IL,G1701910,Mount Vernon  Awos,724335,38.32,-88.87,62864
KY,G1701930,Henderson City,724238,37.82,-87.68,42420
IL,G1701950,Sterling Rockfalls,725326,41.75,-89.67,61071
IL,G1701970,Chicago Midway Ap,725340,41.78,-87.75,60638
IL,G1701990,Marion Regional,724339,37.75,-89.02,62948
IL,G1702010,Rockford Greater Rockford Ap,725430,42.2,-89.1,61104
IL,G1702030,Peoria Greater Peoria Ap,725320,40.67,-89.68,61607
IN,G1800010,Fort Wayne Intl Ap,725330,41,-85.2,46809
IN,G1800030,Fort Wayne Intl Ap,725330,41,-85.2,46809
IN,G1800050,Indianapolis Intl Ap,724380,39.72,-86.27,46241
IN,G1800070,Lafayette Purdue Univ Ap,724386,40.42,-86.93,47906
IN,G1800090,Delaware Co Johnson,725336,40.23,-85.4,47304
IN,G1800110,Indianapolis Intl Ap,724380,39.72,-86.27,46241
IN,G1800130,Indianapolis Intl Ap,724380,39.72,-86.27,46241
IN,G1800150,Lafayette Purdue Univ Ap,724386,40.42,-86.93,47906
IN,G1800170,Grissom Arb,725335,40.65,-86.15,46971
KY,G1800190,Louisville Bowman Field,724235,38.23,-85.67,40205
IN,G1800210,Terre Haute Hulman Regional A,724373,39.45,-87.3,47871
IN,G1800230,Lafayette Purdue Univ Ap,724386,40.42,-86.93,47906
IN,G1800250,Huntingburg,724365,38.25,-86.95,47542
IN,G1800270,Huntingburg,724365,38.25,-86.95,47542
KY,G1800290,Cincinnati Northern Ky Ap,724210,39.05,-84.67,41005
KY,G1800310,Cincinnati Northern Ky Ap,724210,39.05,-84.67,41005
IN,G1800330,Fort Wayne Intl Ap,725330,41,-85.2,46809
IN,G1800350,Delaware Co Johnson,725336,40.23,-85.4,47304
IN,G1800370,Huntingburg,724365,38.25,-86.95,47542
IN,G1800390,South Bend Michiana Rgnl Ap,725350,41.7,-86.33,46628
IN,G1800410,Delaware Co Johnson,725336,40.23,-85.4,47304
KY,G1800430,Louisville Standiford Field,724230,38.18,-85.73,40213
IN,G1800450,Lafayette Purdue Univ Ap,724386,40.42,-86.93,47906
IN,G1800470,Delaware Co Johnson,725336,40.23,-85.4,47304
IN,G1800490,Grissom Arb,725335,40.65,-86.15,46971
IN,G1800510,Evansville Regional Ap,724320,38.05,-87.53,47711
IN,G1800530,Delaware Co Johnson,725336,40.23,-85.4,47304
IN,G1800550,Monroe Co,724375,39.13,-86.62,47403
IN,G1800570,Indianapolis Intl Ap,724380,39.72,-86.27,46241
IN,G1800590,Indianapolis Intl Ap,724380,39.72,-86.27,46241
KY,G1800610,Fort Knox Godman Aaf,724240,37.9,-85.97,40121
IN,G1800630,Indianapolis Intl Ap,724380,39.72,-86.27,46241
IN,G1800650,Delaware Co Johnson,725336,40.23,-85.4,47304
IN,G1800670,Grissom Arb,725335,40.65,-86.15,46971
IN,G1800690,Fort Wayne Intl Ap,725330,41,-85.2,46809
IN,G1800710,Monroe Co,724375,39.13,-86.62,47403
IN,G1800730,Lafayette Purdue Univ Ap,724386,40.42,-86.93,47906
IN,G1800750,Delaware Co Johnson,725336,40.23,-85.4,47304
KY,G1800770,Louisville Bowman Field,724235,38.23,-85.67,40205
KY,G1800790,Louisville Bowman Field,724235,38.23,-85.67,40205
IN,G1800810,Indianapolis Intl Ap,724380,39.72,-86.27,46241
IN,G1800830,Evansville Regional Ap,724320,38.05,-87.53,47711
IN,G1800850,South Bend Michiana Rgnl Ap,725350,41.7,-86.33,46628
MI,G1800870,Kalamazoo Battle Cr,726357,42.23,-85.55,49002
IL,G1800890,Chicago Midway Ap,725340,41.78,-87.75,60638
IN,G1800910,South Bend Michiana Rgnl Ap,725350,41.7,-86.33,46628
IN,G1800930,Monroe Co,724375,39.13,-86.62,47403
IN,G1800950,Delaware Co Johnson,725336,40.23,-85.4,47304
IN,G1800970,Indianapolis Intl Ap,724380,39.72,-86.27,46241
IN,G1800990,South Bend Michiana Rgnl Ap,725350,41.7,-86.33,46628
IN,G1801010,Huntingburg,724365,38.25,-86.95,47542
IN,G1801030,Grissom Arb,725335,40.65,-86.15,46971
IN,G1801050,Monroe Co,724375,39.13,-86.62,47403
IN,G1801070,Lafayette Purdue Univ Ap,724386,40.42,-86.93,47906
IN,G1801090,Indianapolis Intl Ap,724380,39.72,-86.27,46241
IN,G1801110,Lafayette Purdue Univ Ap,724386,40.42,-86.93,47906
IN,G1801130,Fort Wayne Intl Ap,725330,41,-85.2,46809
KY,G1801150,Cincinnati Northern Ky Ap,724210,39.05,-84.67,41005
IN,G1801170,Huntingburg,724365,38.25,-86.95,47542
IN,G1801190,Monroe Co,724375,39.13,-86.62,47403
IN,G1801210,Terre Haute Hulman Regional A,724373,39.45,-87.3,47871
IN,G1801230,Huntingburg,724365,38.25,-86.95,47542
IN,G1801250,Huntingburg,724365,38.25,-86.95,47542
IL,G1801270,Chicago Midway Ap,725340,41.78,-87.75,60638
KY,G1801290,Henderson City,724238,37.82,-87.68,42420
IN,G1801310,Grissom Arb,725335,40.65,-86.15,46971
IN,G1801330,Terre Haute Hulman Regional A,724373,39.45,-87.3,47871
IN,G1801350,Delaware Co Johnson,725336,40.23,-85.4,47304
KY,G1801370,Cincinnati Northern Ky Ap,724210,39.05,-84.67,41005
IN,G1801390,Delaware Co Johnson,725336,40.23,-85.4,47304
IN,G1801410,South Bend Michiana Rgnl Ap,725350,41.7,-86.33,46628
KY,G1801430,Louisville Bowman Field,724235,38.23,-85.67,40205
IN,G1801450,Indianapolis Intl Ap,724380,39.72,-86.27,46241
IN,G1801470,Huntingburg,724365,38.25,-86.95,47542
IN,G1801490,South Bend Michiana Rgnl Ap,725350,41.7,-86.33,46628
IN,G1801510,Fort Wayne Intl Ap,725330,41,-85.2,46809
IN,G1801530,Monroe Co,724375,39.13,-86.62,47403
KY,G1801550,Cincinnati Northern Ky Ap,724210,39.05,-84.67,41005
IN,G1801570,Lafayette Purdue Univ Ap,724386,40.42,-86.93,47906
IN,G1801590,Grissom Arb,725335,40.65,-86.15,46971
OH,G1801610,Dayton International Airport,724290,39.9,-84.22,45377
IN,G1801630,Evansville Regional Ap,724320,38.05,-87.53,47711
IN,G1801650,Terre Haute Hulman Regional A,724373,39.45,-87.3,47871
IN,G1801670,Terre Haute Hulman Regional A,724373,39.45,-87.3,47871
IN,G1801690,Grissom Arb,725335,40.65,-86.15,46971
IN,G1801710,Lafayette Purdue Univ Ap,724386,40.42,-86.93,47906
IN,G1801730,Evansville Regional Ap,724320,38.05,-87.53,47711
KY,G1801750,Louisville Standiford Field,724230,38.18,-85.73,40213
IN,G1801770,Delaware Co Johnson,725336,40.23,-85.4,47304
IN,G1801790,Fort Wayne Intl Ap,725330,41,-85.2,46809
IN,G1801810,Lafayette Purdue Univ Ap,724386,40.42,-86.93,47906
IN,G1801830,Fort Wayne Intl Ap,725330,41,-85.2,46809
IA,G1900010,Creston,725474,41.02,-94.37,50801
IA,G1900030,Creston,725474,41.02,-94.37,50801
IA,G1900050,Decorah,725476,43.28,-91.73,
IA,G1900070,Ottumwa Industrial Ap,725465,41.1,-92.45,52548
IA,G1900090,Atlantic,725453,41.4,-95.05,50022
IA,G1900110,Cedar Rapids Municipal Ap,725450,41.88,-91.72,52404
IA,G1900130,Waterloo Municipal Ap,725480,42.55,-92.4,50703
IA,G1900150,Boone Muni,725486,42.05,-93.85,50036
IA,G1900170,Waterloo Municipal Ap,725480,42.55,-92.4,50703
IA,G1900190,Oelwen,725488,42.68,-91.97,50662
IA,G1900210,Storm Lake,725496,42.6,-95.23,50588
IA,G1900230,Charles City,725463,43.07,-92.62,50616
IA,G1900250,Fort Dodge  Awos,725490,42.55,-94.18,
IA,G1900270,Carroll,725468,42.05,-94.78,51443
IA,G1900290,Atlantic,725453,41.4,-95.05,50022
IA,G1900310,Muscatine,725487,41.37,-91.15,52761
IA,G1900330,Mason City Municipal Arpt,725485,43.15,-93.33,50428
IA,G1900350,Storm Lake,725496,42.6,-95.23,50588
IA,G1900370,Charles City,725463,43.07,-92.62,50616
IA,G1900390,Chariton,725469,41.03,-93.37,
IA,G1900410,Spencer,726500,43.17,-95.15,51301
IA,G1900430,Decorah,725476,43.28,-91.73,
IA,G1900450,Clinton Muni  Awos,725473,41.83,-90.33,52732
IA,G1900470,Denison,725477,41.98,-95.38,51442
IA,G1900490,Des Moines Intl Ap,725460,41.53,-93.67,50321
IA,G1900510,Ottumwa Industrial Ap,725465,41.1,-92.45,52548
IA,G1900530,Chariton,725469,41.03,-93.37,
IA,G1900550,Monticello Muni,725475,42.23,-91.17,52310
IA,G1900570,Burlington-Southeast Iowa Rgnl AP,725420,40.783,-91.117,52601
IA,G1900590,Spencer,726500,43.17,-95.15,51301
IA,G1900610,Dubuque Regional Ap,725470,42.4,-90.7,52003
IA,G1900630,Estherville Muni,726499,43.4,-94.75,51334
IA,G1900650,Oelwen,725488,42.68,-91.97,50662
IA,G1900670,Charles City,725463,43.07,-92.62,50616
IA,G1900690,Mason City Municipal Arpt,725485,43.15,-93.33,50428
IA,G1900710,Shenandoah Muni,725467,40.75,-95.42,
IA,G1900730,Carroll,725468,42.05,-94.78,51443
IA,G1900750,Newton Muni,725464,41.68,-93.02,50208
IA,G1900770,Carroll,725468,42.05,-94.78,51443
IA,G1900790,Webster City,725478,42.43,-93.87,50595
IA,G1900810,Mason City Municipal Arpt,725485,43.15,-93.33,50428
IA,G1900830,Webster City,725478,42.43,-93.87,50595
NE,G1900850,Omaha Eppley Airfield,725500,41.32,-95.9,68110
IA,G1900870,Washington,725454,41.28,-91.67,52353
IA,G1900890,Charles City,725463,43.07,-92.62,50616
IA,G1900910,Fort Dodge  Awos,725490,42.55,-94.18,
IA,G1900930,Storm Lake,725496,42.6,-95.23,50588
IA,G1900950,Cedar Rapids Municipal Ap,725450,41.88,-91.72,52404
IA,G1900970,Dubuque Regional Ap,725470,42.4,-90.7,52003
IA,G1900990,Newton Muni,725464,41.68,-93.02,50208
IA,G1901010,Fair Field,726498,41.05,-91.98,52556
IA,G1901030,Cedar Rapids Municipal Ap,725450,41.88,-91.72,52404
IA,G1901050,Monticello Muni,725475,42.23,-91.17,52310
IA,G1901070,Fair Field,726498,41.05,-91.98,52556
IA,G1901090,Algona,725457,43.08,-94.27,50598
IA,G1901110,Keokuk Muni,725456,40.47,-91.43,52632
IA,G1901130,Cedar Rapids Municipal Ap,725450,41.88,-91.72,52404
IA,G1901150,Muscatine,725487,41.37,-91.15,52761
IA,G1901170,Chariton,725469,41.03,-93.37,
IA,G1901190,Sheldon,725495,43.22,-95.83,
IA,G1901210,Des Moines Intl Ap,725460,41.53,-93.67,50321
IA,G1901230,Ottumwa Industrial Ap,725465,41.1,-92.45,52548
IA,G1901250,Knoxville,725493,41.3,-93.12,50138
IA,G1901270,Newton Muni,725464,41.68,-93.02,50208
IA,G1901290,Council Bluffs,725497,41.27,-95.77,51503
IA,G1901310,Charles City,725463,43.07,-92.62,50616
NE,G1901330,Tekamah  Asos,725527,41.77,-96.17,68061
IA,G1901350,Ottumwa Industrial Ap,725465,41.1,-92.45,52548
IA,G1901370,Red Oak,725494,41.02,-95.27,51566
IA,G1901390,Muscatine,725487,41.37,-91.15,52761
IA,G1901410,Sheldon,725495,43.22,-95.83,
IA,G1901430,Sheldon,725495,43.22,-95.83,
IA,G1901450,Clarinda,725479,40.72,-95.03,51632
IA,G1901470,Estherville Muni,726499,43.4,-94.75,51334
IA,G1901490,Le Mars,725484,42.78,-96.2,51057
IA,G1901510,Algona,725457,43.08,-94.27,50598
IA,G1901530,Des Moines Intl Ap,725460,41.53,-93.67,50321
IA,G1901550,Council Bluffs,725497,41.27,-95.77,51503
IA,G1901570,Newton Muni,725464,41.68,-93.02,50208
IA,G1901590,Creston,725474,41.02,-94.37,50801
IA,G1901610,Storm Lake,725496,42.6,-95.23,50588
IL,G1901630,Moline Quad City Intl Ap,725440,41.47,-90.52,61265
IA,G1901650,Atlantic,725453,41.4,-95.05,50022
IA,G1901670,Orange City,725489,42.98,-96.07,51003
IA,G1901690,Boone Muni,725486,42.05,-93.85,50036
IA,G1901710,Newton Muni,725464,41.68,-93.02,50208
IA,G1901730,Clarinda,725479,40.72,-95.03,51632
IA,G1901750,Creston,725474,41.02,-94.37,50801
IA,G1901770,Fair Field,726498,41.05,-91.98,52556
IA,G1901790,Ottumwa Industrial Ap,725465,41.1,-92.45,52548
IA,G1901810,Des Moines Intl Ap,725460,41.53,-93.67,50321
IA,G1901830,Washington,725454,41.28,-91.67,52353
IA,G1901850,Chariton,725469,41.03,-93.37,
IA,G1901870,Fort Dodge  Awos,725490,42.55,-94.18,
IA,G1901890,Mason City Municipal Arpt,725485,43.15,-93.33,50428
IA,G1901910,Decorah,725476,43.28,-91.73,
IA,G1901930,Sioux City Sioux Gateway Ap,725570,42.38,-96.38,51054
IA,G1901950,Mason City Municipal Arpt,725485,43.15,-93.33,50428
IA,G1901970,Webster City,725478,42.43,-93.87,50595
KS,G2000010,Chanute Martin Johnson Ap,724507,37.67,-95.48,66720
KS,G2000030,Chanute Martin Johnson Ap,724507,37.67,-95.48,66720
MO,G2000050,Kansas City IntL Arpt,724460,39.3,-94.72,64153
KS,G2000070,Hutchinson Municipal Ap,724506,38.07,-97.87,
KS,G2000090,Great Bend  Awos,724517,38.35,-98.87,
MO,G2000110,Joplin Municipal Ap,723495,37.15,-94.5,64870
NE,G2000130,Falls City Brenner,725533,40.08,-95.6,68355
KS,G2000150,Wichita Col  Jabara,724504,37.75,-97.22,67226
KS,G2000170,Emporia Municipal Ap,724556,38.33,-96.18,
KS,G2000190,Chanute Martin Johnson Ap,724507,37.67,-95.48,66720
MO,G2000210,Joplin Municipal Ap,723495,37.15,-94.5,64870
KS,G2000230,Goodland Renner Field,724650,39.37,-101.7,67735
KS,G2000250,Dodge City Regional Ap,724510,37.77,-99.97,67801
KS,G2000270,Fort Riley Marshall Aaf,724550,39.05,-96.77,66442
KS,G2000290,Concordia Blosser Muni Ap,724580,39.55,-97.65,66901
KS,G2000310,Emporia Municipal Ap,724556,38.33,-96.18,
KS,G2000330,Dodge City Regional Ap,724510,37.77,-99.97,67801
KS,G2000350,Mcconnell Afb,724505,37.62,-97.27,67202
MO,G2000370,Joplin Municipal Ap,723495,37.15,-94.5,64870
NE,G2000390,Mccook Municipal,725625,40.2,-100.58,69001
KS,G2000410,Fort Riley Marshall Aaf,724550,39.05,-96.77,66442
MO,G2000430,St Joseph Rosecrans Memorial,724490,39.77,-94.9,66024
KS,G2000450,Olathe Johnson Co Industrial,724475,38.83,-94.88,66061
KS,G2000470,Dodge City Regional Ap,724510,37.77,-99.97,67801
KS,G2000490,Chanute Martin Johnson Ap,724507,37.67,-95.48,66720
KS,G2000510,Hays Muni  Awos,724518,38.85,-99.27,
KS,G2000530,Russell Municipal Ap,724585,38.88,-98.82,67665
KS,G2000550,Garden City Municipal Ap,724515,37.93,-100.72,
KS,G2000570,Dodge City Regional Ap,724510,37.77,-99.97,67801
KS,G2000590,Olathe Johnson Co Industrial,724475,38.83,-94.88,66061
KS,G2000610,Fort Riley Marshall Aaf,724550,39.05,-96.77,66442
KS,G2000630,Hill City Municipal Ap,724655,39.38,-99.83,67642
KS,G2000650,Hill City Municipal Ap,724655,39.38,-99.83,67642
KS,G2000670,Liberal Muni,724516,37.03,-100.97,
KS,G2000690,Garden City Municipal Ap,724515,37.93,-100.72,
KS,G2000710,Goodland Renner Field,724650,39.37,-101.7,67735
KS,G2000730,Emporia Municipal Ap,724556,38.33,-96.18,
KS,G2000750,Garden City Municipal Ap,724515,37.93,-100.72,
KS,G2000770,Wichita Mid Continent Ap,724500,37.65,-97.43,67209
KS,G2000790,Newton  Awos,724509,38.05,-97.28,67151
KS,G2000810,Garden City Municipal Ap,724515,37.93,-100.72,
KS,G2000830,Dodge City Regional Ap,724510,37.77,-99.97,67801
KS,G2000850,Topeka Municipal Ap,724560,39.07,-95.63,66616
KS,G2000870,Topeka Municipal Ap,724560,39.07,-95.63,66616
KS,G2000890,Concordia Blosser Muni Ap,724580,39.55,-97.65,66901
KS,G2000910,Olathe Johnson Co,724468,38.85,-94.73,66221
KS,G2000930,Garden City Municipal Ap,724515,37.93,-100.72,
KS,G2000950,Hutchinson Municipal Ap,724506,38.07,-97.87,
KS,G2000970,Dodge City Regional Ap,724510,37.77,-99.97,67801
KS,G2000990,Chanute Martin Johnson Ap,724507,37.67,-95.48,66720
KS,G2001010,Hill City Municipal Ap,724655,39.38,-99.83,67642
MO,G2001030,Kansas City IntL Arpt,724460,39.3,-94.72,64153
KS,G2001050,Salina Municipal Ap,724586,38.82,-97.67,
KS,G2001070,Olathe Johnson Co Industrial,724475,38.83,-94.88,66061
KS,G2001090,Goodland Renner Field,724650,39.37,-101.7,67735
KS,G2001110,Emporia Municipal Ap,724556,38.33,-96.18,
KS,G2001130,Hutchinson Municipal Ap,724506,38.07,-97.87,
KS,G2001150,Newton  Awos,724509,38.05,-97.28,67151
NE,G2001170,Beatrice Municipal,725515,40.3,-96.75,
KS,G2001190,Liberal Muni,724516,37.03,-100.97,
KS,G2001210,Olathe Johnson Co Industrial,724475,38.83,-94.88,66061
KS,G2001230,Concordia Blosser Muni Ap,724580,39.55,-97.65,66901
KS,G2001250,Chanute Martin Johnson Ap,724507,37.67,-95.48,66720
KS,G2001270,Fort Riley Marshall Aaf,724550,39.05,-96.77,66442
KS,G2001290,Liberal Muni,724516,37.03,-100.97,
NE,G2001310,Falls City Brenner,725533,40.08,-95.6,68355
KS,G2001330,Chanute Martin Johnson Ap,724507,37.67,-95.48,66720
KS,G2001350,Hays Muni  Awos,724518,38.85,-99.27,
KS,G2001370,Hill City Municipal Ap,724655,39.38,-99.83,67642
KS,G2001390,Topeka Forbes Field,724565,38.95,-95.67,66624
KS,G2001410,Russell Municipal Ap,724585,38.88,-98.82,67665
KS,G2001430,Salina Municipal Ap,724586,38.82,-97.67,
KS,G2001450,Great Bend  Awos,724517,38.35,-98.87,
KS,G2001470,Hill City Municipal Ap,724655,39.38,-99.83,67642
KS,G2001490,Manhattan Rgnl,724555,39.13,-96.67,66517
KS,G2001510,Great Bend  Awos,724517,38.35,-98.87,
NE,G2001530,Mccook Municipal,725625,40.2,-100.58,69001
KS,G2001550,Hutchinson Municipal Ap,724506,38.07,-97.87,
KS,G2001570,Concordia Blosser Muni Ap,724580,39.55,-97.65,66901
KS,G2001590,Hutchinson Municipal Ap,724506,38.07,-97.87,
KS,G2001610,Manhattan Rgnl,724555,39.13,-96.67,66517
KS,G2001630,Hays Muni  Awos,724518,38.85,-99.27,
KS,G2001650,Hays Muni  Awos,724518,38.85,-99.27,
KS,G2001670,Russell Municipal Ap,724585,38.88,-98.82,67665
KS,G2001690,Salina Municipal Ap,724586,38.82,-97.67,
KS,G2001710,Goodland Renner Field,724650,39.37,-101.7,67735
KS,G2001730,Wichita Mid Continent Ap,724500,37.65,-97.43,67209
KS,G2001750,Liberal Muni,724516,37.03,-100.97,
KS,G2001770,Topeka Municipal Ap,724560,39.07,-95.63,66616
KS,G2001790,Hill City Municipal Ap,724655,39.38,-99.83,67642
KS,G2001810,Goodland Renner Field,724650,39.37,-101.7,67735
NE,G2001830,Brewster Field Arpt,725628,40.45,-99.33,68949
KS,G2001850,Great Bend  Awos,724517,38.35,-98.87,
KS,G2001870,Liberal Muni,724516,37.03,-100.97,
KS,G2001890,Liberal Muni,724516,37.03,-100.97,
KS,G2001910,Mcconnell Afb,724505,37.62,-97.27,67202
KS,G2001930,Goodland Renner Field,724650,39.37,-101.7,67735
KS,G2001950,Hill City Municipal Ap,724655,39.38,-99.83,67642
KS,G2001970,Topeka Forbes Field,724565,38.95,-95.67,66624
KS,G2001990,Goodland Renner Field,724650,39.37,-101.7,67735
KS,G2002010,Manhattan Rgnl,724555,39.13,-96.67,66517
KS,G2002030,Goodland Renner Field,724650,39.37,-101.7,67735
KS,G2002050,Chanute Martin Johnson Ap,724507,37.67,-95.48,66720
KS,G2002070,Chanute Martin Johnson Ap,724507,37.67,-95.48,66720
MO,G2002090,Kansas City Downtown Ap,724463,39.12,-94.6,64105
KY,G2100010,Fort Knox Godman Aaf,724240,37.9,-85.97,40121
KY,G2100030,Bowling Green Warren Co Ap,746716,36.98,-86.43,42103
KY,G2100050,Lexington Bluegrass Ap,724220,38.03,-84.6,40510
KY,G2100070,Paducah Barkley Regional Ap,724350,37.05,-88.77,42086
KY,G2100090,Bowling Green Warren Co Ap,746716,36.98,-86.43,42103
KY,G2100110,Jackson-Carroll AP,724190,37.583,-83.317,
KY,G2100130,London Corbin Ap,724243,37.08,-84.08,40744
KY,G2100150,Cincinnati Northern Ky Ap,724210,39.05,-84.67,41005
KY,G2100170,Lexington Bluegrass Ap,724220,38.03,-84.6,40510
WV,G2100190,Huntington Tri State Arpt,724250,38.38,-82.55,25530
KY,G2100210,Somerset Awos,724354,38,-84.6,40513
OH,G2100230,Cincinnati Municipal Ap Lunki,724297,39.1,-84.42,45226
KY,G2100250,Jackson Julian Carroll Ap,724236,37.58,-83.32,
KY,G2100270,Fort Knox Godman Aaf,724240,37.9,-85.97,40121
KY,G2100290,Louisville Standiford Field,724230,38.18,-85.73,40213
KY,G2100310,Bowling Green Warren Co Ap,746716,36.98,-86.43,42103
KY,G2100330,Fort Campbell Aaf,746710,36.67,-87.48,42223
KY,G2100350,Paducah Barkley Regional Ap,724350,37.05,-88.77,42086
OH,G2100370,Cincinnati Municipal Ap Lunki,724297,39.1,-84.42,45226
KY,G2100390,Paducah Barkley Regional Ap,724350,37.05,-88.77,42086
KY,G2100410,Cincinnati Northern Ky Ap,724210,39.05,-84.67,41005
WV,G2100430,Huntington Tri State Arpt,724250,38.38,-82.55,25530
KY,G2100450,Somerset Awos,724354,38,-84.6,40513
KY,G2100470,Fort Campbell Aaf,746710,36.67,-87.48,42223
KY,G2100490,Somerset Awos,724354,38,-84.6,40513
KY,G2100510,London Corbin Ap,724243,37.08,-84.08,40744
TN,G2100530,Crossville Meml AP-Whitson Field,723250,35.95,-85.083,38555
KY,G2100550,Henderson City,724238,37.82,-87.68,42420
TN,G2100570,Crossville Meml AP-Whitson Field,723250,35.95,-85.083,38555
IN,G2100590,Huntingburg,724365,38.25,-86.95,47542
KY,G2100610,Bowling Green Warren Co Ap,746716,36.98,-86.43,42103
KY,G2100630,Jackson-Carroll AP,724190,37.583,-83.317,
KY,G2100650,London Corbin Ap,724243,37.08,-84.08,40744
KY,G2100670,Lexington Bluegrass Ap,724220,38.03,-84.6,40510
KY,G2100690,Jackson-Carroll AP,724190,37.583,-83.317,
KY,G2100710,Jackson-Carroll AP,724190,37.583,-83.317,
KY,G2100730,Lexington Bluegrass Ap,724220,38.03,-84.6,40510
KY,G2100750,Paducah Barkley Regional Ap,724350,37.05,-88.77,42086
KY,G2100770,Cincinnati Northern Ky Ap,724210,39.05,-84.67,41005
KY,G2100790,Somerset Awos,724354,38,-84.6,40513
KY,G2100810,Cincinnati Northern Ky Ap,724210,39.05,-84.67,41005
KY,G2100830,Paducah Barkley Regional Ap,724350,37.05,-88.77,42086
KY,G2100850,Bowling Green Warren Co Ap,746716,36.98,-86.43,42103
KY,G2100870,Fort Knox Godman Aaf,724240,37.9,-85.97,40121
WV,G2100890,Huntington Tri State Arpt,724250,38.38,-82.55,25530
IN,G2100910,Huntingburg,724365,38.25,-86.95,47542
KY,G2100930,Fort Knox Godman Aaf,724240,37.9,-85.97,40121
VA,G2100950,Wise Lonesome Pine,724117,36.98,-82.53,24293
KY,G2100970,Lexington Bluegrass Ap,724220,38.03,-84.6,40510
KY,G2100990,Bowling Green Warren Co Ap,746716,36.98,-86.43,42103
KY,G2101010,Henderson City,724238,37.82,-87.68,42420
KY,G2101030,Louisville Bowman Field,724235,38.23,-85.67,40205
KY,G2101050,Paducah Barkley Regional Ap,724350,37.05,-88.77,42086
KY,G2101070,Henderson City,724238,37.82,-87.68,42420
KY,G2101090,London Corbin Ap,724243,37.08,-84.08,40744
KY,G2101110,Louisville Bowman Field,724235,38.23,-85.67,40205
KY,G2101130,Somerset Awos,724354,38,-84.6,40513
KY,G2101150,Jackson-Carroll AP,724190,37.583,-83.317,
KY,G2101170,Cincinnati Northern Ky Ap,724210,39.05,-84.67,41005
KY,G2101190,Jackson-Carroll AP,724190,37.583,-83.317,
KY,G2101210,London Corbin Ap,724243,37.08,-84.08,40744
KY,G2101230,Fort Knox Godman Aaf,724240,37.9,-85.97,40121
KY,G2101250,London Corbin Ap,724243,37.08,-84.08,40744
WV,G2101270,Huntington Tri State Arpt,724250,38.38,-82.55,25530
KY,G2101290,Jackson Julian Carroll Ap,724236,37.58,-83.32,
KY,G2101310,Jackson Julian Carroll Ap,724236,37.58,-83.32,
VA,G2101330,Wise Lonesome Pine,724117,36.98,-82.53,24293
WV,G2101350,Huntington Tri State Arpt,724250,38.38,-82.55,25530
KY,G2101370,Somerset Awos,724354,38,-84.6,40513
KY,G2101390,Paducah Barkley Regional Ap,724350,37.05,-88.77,42086
KY,G2101410,Bowling Green Warren Co Ap,746716,36.98,-86.43,42103
KY,G2101430,Paducah Barkley Regional Ap,724350,37.05,-88.77,42086
KY,G2101450,Paducah Barkley Regional Ap,724350,37.05,-88.77,42086
KY,G2101470,London Corbin Ap,724243,37.08,-84.08,40744
KY,G2101490,Henderson City,724238,37.82,-87.68,42420
KY,G2101510,Somerset Awos,724354,38,-84.6,40513
KY,G2101530,Jackson-Carroll AP,724190,37.583,-83.317,
KY,G2101550,Louisville Standiford Field,724230,38.18,-85.73,40213
KY,G2101570,Paducah Barkley Regional Ap,724350,37.05,-88.77,42086
WV,G2101590,Huntington Tri State Arpt,724250,38.38,-82.55,25530
OH,G2101610,Cincinnati Municipal Ap Lunki,724297,39.1,-84.42,45226
KY,G2101630,Fort Knox Godman Aaf,724240,37.9,-85.97,40121
KY,G2101650,Jackson-Carroll AP,724190,37.583,-83.317,
KY,G2101670,Somerset Awos,724354,38,-84.6,40513
KY,G2101690,Bowling Green Warren Co Ap,746716,36.98,-86.43,42103
KY,G2101710,Bowling Green Warren Co Ap,746716,36.98,-86.43,42103
KY,G2101730,Lexington Bluegrass Ap,724220,38.03,-84.6,40510
KY,G2101750,Jackson-Carroll AP,724190,37.583,-83.317,
KY,G2101770,Fort Campbell Aaf,746710,36.67,-87.48,42223
KY,G2101790,Louisville Standiford Field,724230,38.18,-85.73,40213
KY,G2101810,Lexington Bluegrass Ap,724220,38.03,-84.6,40510
KY,G2101830,Bowling Green Warren Co Ap,746716,36.98,-86.43,42103
KY,G2101850,Louisville Bowman Field,724235,38.23,-85.67,40205
KY,G2101870,Cincinnati Northern Ky Ap,724210,39.05,-84.67,41005
KY,G2101890,Jackson Julian Carroll Ap,724236,37.58,-83.32,
OH,G2101910,Cincinnati Municipal Ap Lunki,724297,39.1,-84.42,45226
KY,G2101930,Jackson Julian Carroll Ap,724236,37.58,-83.32,
VA,G2101950,Wise Lonesome Pine,724117,36.98,-82.53,24293
KY,G2101970,Jackson Julian Carroll Ap,724236,37.58,-83.32,
KY,G2101990,London Corbin Ap,724243,37.08,-84.08,40744
OH,G2102010,Cincinnati Municipal Ap Lunki,724297,39.1,-84.42,45226
KY,G2102030,London Corbin Ap,724243,37.08,-84.08,40744
KY,G2102050,Jackson-Carroll AP,724190,37.583,-83.317,
KY,G2102070,London Corbin Ap,724243,37.08,-84.08,40744
KY,G2102090,Lexington Bluegrass Ap,724220,38.03,-84.6,40510
KY,G2102110,Louisville Bowman Field,724235,38.23,-85.67,40205
KY,G2102130,Bowling Green Warren Co Ap,746716,36.98,-86.43,42103
KY,G2102150,Louisville Bowman Field,724235,38.23,-85.67,40205
KY,G2102170,Fort Knox Godman Aaf,724240,37.9,-85.97,40121
KY,G2102190,Fort Campbell Aaf,746710,36.67,-87.48,42223
KY,G2102210,Fort Campbell Aaf,746710,36.67,-87.48,42223
KY,G2102230,Louisville Bowman Field,724235,38.23,-85.67,40205
KY,G2102250,Henderson City,724238,37.82,-87.68,42420
KY,G2102270,Bowling Green Warren Co Ap,746716,36.98,-86.43,42103
KY,G2102290,Somerset Awos,724354,38,-84.6,40513
KY,G2102310,London Corbin Ap,724243,37.08,-84.08,40744
KY,G2102330,Henderson City,724238,37.82,-87.68,42420
KY,G2102350,London Corbin Ap,724243,37.08,-84.08,40744
KY,G2102370,Jackson Julian Carroll Ap,724236,37.58,-83.32,
KY,G2102390,Lexington Bluegrass Ap,724220,38.03,-84.6,40510
LA,G2200010,Lafayette Regional Ap,722405,30.2,-91.98,
LA,G2200030,Lake Charles Wb Airp,722404,30.22,-93.17,70602
LA,G2200050,Baton Rouge Ryan Arpt,722317,30.53,-91.15,70811
LA,G2200070,Patterson Memorial,722329,29.72,-91.33,70392
LA,G2200090,Alexandria Esler Regional Ap,722487,31.4,-92.3,71360
LA,G2200110,Lake Charles Wb Airp,722404,30.22,-93.17,70602
LA,G2200130,Barksdale Afb,722485,32.5,-93.67,71112
LA,G2200150,Barksdale Afb,722485,32.5,-93.67,71112
LA,G2200170,Shreveport Regional Arpt,722480,32.45,-93.82,71109
LA,G2200190,Lake Charles Wb Airp,722404,30.22,-93.17,70602
LA,G2200210,Monroe Regional Ap,722486,32.52,-92.03,71211
LA,G2200230,Lake Charles Regional Arpt,722400,30.12,-93.23,70605
MS,G2200250,Natchez Hardy Awos,722357,31.62,-91.3,39190
AR,G2200270,El Dorado Goodwin Field,723419,33.22,-92.82,
MS,G2200290,Natchez Hardy Awos,722357,31.62,-91.3,39190
LA,G2200310,Shreveport Regional Arpt,722480,32.45,-93.82,71109
LA,G2200330,Baton Rouge Ryan Arpt,722317,30.53,-91.15,70811
MS,G2200350,Greenville Municipal,722356,33.48,-90.98,38782
LA,G2200370,Baton Rouge Metro AP,722320,30.533,-91.15,70811
LA,G2200390,Lafayette Regional Ap,722405,30.2,-91.98,
LA,G2200410,Monroe Regional Ap,722486,32.52,-92.03,71211
LA,G2200430,England Afb,747540,31.32,-92.55,
LA,G2200450,New Iberia Naas,722314,30.03,-91.88,
LA,G2200470,Baton Rouge Ryan Arpt,722317,30.53,-91.15,70811
LA,G2200490,Monroe Regional Ap,722486,32.52,-92.03,71211
LA,G2200510,New Orleans Intl Arpt,722310,30,-90.25,70062
LA,G2200530,Lake Charles Wb Airp,722404,30.22,-93.17,70602
LA,G2200550,Lafayette Regional Ap,722405,30.2,-91.98,
LA,G2200570,Houma Terrebonne,722406,29.57,-90.67,70363
LA,G2200590,Alexandria Esler Regional Ap,722487,31.4,-92.3,71360
LA,G2200610,Monroe Regional Ap,722486,32.52,-92.03,71211
LA,G2200630,Baton Rouge Ryan Arpt,722317,30.53,-91.15,70811
MS,G2200650,Natchez Hardy Awos,722357,31.62,-91.3,39190
LA,G2200670,Monroe Regional Ap,722486,32.52,-92.03,71211
LA,G2200690,Fort Polk Aaf,722390,31.05,-93.18,71459
LA,G2200710,New Orleans Lakefront Ap,722315,30.05,-90.03,
LA,G2200730,Monroe Regional Ap,722486,32.52,-92.03,71211
LA,G2200750,New Orleans Alvin Callender F,722316,29.82,-90.02,70037
LA,G2200770,Baton Rouge Metro AP,722320,30.533,-91.15,70811
LA,G2200790,England Afb,747540,31.32,-92.55,
LA,G2200810,Barksdale Afb,722485,32.5,-93.67,71112
LA,G2200830,Monroe Regional Ap,722486,32.52,-92.03,71211
LA,G2200850,Fort Polk Aaf,722390,31.05,-93.18,71459
LA,G2200870,New Orleans Alvin Callender F,722316,29.82,-90.02,70037
LA,G2200890,New Orleans Intl Arpt,722310,30,-90.25,70062
LA,G2200910,Baton Rouge Metro AP,722320,30.533,-91.15,70811
LA,G2200930,Houma Terrebonne,722406,29.57,-90.67,70363
LA,G2200950,New Orleans Intl Arpt,722310,30,-90.25,70062
LA,G2200970,Lafayette Regional Ap,722405,30.2,-91.98,
LA,G2200990,Lafayette Regional Ap,722405,30.2,-91.98,
LA,G2201010,Patterson Memorial,722329,29.72,-91.33,70392
LA,G2201030,New Orleans Lakefront Ap,722315,30.05,-90.03,
LA,G2201050,New Orleans Intl Arpt,722310,30,-90.25,70062
MS,G2201070,Natchez Hardy Awos,722357,31.62,-91.3,39190
LA,G2201090,Houma Terrebonne,722406,29.57,-90.67,70363
LA,G2201110,Monroe Regional Ap,722486,32.52,-92.03,71211
LA,G2201130,Lafayette Regional Ap,722405,30.2,-91.98,
LA,G2201150,Fort Polk Aaf,722390,31.05,-93.18,71459
LA,G2201170,New Orleans Lakefront Ap,722315,30.05,-90.03,
LA,G2201190,Barksdale Afb,722485,32.5,-93.67,71112
LA,G2201210,Baton Rouge Ryan Arpt,722317,30.53,-91.15,70811
LA,G2201230,Monroe Regional Ap,722486,32.52,-92.03,71211
LA,G2201250,Baton Rouge Metro AP,722320,30.533,-91.15,70811
LA,G2201270,Monroe Regional Ap,722486,32.52,-92.03,71211
ME,G2300010,Auburn Lewiston,726184,44.05,-70.28,4210
ME,G2300030,Presque Isle Municip,727130,46.68,-68.05,4769
ME,G2300050,Portland Intl Jetport,726060,43.65,-70.3,4102
ME,G2300070,Waterville  Awos,726073,44.53,-69.68,4901
ME,G2300090,Bar Harbor  Awos,726077,44.45,-68.37,4605
ME,G2300110,Augusta Airport,726185,44.32,-69.8,4330
ME,G2300130,Rockland Knox Awos,726079,44.07,-69.1,4854
ME,G2300150,Wiscasset,727135,43.97,-69.72,4578
ME,G2300170,Auburn Lewiston,726184,44.05,-70.28,4210
ME,G2300190,Bangor Intl AP,726070,44.8,-68.817,4401
ME,G2300210,Bangor International Ap,726088,44.8,-68.82,4401
ME,G2300230,Naval Air Station,743920,43.9,-69.93,4011
ME,G2300250,Waterville  Awos,726073,44.53,-69.68,4901
ME,G2300270,Bangor International Ap,726088,44.8,-68.82,4401
ME,G2300290,Bar Harbor  Awos,726077,44.45,-68.37,4605
ME,G2300310,Sanford Muni  Awos,726064,43.4,-70.72,4073
VA,G2400010,Winchester Rgnl,724053,39.15,-78.15,22602
MD,G2400030,Baltimore Blt Washngtn IntL,724060,39.17,-76.68,21077
MD,G2400050,Baltimore Blt Washngtn IntL,724060,39.17,-76.68,21077
MD,G2400090,Patuxent River Nas,724040,38.3,-76.42,20670
DE,G2400110,Dover Afb,724088,39.13,-75.47,19961
MD,G2400130,Baltimore Blt Washngtn IntL,724060,39.17,-76.68,21077
DE,G2400150,Wilmington New Castle Cnty Ap,724089,39.67,-75.6,19720
MD,G2400170,Andrews Afb,745940,38.82,-76.87,20747
MD,G2400190,Patuxent River Nas,724040,38.3,-76.42,20670
VA,G2400210,Leesburg Godfrey,724055,39.08,-77.57,20175
WV,G2400230,Morgantown Hart Field,724176,39.65,-79.92,26508
MD,G2400250,Baltimore Blt Washngtn IntL,724060,39.17,-76.68,21077
MD,G2400270,Baltimore Blt Washngtn IntL,724060,39.17,-76.68,21077
DE,G2400290,Dover Afb,724088,39.13,-75.47,19961
VA,G2400310,Washington Dc Reagan Ap,724050,38.87,-77.03,20242
MD,G2400330,Andrews Afb,745940,38.82,-76.87,20747
MD,G2400350,Baltimore Blt Washngtn IntL,724060,39.17,-76.68,21077
MD,G2400370,Patuxent River Nas,724040,38.3,-76.42,20670
MD,G2400390,Salisbury Wicomico Co Ap,724045,38.33,-75.52,21804
MD,G2400410,Patuxent River Nas,724040,38.3,-76.42,20670
MD,G2400430,Hagerstown Rgnl Ric,724066,39.7,-77.73,21767
MD,G2400450,Salisbury Wicomico Co Ap,724045,38.33,-75.52,21804
MD,G2400470,Salisbury-Ocean City-Wicomico Rgnl AP,723980,38.333,-75.517,21804
MD,G2405100,Baltimore Blt Washngtn IntL,724060,39.17,-76.68,21077
MA,G2500010,Barnstable Muni Boa,725067,41.67,-70.28,2649
MA,G2500030,North Adams,725075,42.7,-73.17,1267
MA,G2500050,New Bedford Rgnl,725065,41.67,-70.95,2746
MA,G2500070,Marthas Vineyard,725066,41.4,-70.62,2575
MA,G2500090,Beverly Muni,725088,42.58,-70.92,1923
MA,G2500110,Chicopee Falls Westo,744910,42.2,-72.53,1022
MA,G2500130,Chicopee Falls Westo,744910,42.2,-72.53,1022
MA,G2500150,Chicopee Falls Westo,744910,42.2,-72.53,1022
MA,G2500170,Boston Logan IntL Arpt,725090,42.37,-71.02,2128
MA,G2500190,Nantucket Memorial Ap,725063,41.25,-70.07,2554
MA,G2500210,Norwood Memorial,725098,42.18,-71.18,2062
MA,G2500230,Plymouth Municipal,725064,41.92,-70.73,2360
MA,G2500250,Boston Logan IntL Arpt,725090,42.37,-71.02,2128
MA,G2500270,Worchester Regional Arpt,725095,42.27,-71.88,
MI,G2600010,Oscoda Wurtsmith Afb,726395,44.45,-83.4,48750
MI,G2600030,Escanaba  Awos,726480,45.75,-87.03,
MI,G2600050,Grand Rapids Kent County Int,726350,42.88,-85.52,49512
MI,G2600070,Alpena County Regional Ap,726390,45.07,-83.58,49744
MI,G2600090,Traverse City Cherry Capital,726387,44.73,-85.58,49686
MI,G2600110,Saginaw Tri City Intl Ap,726379,43.53,-84.08,
MI,G2600130,Hancock Houghton Co Ap,727440,47.17,-88.5,
MI,G2600150,Grand Rapids Kent County Int,726350,42.88,-85.52,49512
MI,G2600170,Saginaw Tri City Intl Ap,726379,43.53,-84.08,
MI,G2600190,Traverse City Cherry Capital,726387,44.73,-85.58,49686
MI,G2600210,Benton Harbor Ross,726355,42.13,-86.43,49022
MI,G2600230,Battle Creek Kellogg Ap,725396,42.3,-85.25,49037
MI,G2600250,Battle Creek Kellogg Ap,725396,42.3,-85.25,49037
IN,G2600270,South Bend Michiana Rgnl Ap,725350,41.7,-86.33,46628
MI,G2600290,Pellston Emmet County Ap,727347,45.57,-84.78,49769
MI,G2600310,Pellston Emmet County Ap,727347,45.57,-84.78,49769
MI,G2600330,Sault Ste Marie Sanderson Fie,727340,46.47,-84.35,49783
MI,G2600350,Houghton Lake Roscommon Co Ar,726380,44.37,-84.68,
MI,G2600370,Lansing Capital City Arpt,725390,42.78,-84.58,48906
MI,G2600390,Houghton Lake Roscommon Co Ar,726380,44.37,-84.68,
MI,G2600410,Escanaba  Awos,726480,45.75,-87.03,
MI,G2600430,Iron Mountain Ford,727437,45.82,-88.12,49802
MI,G2600450,Lansing Capital City Arpt,725390,42.78,-84.58,48906
MI,G2600470,Pellston Emmet County Ap,727347,45.57,-84.78,49769
MI,G2600490,Flint Bishop Intl Arpt,726370,42.97,-83.75,48507
MI,G2600510,Saginaw Tri City Intl Ap,726379,43.53,-84.08,
MI,G2600530,Ironwood  Awos,727445,46.53,-90.13,49938
MI,G2600550,Traverse City Cherry Capital,726387,44.73,-85.58,49686
MI,G2600570,Lansing Capital City Arpt,725390,42.78,-84.58,48906
MI,G2600590,Jackson Reynolds Field,725395,42.27,-84.47,49202
MI,G2600610,Hancock Houghton Co Ap,727440,47.17,-88.5,
MI,G2600630,Oscoda Wurtsmith Afb,726395,44.45,-83.4,48750
MI,G2600650,Lansing Capital City Arpt,725390,42.78,-84.58,48906
MI,G2600670,Grand Rapids Kent County Int,726350,42.88,-85.52,49512
MI,G2600690,Oscoda Wurtsmith Afb,726395,44.45,-83.4,48750
MI,G2600710,Iron Mountain Ford,727437,45.82,-88.12,49802
MI,G2600730,Houghton Lake Roscommon Co Ar,726380,44.37,-84.68,
MI,G2600750,Jackson Reynolds Field,725395,42.27,-84.47,49202
MI,G2600770,Kalamazoo Battle Cr,726357,42.23,-85.55,49002
MI,G2600790,Traverse City Cherry Capital,726387,44.73,-85.58,49686
MI,G2600810,Grand Rapids Kent County Int,726350,42.88,-85.52,49512
MI,G2600830,Hancock Houghton Co Ap,727440,47.17,-88.5,
MI,G2600850,Cadillac Wexford Co Ap,726384,44.28,-85.42,49601
MI,G2600870,Oakland Co Intl,726375,42.67,-83.42,48386
MI,G2600890,Traverse City Cherry Capital,726387,44.73,-85.58,49686
MI,G2600910,Ann Arbor Municipal,725374,42.22,-83.75,48108
MI,G2600930,Howell,725378,42.63,-83.98,
MI,G2600950,Chippewa Co Intl,727344,46.25,-84.47,49788
MI,G2600970,Chippewa Co Intl,727344,46.25,-84.47,49788
MI,G2600990,Mount Clemens Selfridge Fld,725377,42.62,-82.83,48045
MI,G2601010,Manistee  Awos,726385,44.27,-86.25,49660
MI,G2601030,Escanaba  Awos,726480,45.75,-87.03,
MI,G2601050,Manistee  Awos,726385,44.27,-86.25,49660
MI,G2601070,Cadillac Wexford Co Ap,726384,44.28,-85.42,49601
MI,G2601090,Menominee  Awos,726487,45.13,-87.63,49858
MI,G2601110,Saginaw Tri City Intl Ap,726379,43.53,-84.08,
MI,G2601130,Cadillac Wexford Co Ap,726384,44.28,-85.42,49601
MI,G2601150,Detroit Willow Run Ap,725376,42.23,-83.53,48111
MI,G2601170,Grand Rapids Kent County Int,726350,42.88,-85.52,49512
MI,G2601190,Alpena County Regional Ap,726390,45.07,-83.58,49744
MI,G2601210,Muskegon County Arpt,726360,43.17,-86.23,49441
MI,G2601230,Cadillac Wexford Co Ap,726384,44.28,-85.42,49601
MI,G2601250,Oakland Co Intl,726375,42.67,-83.42,48386
MI,G2601270,Manistee  Awos,726385,44.27,-86.25,49660
MI,G2601290,Houghton Lake Roscommon Co Ar,726380,44.37,-84.68,
MI,G2601310,Ironwood  Awos,727445,46.53,-90.13,49938
MI,G2601330,Cadillac Wexford Co Ap,726384,44.28,-85.42,49601
MI,G2601350,Houghton Lake Roscommon Co Ar,726380,44.37,-84.68,
MI,G2601370,Pellston Emmet County Ap,727347,45.57,-84.78,49769
MI,G2601390,Muskegon County Arpt,726360,43.17,-86.23,49441
MI,G2601410,Alpena County Regional Ap,726390,45.07,-83.58,49744
MI,G2601430,Houghton Lake Roscommon Co Ar,726380,44.37,-84.68,
MI,G2601450,Saginaw Tri City Intl Ap,726379,43.53,-84.08,
MI,G2601470,St Clair County Int,725384,42.92,-82.53,48074
MI,G2601490,Kalamazoo Battle Cr,726357,42.23,-85.55,49002
MI,G2601510,Oscoda Wurtsmith Afb,726395,44.45,-83.4,48750
MI,G2601530,Chippewa Co Intl,727344,46.25,-84.47,49788
MI,G2601550,Howell,725378,42.63,-83.98,
MI,G2601570,Flint Bishop Intl Arpt,726370,42.97,-83.75,48507
MI,G2601590,Benton Harbor Ross,726355,42.13,-86.43,49022
MI,G2601610,Ann Arbor Municipal,725374,42.22,-83.75,48108
MI,G2601630,Detroit Metropolitan Arpt,725370,42.22,-83.35,48174
MI,G2601650,Cadillac Wexford Co Ap,726384,44.28,-85.42,49601
MN,G2700010,Aitkin Ndb Awos,727504,46.55,-93.68,56431
MN,G2700030,Minneapolis Crystal,726575,45.07,-93.35,55429
MN,G2700050,Detroit Lakes Awos,727457,46.83,-95.88,
MN,G2700070,Bemidji Municipal,727550,47.5,-94.93,56601
MN,G2700090,St Cloud Regional Arpt,726550,45.55,-94.05,56304
MN,G2700110,Wheaton Ndb  Awos,727533,45.7,-96.5,
MN,G2700130,Mankato Awos,726585,44.22,-93.92,56001
MN,G2700150,New Ulm Muni  Awos,726567,44.32,-94.5,56073
MN,G2700170,Cloquet  Awos,726558,46.7,-92.5,55720
MN,G2700190,Flying Cloud,726579,44.82,-93.45,55347
MN,G2700210,Brainerd Wieland,726555,46.4,-94.13,56401
MN,G2700230,Benson Muni,727507,45.32,-95.65,
MN,G2700250,Cambridge Muni,727503,45.57,-93.27,55008
ND,G2700270,Fargo Hector International Ap,727530,46.93,-96.82,58105
MN,G2700290,Fosston Awos,727505,47.58,-95.77,56556
MN,G2700310,Silver Bay,727556,47.2,-91.4,
MN,G2700330,Worthington  Awos,726587,43.65,-95.58,56119
MN,G2700350,Brainerd Wieland,726555,46.4,-94.13,56401
MN,G2700370,South St Paul Muni,726603,44.85,-93.15,55121
MN,G2700390,Rochester International Arpt,726440,43.9,-92.5,
MN,G2700410,Alexandria Municipal Ap,726557,45.88,-95.4,56308
MN,G2700430,Fairmont Muni Awos,726586,43.65,-94.42,56039
MN,G2700450,Rochester International Arpt,726440,43.9,-92.5,
MN,G2700470,Albert Lea  Awos,726589,43.68,-93.37,56007
MN,G2700490,Red Wing,726564,44.58,-92.48,
MN,G2700510,Fergus Falls Awos,726560,46.28,-96.15,56537
MN,G2700530,Minneapolis Crystal,726575,45.07,-93.35,55429
WI,G2700550,La Crosse Municipal Arpt,726430,43.87,-91.25,54603
MN,G2700570,Park Rapids Municipal Ap,727453,46.9,-95.07,
MN,G2700590,Cambridge Muni,727503,45.57,-93.27,55008
MN,G2700610,Grand Rapids Awos,727458,47.22,-93.52,55744
IA,G2700630,Estherville Muni,726499,43.4,-94.75,51334
MN,G2700650,Mora Muni  Awos,727475,45.88,-93.27,55051
MN,G2700670,Willmar,726576,45.12,-95.08,56201
MN,G2700690,Hallock,727478,48.78,-96.95,56728
MN,G2700710,International Falls Intl Ap,727470,48.57,-93.4,56669
MN,G2700730,Benson Muni,727507,45.32,-95.65,
MN,G2700750,Silver Bay,727556,47.2,-91.4,
MN,G2700770,Baudette International Ap,727476,48.72,-94.6,
MN,G2700790,Mankato Awos,726585,44.22,-93.92,56001
MN,G2700810,Pipestone  Awos,726566,43.98,-96.32,56164
MN,G2700830,Marshall Ryan Awos,726559,44.45,-95.82,56258
MN,G2700850,Hutchinson  Awos,726569,44.87,-94.38,55350
MN,G2700870,Fosston Awos,727505,47.58,-95.77,56556
MN,G2700890,Thief River Awos,727555,48.07,-96.18,56701
MN,G2700910,Fairmont Muni Awos,726586,43.65,-94.42,56039
MN,G2700930,Litchfield Muni,726583,45.1,-94.5,55355
MN,G2700950,Mora Muni  Awos,727475,45.88,-93.27,55051
MN,G2700970,Little Falls  Awos,726578,45.95,-94.35,56345
MN,G2700990,Austin Muni,727566,43.67,-92.93,55912
MN,G2701010,Worthington  Awos,726587,43.65,-95.58,56119
MN,G2701030,Mankato Awos,726585,44.22,-93.92,56001
MN,G2701050,Worthington  Awos,726587,43.65,-95.58,56119
ND,G2701070,Fargo Hector International Ap,727530,46.93,-96.82,58105
MN,G2701090,Rochester International Arpt,726440,43.9,-92.5,
MN,G2701110,Fergus Falls Awos,726560,46.28,-96.15,56537
MN,G2701130,Thief River Awos,727555,48.07,-96.18,56701
MN,G2701150,Crane Lake  Awos,727473,46.27,-92.57,55712
MN,G2701170,Pipestone  Awos,726566,43.98,-96.32,56164
MN,G2701190,Crookston Muni Fld,727452,47.85,-96.62,56723
MN,G2701210,Glenwood  Asos,726547,45.65,-95.32,
MN,G2701230,St Paul Downtown Ap,726584,44.93,-93.05,55106
MN,G2701250,Thief River Awos,727555,48.07,-96.18,56701
MN,G2701270,Redwood Falls Muni,726556,44.55,-95.08,56283
MN,G2701290,Redwood Falls Muni,726556,44.55,-95.08,56283
MN,G2701310,Faribault Muni Awos,726563,44.33,-93.32,55021
MN,G2701330,Pipestone  Awos,726566,43.98,-96.32,56164
MN,G2701350,Roseau Muni  Awos,727477,48.85,-95.7,56751
MN,G2701370,Duluth International Arpt,727450,46.83,-92.22,55811
MN,G2701390,Flying Cloud,726579,44.82,-93.45,55347
MN,G2701410,Mora Muni  Awos,727475,45.88,-93.27,55051
MN,G2701430,Hutchinson  Awos,726569,44.87,-94.38,55350
MN,G2701450,St Cloud Regional Arpt,726550,45.55,-94.05,56304
MN,G2701470,Owatonna  Awos,726568,44.12,-93.25,55060
MN,G2701490,Morris Muni  Awos,726565,45.57,-95.97,56207
MN,G2701510,Benson Muni,727507,45.32,-95.65,
MN,G2701530,Alexandria Municipal Ap,726557,45.88,-95.4,56308
MN,G2701550,Wheaton Ndb  Awos,727533,45.7,-96.5,
MN,G2701570,Red Wing,726564,44.58,-92.48,
MN,G2701590,Park Rapids Municipal Ap,727453,46.9,-95.07,
MN,G2701610,Owatonna  Awos,726568,44.12,-93.25,55060
MN,G2701630,St Paul Downtown Ap,726584,44.93,-93.05,55106
MN,G2701650,New Ulm Muni  Awos,726567,44.32,-94.5,56073
MN,G2701670,Wheaton Ndb  Awos,727533,45.7,-96.5,
MN,G2701690,Winona Muni  Awos,726588,44.08,-91.7,55959
MN,G2701710,St Cloud Regional Arpt,726550,45.55,-94.05,56304
MN,G2701730,Marshall Ryan Awos,726559,44.45,-95.82,56258
MS,G2800010,Natchez Hardy Awos,722357,31.62,-91.3,39190
MS,G2800030,Tupelo C D Lemons Arpt,723320,34.27,-88.77,38801
MS,G2800050,Mccomb Pike County Ap,722358,31.23,-90.47,39648
MS,G2800070,Greenwood Leflore Arpt,722359,33.5,-90.08,
MS,G2800090,Tupelo C D Lemons Arpt,723320,34.27,-88.77,38801
MS,G2800110,Greenville Municipal,722356,33.48,-90.98,38782
MS,G2800130,Tupelo C D Lemons Arpt,723320,34.27,-88.77,38801
MS,G2800150,Greenwood Leflore Arpt,722359,33.5,-90.08,
MS,G2800170,Tupelo C D Lemons Arpt,723320,34.27,-88.77,38801
MS,G2800190,Golden Tri Awos,723307,33.45,-88.58,
MS,G2800210,Natchez Hardy Awos,722357,31.62,-91.3,39190
MS,G2800230,Meridian Key Field,722340,32.33,-88.75,39307
MS,G2800250,Golden Tri Awos,723307,33.45,-88.58,
MS,G2800270,Greenville Municipal,722356,33.48,-90.98,38782
MS,G2800290,Jackson International Ap,722350,32.32,-90.08,39232
MS,G2800310,Hattiesburg Laurel,722348,31.47,-89.33,39459
TN,G2800330,Memphis International Ap,723340,35.07,-89.98,38131
MS,G2800350,Hattiesburg Laurel,722348,31.47,-89.33,39459
MS,G2800370,Natchez Hardy Awos,722357,31.62,-91.3,39190
AL,G2800390,Mobile Regional Ap,722230,30.68,-88.25,36608
MS,G2800410,Hattiesburg Laurel,722348,31.47,-89.33,39459
MS,G2800430,Greenwood Leflore Arpt,722359,33.5,-90.08,
MS,G2800450,Gulfport Biloxi Int,747685,30.4,-89.07,
MS,G2800470,Gulfport-Biloxi Intl AP,747570,30.4,-89.067,39502
MS,G2800490,Jackson International Ap,722350,32.32,-90.08,39232
MS,G2800510,Greenwood Leflore Arpt,722359,33.5,-90.08,
MS,G2800530,Greenwood-Leflore AP,747580,33.5,-90.083,
MS,G2800550,Greenville Municipal,722356,33.48,-90.98,38782
MS,G2800570,Tupelo C D Lemons Arpt,723320,34.27,-88.77,38801
MS,G2800590,Keesler Afb,747686,30.42,-88.92,39534
MS,G2800610,Hattiesburg Laurel,722348,31.47,-89.33,39459
MS,G2800630,Natchez Hardy Awos,722357,31.62,-91.3,39190
MS,G2800650,Hattiesburg Laurel,722348,31.47,-89.33,39459
MS,G2800670,Hattiesburg Laurel,722348,31.47,-89.33,39459
MS,G2800690,Meridian Naas,722345,32.55,-88.57,39309
MS,G2800710,Tupelo C D Lemons Arpt,723320,34.27,-88.77,38801
MS,G2800730,Hattiesburg Laurel,722348,31.47,-89.33,39459
MS,G2800750,Meridian Key Field,722340,32.33,-88.75,39307
MS,G2800770,Mccomb Pike County Ap,722358,31.23,-90.47,39648
MS,G2800790,Jackson International Ap,722350,32.32,-90.08,39232
MS,G2800810,Tupelo C D Lemons Arpt,723320,34.27,-88.77,38801
MS,G2800830,Greenwood-Leflore AP,747580,33.5,-90.083,
MS,G2800850,Mccomb Pike County Ap,722358,31.23,-90.47,39648
MS,G2800870,Columbus Afb,723306,33.65,-88.45,
MS,G2800890,Jackson International Ap,722350,32.32,-90.08,39232
MS,G2800910,Gulfport Biloxi Int,747685,30.4,-89.07,
TN,G2800930,Memphis International Ap,723340,35.07,-89.98,38131
MS,G2800950,Columbus Afb,723306,33.65,-88.45,
MS,G2800970,Greenwood Leflore Arpt,722359,33.5,-90.08,
MS,G2800990,Meridian Key Field,722340,32.33,-88.75,39307
MS,G2801010,Meridian Key Field,722340,32.33,-88.75,39307
MS,G2801030,Golden Tri Awos,723307,33.45,-88.58,
MS,G2801050,Golden Tri Awos,723307,33.45,-88.58,
TN,G2801070,Memphis International Ap,723340,35.07,-89.98,38131
MS,G2801090,Gulfport Biloxi Int,747685,30.4,-89.07,
MS,G2801110,Hattiesburg Laurel,722348,31.47,-89.33,39459
MS,G2801130,Mccomb Pike County Ap,722358,31.23,-90.47,39648
MS,G2801150,Tupelo C D Lemons Arpt,723320,34.27,-88.77,38801
MS,G2801170,Tupelo C D Lemons Arpt,723320,34.27,-88.77,38801
MS,G2801190,Greenwood-Leflore AP,747580,33.5,-90.083,
MS,G2801210,Jackson International Ap,722350,32.32,-90.08,39232
MS,G2801230,Jackson International Ap,722350,32.32,-90.08,39232
MS,G2801250,Greenville Municipal,722356,33.48,-90.98,38782
MS,G2801270,Jackson International Ap,722350,32.32,-90.08,39232
MS,G2801290,Hattiesburg Laurel,722348,31.47,-89.33,39459
MS,G2801310,Hattiesburg Laurel,722348,31.47,-89.33,39459
MS,G2801330,Greenville Municipal,722356,33.48,-90.98,38782
MS,G2801350,Greenwood-Leflore AP,747580,33.5,-90.083,
TN,G2801370,Memphis International Ap,723340,35.07,-89.98,38131
MS,G2801390,Tupelo C D Lemons Arpt,723320,34.27,-88.77,38801
AL,G2801410,Muscle Shoals Regional Ap,723235,34.75,-87.6,35661
TN,G2801430,Memphis International Ap,723340,35.07,-89.98,38131
MS,G2801450,Tupelo C D Lemons Arpt,723320,34.27,-88.77,38801
MS,G2801470,Mccomb Pike County Ap,722358,31.23,-90.47,39648
MS,G2801490,Jackson International Ap,722350,32.32,-90.08,39232
MS,G2801510,Greenville Municipal,722356,33.48,-90.98,38782
MS,G2801530,Meridian Key Field,722340,32.33,-88.75,39307
MS,G2801550,Golden Tri Awos,723307,33.45,-88.58,
LA,G2801570,Baton Rouge Metro AP,722320,30.533,-91.15,70811
MS,G2801590,Golden Tri Awos,723307,33.45,-88.58,
MS,G2801610,Greenwood Leflore Arpt,722359,33.5,-90.08,
MS,G2801630,Jackson International Ap,722350,32.32,-90.08,39232
MO,G2900010,Kirksville Regional Ap,724455,40.1,-92.55,
MO,G2900030,St Joseph Rosecrans Memorial,724490,39.77,-94.9,66024
IA,G2900050,Shenandoah Muni,725467,40.75,-95.42,
MO,G2900070,Columbia Regional Airport,724450,38.82,-92.22,65201
AR,G2900090,Rogers  Awos,723449,36.37,-94.1,72756
MO,G2900110,Joplin Municipal Ap,723495,37.15,-94.5,64870
KS,G2900130,Olathe Johnson Co,724468,38.85,-94.73,66221
MO,G2900150,Whiteman Afb,724467,38.72,-93.55,65305
MO,G2900170,Cape Girardeau Municipal Ap,723489,37.23,-89.57,63780
MO,G2900190,Columbia Regional Airport,724450,38.82,-92.22,65201
MO,G2900210,St Joseph Rosecrans Memorial,724490,39.77,-94.9,66024
MO,G2900230,Poplar Bluff Amos,723300,36.77,-90.47,63901
MO,G2900250,St Joseph Rosecrans Memorial,724490,39.77,-94.9,66024
MO,G2900270,Columbia Regional Airport,724450,38.82,-92.22,65201
MO,G2900290,Kaiser Mem  Awos,724459,38.1,-92.55,
MO,G2900310,Cape Girardeau Rgnl AP,723290,37.233,-89.567,63780
MO,G2900330,Whiteman Afb,724467,38.72,-93.55,65305
MO,G2900350,Poplar Bluff Amos,723300,36.77,-90.47,63901
KS,G2900370,Olathe Johnson Co,724468,38.85,-94.73,66221
MO,G2900390,Springfield Regional Arpt,724400,37.23,-93.38,
MO,G2900410,Columbia Regional Airport,724450,38.82,-92.22,65201
MO,G2900430,Springfield Regional Arpt,724400,37.23,-93.38,
IA,G2900450,Keokuk Muni,725456,40.47,-91.43,52632
MO,G2900470,Kansas City Downtown Ap,724463,39.12,-94.6,64105
MO,G2900490,Kansas City IntL Arpt,724460,39.3,-94.72,64153
MO,G2900510,Jefferson City Mem,724458,38.58,-92.15,65102
MO,G2900530,Columbia Regional Airport,724450,38.82,-92.22,65201
MO,G2900550,Rolla Natl AP,724420,38.133,-91.767,65580
MO,G2900570,Springfield Regional Arpt,724400,37.23,-93.38,
MO,G2900590,Springfield Regional Arpt,724400,37.23,-93.38,
MO,G2900610,St Joseph Rosecrans Memorial,724490,39.77,-94.9,66024
MO,G2900630,St Joseph Rosecrans Memorial,724490,39.77,-94.9,66024
MO,G2900650,Vichy Rolla Natl Arpt,724456,38.13,-91.77,65580
AR,G2900670,Flippin  Awos,723447,36.3,-92.47,72635
MO,G2900690,Poplar Bluff Amos,723300,36.77,-90.47,63901
MO,G2900710,St Louis Spirit Of St Louis A,724345,38.65,-90.65,63005
MO,G2900730,Rolla Natl AP,724420,38.133,-91.767,65580
MO,G2900750,St Joseph Rosecrans Memorial,724490,39.77,-94.9,66024
MO,G2900770,Springfield Regional Arpt,724400,37.23,-93.38,
IA,G2900790,Chariton,725469,41.03,-93.37,
IA,G2900810,Creston,725474,41.02,-94.37,50801
MO,G2900830,Whiteman Afb,724467,38.72,-93.55,65305
MO,G2900850,Springfield Regional Arpt,724400,37.23,-93.38,
NE,G2900870,Falls City Brenner,725533,40.08,-95.6,68355
MO,G2900890,Columbia Regional Airport,724450,38.82,-92.22,65201
AR,G2900910,Flippin  Awos,723447,36.3,-92.47,72635
MO,G2900930,Farmington,724454,37.77,-90.4,
MO,G2900950,Kansas City Downtown Ap,724463,39.12,-94.6,64105
MO,G2900970,Joplin Municipal Ap,723495,37.15,-94.5,64870
MO,G2900990,St Louis Spirit Of St Louis A,724345,38.65,-90.65,63005
MO,G2901010,Whiteman Afb,724467,38.72,-93.55,65305
MO,G2901030,Kirksville Regional Ap,724455,40.1,-92.55,
MO,G2901050,Kaiser Mem  Awos,724459,38.1,-92.55,
MO,G2901070,Whiteman Afb,724467,38.72,-93.55,65305
MO,G2901090,Springfield Regional Arpt,724400,37.23,-93.38,
IA,G2901110,Keokuk Muni,725456,40.47,-91.43,52632
MO,G2901130,St Louis Spirit Of St Louis A,724345,38.65,-90.65,63005
MO,G2901150,Kirksville Regional Ap,724455,40.1,-92.55,
MO,G2901170,Kirksville Regional Ap,724455,40.1,-92.55,
AR,G2901190,Fort Smith Regional Ap,723440,35.33,-94.37,72903
MO,G2901210,Kirksville Regional Ap,724455,40.1,-92.55,
MO,G2901230,Farmington,724454,37.77,-90.4,
MO,G2901250,Vichy Rolla Natl Arpt,724456,38.13,-91.77,65580
IL,G2901270,Quincy Muni Baldwin Fld,724396,39.93,-91.2,62338
IA,G2901290,Chariton,725469,41.03,-93.37,
MO,G2901310,Kaiser Mem  Awos,724459,38.1,-92.55,
MO,G2901330,Cape Girardeau Municipal Ap,723489,37.23,-89.57,63780
MO,G2901350,Columbia Regional Airport,724450,38.82,-92.22,65201
MO,G2901370,Columbia Regional Airport,724450,38.82,-92.22,65201
MO,G2901390,Columbia Regional Airport,724450,38.82,-92.22,65201
MO,G2901410,Kaiser Mem  Awos,724459,38.1,-92.55,
MO,G2901430,Cape Girardeau Municipal Ap,723489,37.23,-89.57,63780
MO,G2901450,Joplin Municipal Ap,723495,37.15,-94.5,64870
IA,G2901470,Clarinda,725479,40.72,-95.03,51632
MO,G2901490,Poplar Bluff Amos,723300,36.77,-90.47,63901
MO,G2901510,Jefferson City Mem,724458,38.58,-92.15,65102
AR,G2901530,Flippin  Awos,723447,36.3,-92.47,72635
MO,G2901550,Poplar Bluff Amos,723300,36.77,-90.47,63901
MO,G2901570,Farmington,724454,37.77,-90.4,
MO,G2901590,Whiteman Afb,724467,38.72,-93.55,65305
MO,G2901610,Vichy Rolla Natl Arpt,724456,38.13,-91.77,65580
IL,G2901630,Quincy Muni Baldwin Fld,724396,39.93,-91.2,62338
MO,G2901650,Kansas City IntL Arpt,724460,39.3,-94.72,64153
MO,G2901670,Springfield Regional Arpt,724400,37.23,-93.38,
MO,G2901690,Ft Lnrd Wd Aaf,724457,37.75,-92.15,65473
MO,G2901710,Kirksville Regional Ap,724455,40.1,-92.55,
IL,G2901730,Quincy Muni Baldwin Fld,724396,39.93,-91.2,62338
MO,G2901750,Columbia Regional Airport,724450,38.82,-92.22,65201
MO,G2901770,Kansas City Downtown Ap,724463,39.12,-94.6,64105
MO,G2901790,Farmington,724454,37.77,-90.4,
MO,G2901810,Poplar Bluff Amos,723300,36.77,-90.47,63901
MO,G2901830,St Louis Spirit Of St Louis A,724345,38.65,-90.65,63005
MO,G2901850,Whiteman Afb,724467,38.72,-93.55,65305
MO,G2901860,Farmington,724454,37.77,-90.4,
MO,G2901870,Farmington,724454,37.77,-90.4,
MO,G2901890,St Louis Lambert IntL Arpt,724340,38.75,-90.37,63145
MO,G2901950,Whiteman Afb,724467,38.72,-93.55,65305
MO,G2901970,Kirksville Regional Ap,724455,40.1,-92.55,
MO,G2901990,Kirksville Regional Ap,724455,40.1,-92.55,
MO,G2902010,Cape Girardeau Municipal Ap,723489,37.23,-89.57,63780
MO,G2902030,Ft Lnrd Wd Aaf,724457,37.75,-92.15,65473
MO,G2902050,Columbia Regional Airport,724450,38.82,-92.22,65201
MO,G2902070,Poplar Bluff Amos,723300,36.77,-90.47,63901
MO,G2902090,Springfield Regional Arpt,724400,37.23,-93.38,
MO,G2902110,Kirksville Regional Ap,724455,40.1,-92.55,
AR,G2902130,Harrison Faa Ap,723446,36.27,-93.15,72601
MO,G2902150,Ft Lnrd Wd Aaf,724457,37.75,-92.15,65473
MO,G2902170,Joplin Municipal Ap,723495,37.15,-94.5,64870
MO,G2902190,St Louis Spirit Of St Louis A,724345,38.65,-90.65,63005
MO,G2902210,Farmington,724454,37.77,-90.4,
MO,G2902230,Poplar Bluff Amos,723300,36.77,-90.47,63901
MO,G2902250,Springfield Regional Arpt,724400,37.23,-93.38,
IA,G2902270,Creston,725474,41.02,-94.37,50801
MO,G2902290,Ft Lnrd Wd Aaf,724457,37.75,-92.15,65473
IL,G2905100,Cahokia St  Louis,725314,38.57,-90.15,62206
MT,G3000010,Butte Bert Mooney Arpt,726785,45.95,-112.5,59701
WY,G3000030,Sheridan County Arpt,726660,44.77,-106.97,82801
MT,G3000050,Havre City County Ap,727770,48.55,-109.77,
MT,G3000070,Helena Regional Airport,727720,46.6,-111.97,59601
MT,G3000090,Billings Logan IntL Arpt,726770,45.8,-108.55,59102
MT,G3000110,Glendive Awos,726676,47.13,-104.8,59330
MT,G3000130,Great Falls Intl Arpt,727750,47.47,-111.38,59404
MT,G3000150,Havre City County Ap,727770,48.55,-109.77,
MT,G3000170,Miles City Municipal Arpt,742300,46.43,-105.88,
MT,G3000190,Wolf Point Intl  Fort Peck   S,727686,48.31,-105.1,
MT,G3000210,Glendive Awos,726676,47.13,-104.8,59330
MT,G3000230,Butte Bert Mooney Arpt,726785,45.95,-112.5,59701
MT,G3000250,Glendive Awos,726676,47.13,-104.8,59330
MT,G3000270,Lewistown Municipal Arpt,726776,47.05,-109.45,59457
MT,G3000290,Kalispell Glacier Pk IntL Ar,727790,48.32,-114.25,
MT,G3000310,Bozeman Gallatin Field,726797,45.8,-111.15,59714
MT,G3000330,Glasgow Intl Arpt,727680,48.22,-106.62,
MT,G3000350,Cut Bank Muni Ap,727796,48.6,-112.37,59427
MT,G3000370,Billings Logan IntL Arpt,726770,45.8,-108.55,59102
MT,G3000390,Missoula International Ap,727730,46.92,-114.1,
MT,G3000410,Havre City County Ap,727770,48.55,-109.77,
MT,G3000430,Helena Regional Airport,727720,46.6,-111.97,59601
MT,G3000450,Lewistown Municipal Arpt,726776,47.05,-109.45,59457
MT,G3000470,Missoula International Ap,727730,46.92,-114.1,
MT,G3000490,Helena Regional Airport,727720,46.6,-111.97,59601
MT,G3000510,Great Falls Intl Arpt,727750,47.47,-111.38,59404
MT,G3000530,Kalispell Glacier Pk IntL Ar,727790,48.32,-114.25,
MT,G3000550,Wolf Point Intl  Fort Peck   S,727686,48.31,-105.1,
MT,G3000570,Butte Bert Mooney Arpt,726785,45.95,-112.5,59701
MT,G3000590,Bozeman Gallatin Field,726797,45.8,-111.15,59714
MT,G3000610,Missoula International Ap,727730,46.92,-114.1,
MT,G3000630,Missoula International Ap,727730,46.92,-114.1,
MT,G3000650,Billings Logan IntL Arpt,726770,45.8,-108.55,59102
MT,G3000670,Livingston Mission Field,726798,45.7,-110.45,
MT,G3000690,Lewistown Municipal Arpt,726776,47.05,-109.45,59457
MT,G3000710,Glasgow Intl Arpt,727680,48.22,-106.62,
MT,G3000730,Cut Bank Intl AP,727690,48.6,-112.367,59427
MT,G3000750,Miles City Municipal Arpt,742300,46.43,-105.88,
MT,G3000770,Butte Bert Mooney Arpt,726785,45.95,-112.5,59701
MT,G3000790,Glendive Awos,726676,47.13,-104.8,59330
MT,G3000810,Missoula International Ap,727730,46.92,-114.1,
MT,G3000830,Sidney Richland,727687,47.7,-104.2,59270
MT,G3000850,Wolf Point Intl  Fort Peck   S,727686,48.31,-105.1,
MT,G3000870,Miles City Municipal Arpt,742300,46.43,-105.88,
MT,G3000890,Kalispell Glacier Pk IntL Ar,727790,48.32,-114.25,
ND,G3000910,Williston Sloulin Intl Ap,727670,48.2,-103.65,58801
MT,G3000930,Butte Bert Mooney Arpt,726785,45.95,-112.5,59701
MT,G3000950,Billings Logan IntL Arpt,726770,45.8,-108.55,59102
MT,G3000970,Livingston Mission Field,726798,45.7,-110.45,
MT,G3000990,Great Falls Intl Arpt,727750,47.47,-111.38,59404
MT,G3001010,Cut Bank Intl AP,727690,48.6,-112.367,59427
MT,G3001030,Miles City Municipal Arpt,742300,46.43,-105.88,
MT,G3001050,Glasgow Intl Arpt,727680,48.22,-106.62,
MT,G3001070,Lewistown Municipal Arpt,726776,47.05,-109.45,59457
ND,G3001090,Dickinson Municipal Ap,727645,46.8,-102.8,
MT,G3001110,Billings Logan IntL Arpt,726770,45.8,-108.55,59102
NE,G3100010,Hastings Municipal,725525,40.6,-98.43,68902
NE,G3100030,Norfolk Karl Stefan Mem Arpt,725560,41.98,-97.43,68701
NE,G3100050,Imperial Faa Ap,725626,40.52,-101.62,69033
NE,G3100070,Scottsbluff W B Heilig Field,725660,41.87,-103.6,
NE,G3100090,Broken Bow Muni,725555,41.43,-99.65,68822
NE,G3100110,Norfolk Karl Stefan Mem Arpt,725560,41.98,-97.43,68701
NE,G3100130,Alliance Municipal,725635,42.05,-102.8,
NE,G3100150,O Neill Baker Field,725566,42.47,-98.68,
NE,G3100170,Ainsworth Municipal,725556,42.58,-100,
NE,G3100190,Kearney Muni  Awos,725526,40.73,-99,68847
NE,G3100210,Tekamah  Asos,725527,41.77,-96.17,68061
NE,G3100230,Columbus Muni,725565,41.45,-97.33,68601
NE,G3100250,Bellevue Offutt Afb,725540,41.12,-95.92,68123
SD,G3100270,Chan Gurney Muni,726525,42.92,-97.38,
NE,G3100290,Imperial Faa Ap,725626,40.52,-101.62,69033
NE,G3100310,Valentine Miller Field,725670,42.87,-100.55,69201
NE,G3100330,Sidney Municipal Ap,725610,41.1,-102.98,69162
NE,G3100350,Hastings Municipal,725525,40.6,-98.43,68902
NE,G3100370,Columbus Muni,725565,41.45,-97.33,68601
NE,G3100390,Fremont Muni Arpt,725564,41.45,-96.52,68025
NE,G3100410,Broken Bow Muni,725555,41.43,-99.65,68822
IA,G3100430,Sioux City Sioux Gateway Ap,725570,42.38,-96.38,51054
NE,G3100450,Chadron Municipal Ap,725636,42.83,-103.08,
NE,G3100470,Broken Bow Muni,725555,41.43,-99.65,68822
NE,G3100490,Sidney Municipal Ap,725610,41.1,-102.98,69162
IA,G3100510,Sioux City Sioux Gateway Ap,725570,42.38,-96.38,51054
NE,G3100530,Fremont Muni Arpt,725564,41.45,-96.52,68025
NE,G3100550,Omaha Wsfo,725530,41.37,-96.02,68152
NE,G3100570,Imperial Faa Ap,725626,40.52,-101.62,69033
NE,G3100590,Hastings Municipal,725525,40.6,-98.43,68902
NE,G3100610,Brewster Field Arpt,725628,40.45,-99.33,68949
NE,G3100630,Mccook Municipal,725625,40.2,-100.58,69001
NE,G3100650,Brewster Field Arpt,725628,40.45,-99.33,68949
NE,G3100670,Beatrice Municipal,725515,40.3,-96.75,
NE,G3100690,Sidney Municipal Ap,725610,41.1,-102.98,69162
NE,G3100710,Ord Sharp Field,725524,41.62,-98.95,68862
NE,G3100730,Brewster Field Arpt,725628,40.45,-99.33,68949
NE,G3100750,Alliance Municipal,725635,42.05,-102.8,
NE,G3100770,Ord Sharp Field,725524,41.62,-98.95,68862
NE,G3100790,Grand Island Central Ne Regio,725520,40.97,-98.32,68824
NE,G3100810,Grand Island Central Ne Regio,725520,40.97,-98.32,68824
NE,G3100830,Brewster Field Arpt,725628,40.45,-99.33,68949
NE,G3100850,Imperial Faa Ap,725626,40.52,-101.62,69033
NE,G3100870,Mccook Municipal,725625,40.2,-100.58,69001
NE,G3100890,O Neill Baker Field,725566,42.47,-98.68,
NE,G3100910,North Platte Regional Ap,725620,41.12,-100.67,69101
NE,G3100930,Grand Island Central Ne Regio,725520,40.97,-98.32,68824
NE,G3100950,Beatrice Municipal,725515,40.3,-96.75,
NE,G3100970,Beatrice Municipal,725515,40.3,-96.75,
NE,G3100990,Kearney Muni  Awos,725526,40.73,-99,68847
NE,G3101010,Imperial Faa Ap,725626,40.52,-101.62,69033
NE,G3101030,Ainsworth Municipal,725556,42.58,-100,
NE,G3101050,Scottsbluff W B Heilig Field,725660,41.87,-103.6,
SD,G3101070,Chan Gurney Muni,726525,42.92,-97.38,
NE,G3101090,Lincoln Municipal Arpt,725510,40.83,-96.77,68588
NE,G3101110,North Platte Regional Ap,725620,41.12,-100.67,69101
NE,G3101130,North Platte Regional Ap,725620,41.12,-100.67,69101
NE,G3101150,Broken Bow Muni,725555,41.43,-99.65,68822
NE,G3101170,North Platte Regional Ap,725620,41.12,-100.67,69101
NE,G3101190,Norfolk Karl Stefan Mem Arpt,725560,41.98,-97.43,68701
NE,G3101210,Grand Island Central Ne Regio,725520,40.97,-98.32,68824
NE,G3101230,Scottsbluff W B Heilig Field,725660,41.87,-103.6,
NE,G3101250,Columbus Muni,725565,41.45,-97.33,68601
NE,G3101270,Falls City Brenner,725533,40.08,-95.6,68355
NE,G3101290,Hastings Municipal,725525,40.6,-98.43,68902
NE,G3101310,Bellevue Offutt Afb,725540,41.12,-95.92,68123
NE,G3101330,Falls City Brenner,725533,40.08,-95.6,68355
NE,G3101350,Imperial Faa Ap,725626,40.52,-101.62,69033
NE,G3101370,Brewster Field Arpt,725628,40.45,-99.33,68949
NE,G3101390,Norfolk Karl Stefan Mem Arpt,725560,41.98,-97.43,68701
NE,G3101410,Columbus Muni,725565,41.45,-97.33,68601
NE,G3101430,Columbus Muni,725565,41.45,-97.33,68601
NE,G3101450,Mccook Municipal,725625,40.2,-100.58,69001
NE,G3101470,Falls City Brenner,725533,40.08,-95.6,68355
NE,G3101490,Ainsworth Municipal,725556,42.58,-100,
NE,G3101510,Lincoln Municipal Arpt,725510,40.83,-96.77,68588
NE,G3101530,Bellevue Offutt Afb,725540,41.12,-95.92,68123
NE,G3101550,Fremont Muni Arpt,725564,41.45,-96.52,68025
NE,G3101570,Scottsbluff W B Heilig Field,725660,41.87,-103.6,
NE,G3101590,Lincoln Municipal Arpt,725510,40.83,-96.77,68588
NE,G3101610,Chadron Municipal Ap,725636,42.83,-103.08,
NE,G3101630,Ord Sharp Field,725524,41.62,-98.95,68862
NE,G3101650,Scottsbluff W B Heilig Field,725660,41.87,-103.6,
NE,G3101670,Norfolk Karl Stefan Mem Arpt,725560,41.98,-97.43,68701
KS,G3101690,Concordia Blosser Muni Ap,724580,39.55,-97.65,66901
NE,G3101710,Ainsworth Municipal,725556,42.58,-100,
IA,G3101730,Sioux City Sioux Gateway Ap,725570,42.38,-96.38,51054
NE,G3101750,Ord Sharp Field,725524,41.62,-98.95,68862
NE,G3101770,Omaha Wsfo,725530,41.37,-96.02,68152
NE,G3101790,Norfolk Karl Stefan Mem Arpt,725560,41.98,-97.43,68701
NE,G3101810,Hastings Municipal,725525,40.6,-98.43,68902
NE,G3101830,Ord Sharp Field,725524,41.62,-98.95,68862
NE,G3101850,Columbus Muni,725565,41.45,-97.33,68601
NV,G3200010,Fallon Naas,724885,39.42,-118.72,
NV,G3200030,Las Vegas Mccarran Intl Ap,723860,36.08,-115.15,89154
CA,G3200050,Truckee Tahoe,725846,39.32,-120.13,
NV,G3200070,Elko Municipal Arpt,725825,40.83,-115.8,89890
NV,G3200090,Tonopah Airport,724855,38.07,-117.08,
NV,G3200110,Elko Municipal Arpt,725825,40.83,-115.8,89890
NV,G3200130,Winnemucca Municipal Arpt,725830,40.9,-117.8,88944
NV,G3200150,Winnemucca Municipal Arpt,725830,40.9,-117.8,88944
UT,G3200170,Cedar City Municipal Ap,724755,37.7,-113.1,84720
NV,G3200190,Reno Tahoe International Ap,724880,39.48,-119.77,89502
NV,G3200210,Fallon Naas,724885,39.42,-118.72,
NV,G3200230,Mercury Desert Rock Ap  Surfra,723870,36.63,-116.02,89023
NV,G3200270,Lovelock Derby Field,725805,40.07,-118.55,
NV,G3200290,Reno Tahoe International Ap,724880,39.48,-119.77,89502
NV,G3200310,Reno Tahoe International Ap,724880,39.48,-119.77,89502
NV,G3200330,Ely Yelland Field,724860,39.3,-114.85,89301
NV,G3205100,Reno Tahoe International Ap,724880,39.48,-119.77,89502
NH,G3300010,Laconia Muni  Awos,726155,43.57,-71.42,3249
NH,G3300030,Laconia Muni  Awos,726155,43.57,-71.42,3249
NH,G3300050,Dillant Hopkins,726165,42.9,-72.27,3446
NH,G3300070,Berlin Municipal,726160,44.58,-71.18,3588
NH,G3300090,Lebanon Municipal,726116,43.63,-72.3,3784
NH,G3300110,Manchester Airport,743945,42.93,-71.43,3103
NH,G3300130,Concord Municipal Arpt,726050,43.2,-71.5,3305
MA,G3300150,Lawrence Muni,744904,42.72,-71.12,1842
NH,G3300170,Pease Intl Tradepor,726055,43.08,-70.82,3801
VT,G3300190,Springfield Hartnes,726115,43.35,-72.52,5151
NJ,G3400010,Atlantic City Intl Ap,724070,39.45,-74.57,8240
NJ,G3400030,Teterboro Airport,725025,40.85,-74.07,7608
PA,G3400050,Philadelphia Ne Philadelphia,724085,40.08,-75.02,19114
PA,G3400070,Philadelphia International Ap,724080,39.87,-75.23,19113
NJ,G3400090,Cape May Co,745966,39,-74.92,8204
NJ,G3400110,Millville Municipal Ap,724075,39.37,-75.08,8332
NJ,G3400130,Newark International Arpt,725020,40.72,-74.18,7104
PA,G3400150,Philadelphia International Ap,724080,39.87,-75.23,19113
NY,G3400170,New York Central Prk Obs Belv,725033,40.78,-73.97,10024
NJ,G3400190,Trenton Mercer County Ap,724095,40.28,-74.82,8628
NJ,G3400210,Trenton Mercer County Ap,724095,40.28,-74.82,8628
NJ,G3400230,Newark International Arpt,725020,40.72,-74.18,7104
NJ,G3400250,Belmar Asc,724084,40.18,-74.07,7719
NJ,G3400270,Teterboro Airport,725025,40.85,-74.07,7608
NJ,G3400290,Belmar Asc,724084,40.18,-74.07,7719
NJ,G3400310,Caldwell Essex Co,724094,40.88,-74.28,7004
DE,G3400330,Wilmington New Castle Cnty Ap,724089,39.67,-75.6,19720
NJ,G3400350,Trenton Mercer County Ap,724095,40.28,-74.82,8628
NJ,G3400370,Teterboro Airport,725025,40.85,-74.07,7608
NJ,G3400390,Newark International Arpt,725020,40.72,-74.18,7104
PA,G3400410,Allentown Lehigh Valley Intl,725170,40.65,-75.45,18032
NM,G3500010,Albuquerque Intl Arpt  Isis,723650,35.04,-106.62,87106
AZ,G3500030,Show Low Municipal,723747,34.27,-110,85901
NM,G3500050,Roswell Industrial Air Park,722680,33.3,-104.53,88203
NM,G3500060,Albuquerque Intl Arpt  Isis,723650,35.04,-106.62,87106
NM,G3500070,Taos Muni Apt Awos,723663,36.45,-105.67,87529
NM,G3500090,Clovis Cannon Afb,722686,34.38,-103.32,88103
NM,G3500110,Clovis Cannon Afb,722686,34.38,-103.32,88103
NM,G3500130,Las Cruces Intl,722695,32.28,-106.92,
NM,G3500150,Carlsbad Cavern City Air Term,722687,32.33,-104.27,
NM,G3500170,Truth Or Consequences Muni Ap,722710,33.23,-107.27,
NM,G3500190,Las Vegas Municipal Arpt,723677,35.65,-105.15,
NM,G3500210,Tucumcari Faa Ap,723676,35.18,-103.6,
NM,G3500230,Deming Muni,722725,32.25,-107.72,88030
TX,G3500250,Wink Winkler County Ap,722656,31.78,-103.2,79789
NM,G3500270,Sierra Blanca Rgnl,722683,33.47,-105.53,
NM,G3500280,Sata Fe County Municipal Ap,723656,35.62,-106.08,87507
NM,G3500290,Deming Muni,722725,32.25,-107.72,88030
NM,G3500310,Gallup Sen Clarke Fld,723627,35.52,-108.78,87301
NM,G3500330,Las Vegas Municipal Arpt,723677,35.65,-105.15,
NM,G3500350,Holloman Afb,747320,32.85,-106.1,
NM,G3500370,Tucumcari Faa Ap,723676,35.18,-103.6,
NM,G3500390,Taos Muni Apt Awos,723663,36.45,-105.67,87529
NM,G3500410,Clovis Cannon Afb,722686,34.38,-103.32,88103
NM,G3500430,Albuquerque Intl Arpt  Isis,723650,35.04,-106.62,87106
NM,G3500450,Farmington Four Corners Regl,723658,36.75,-108.23,
NM,G3500470,Las Vegas Municipal Arpt,723677,35.65,-105.15,
NM,G3500490,Sata Fe County Municipal Ap,723656,35.62,-106.08,87507
NM,G3500510,Truth Or Consequences Muni Ap,722710,33.23,-107.27,
NM,G3500530,Albuquerque Intl Arpt  Isis,723650,35.04,-106.62,87106
NM,G3500550,Taos Muni Apt Awos,723663,36.45,-105.67,87529
NM,G3500570,Sata Fe County Municipal Ap,723656,35.62,-106.08,87507
NM,G3500590,Clayton Municipal Airpark,723600,36.45,-103.15,
NM,G3500610,Albuquerque Intl Arpt  Isis,723650,35.04,-106.62,87106
NY,G3600010,Albany County Ap,725180,42.75,-73.8,12205
PA,G3600030,Bradford Regional Ap,725266,41.8,-78.63,
NY,G3600050,New York Laguardia Arpt,725030,40.78,-73.88,11371
NY,G3600070,Binghamton Edwin A Link Field,725150,42.2,-75.98,13905
PA,G3600090,Bradford Regional Ap,725266,41.8,-78.63,
NY,G3600110,Syracuse Hancock IntL Arpt,725190,43.12,-76.1,13212
NY,G3600130,Jamestown  Awos,725235,42.15,-79.27,14701
NY,G3600150,Elmira Corning Regional Ap,725156,42.17,-76.9,14845
NY,G3600170,Binghamton Edwin A Link Field,725150,42.2,-75.98,13905
VT,G3600190,Burlington International Ap,726170,44.47,-73.15,5403
NY,G3600210,Albany County Ap,725180,42.75,-73.8,12205
NY,G3600230,Binghamton Edwin A Link Field,725150,42.2,-75.98,13905
NY,G3600250,Monticello Awos,725145,41.7,-74.8,12762
NY,G3600270,Poughkeepsie Dutchess Co Ap,725036,41.63,-73.88,12590
NY,G3600290,Buffalo Niagara Intl Ap,725280,42.93,-78.73,14225
NY,G3600310,Adirondack Rgnl,726228,44.38,-74.2,12945
NY,G3600330,Adirondack Rgnl,726228,44.38,-74.2,12945
NY,G3600350,Albany County Ap,725180,42.75,-73.8,12205
NY,G3600370,Rochester Greater Rochester I,725290,43.12,-77.68,14624
NY,G3600390,Albany County Ap,725180,42.75,-73.8,12205
NY,G3600410,Adirondack Rgnl,726228,44.38,-74.2,12945
NY,G3600430,Utica Oneida County Ap,725197,43.15,-75.38,13424
NY,G3600450,Watertown Ap,726227,44,-76.02,13634
NY,G3600470,New York-Central Park Observatory-Belevedere Castle,725053,40.7793,-73.9691,
NY,G3600490,Fort Drum Wheeler S,743700,44.05,-75.72,13643
NY,G3600510,Rochester Greater Rochester I,725290,43.12,-77.68,14624
NY,G3600530,Utica Oneida County Ap,725197,43.15,-75.38,13424
NY,G3600550,Rochester Greater Rochester I,725290,43.12,-77.68,14624
NY,G3600570,Albany County Ap,725180,42.75,-73.8,12205
NY,G3600590,Republic,744864,40.72,-73.42,11735
NY,G3600610,New York-Central Park Observatory-Belevedere Castle,725053,40.7793,-73.9691,
NY,G3600630,Niagara Falls Af,725287,43.1,-78.95,14304
NY,G3600650,Utica Oneida County Ap,725197,43.15,-75.38,13424
NY,G3600670,Syracuse Hancock IntL Arpt,725190,43.12,-76.1,13212
NY,G3600690,Rochester Greater Rochester I,725290,43.12,-77.68,14624
NY,G3600710,Stewart Field,725038,41.5,-74.1,12475
NY,G3600730,Rochester Greater Rochester I,725290,43.12,-77.68,14624
NY,G3600750,Syracuse Hancock IntL Arpt,725190,43.12,-76.1,13212
NY,G3600770,Utica Oneida County Ap,725197,43.15,-75.38,13424
CT,G3600790,Danbury Municipal,725086,41.37,-73.48,6813
NY,G3600810,New York Laguardia Arpt,725030,40.78,-73.88,11371
NY,G3600830,Albany County Ap,725180,42.75,-73.8,12205
NJ,G3600850,Newark International Arpt,725020,40.72,-74.18,7104
NY,G3600870,White Plains Westchester Co A,725037,41.07,-73.72,10577
NY,G3600890,Massena Ap,726223,44.93,-74.85,13662
NY,G3600910,Albany County Ap,725180,42.75,-73.8,12205
NY,G3600930,Albany County Ap,725180,42.75,-73.8,12205
NY,G3600950,Albany County Ap,725180,42.75,-73.8,12205
NY,G3600970,Elmira Corning Regional Ap,725156,42.17,-76.9,14845
NY,G3600990,Elmira Corning Regional Ap,725156,42.17,-76.9,14845
NY,G3601010,Elmira Corning Regional Ap,725156,42.17,-76.9,14845
NY,G3601030,Islip-Long Island MacArthur AP,725050,40.79,-73.1,11779
NY,G3601050,Monticello Awos,725145,41.7,-74.8,12762
NY,G3601070,Binghamton Edwin A Link Field,725150,42.2,-75.98,13905
NY,G3601090,Binghamton Edwin A Link Field,725150,42.2,-75.98,13905
NY,G3601110,Poughkeepsie Dutchess Co Ap,725036,41.63,-73.88,12590
NY,G3601130,Glens Falls Ap,725185,43.35,-73.62,12804
NY,G3601150,Glens Falls-Bennett Meml AP,725220,43.35,-73.617,12804
NY,G3601170,Rochester Greater Rochester I,725290,43.12,-77.68,14624
NY,G3601190,White Plains Westchester Co A,725037,41.07,-73.72,10577
NY,G3601210,Buffalo Niagara Intl Ap,725280,42.93,-78.73,14225
NY,G3601230,Elmira Corning Regional Ap,725156,42.17,-76.9,14845
VA,G3700010,Danville Faa Ap,724106,36.57,-79.33,24586
NC,G3700030,Hickory Regional Ap,723145,35.73,-81.38,28601
WV,G3700050,Beckley Raleigh Co Mem Ap,724120,37.8,-81.12,25813
NC,G3700070,Southern Pines Awos,723143,35.23,-79.4,28327
WV,G3700090,Beckley Raleigh Co Mem Ap,724120,37.8,-81.12,25813
TN,G3700110,Bristol-Tri-Cities Rgnl AP,723350,36.467,-82.4,
NC,G3700130,Pitt Greenville Arp,723065,35.63,-77.4,27834
VA,G3700150,Franklin Naas,723083,36.7,-76.9,23315
NC,G3700170,Fayetteville Rgnl G,723035,34.98,-78.88,28306
NC,G3700190,Wilmington International Arpt,723013,34.27,-77.9,28405
NC,G3700210,Asheville Regional Arpt,723150,35.43,-82.53,28704
NC,G3700230,Hickory Rgnl AP,723010,35.733,-81.383,28601
NC,G3700250,Charlotte Douglas Intl Arpt,723140,35.22,-80.95,28208
NC,G3700270,Hickory Rgnl AP,723010,35.733,-81.383,28601
NC,G3700290,Elizabeth City Coast Guard Ai,746943,36.3,-76.25,27909
NC,G3700310,Cherry Point Mcas,723090,34.9,-76.88,28532
VA,G3700330,Danville Faa Ap,724106,36.57,-79.33,24586
NC,G3700350,Hickory Regional Ap,723145,35.73,-81.38,28601
NC,G3700370,Raleigh Durham International,723060,35.87,-78.78,27617
TN,G3700390,Knoxville Mcghee Tyson Ap,723260,35.82,-83.98,37701
NC,G3700410,Elizabeth City Coast Guard Ai,746943,36.3,-76.25,27909
TN,G3700430,Knoxville Mcghee Tyson Ap,723260,35.82,-83.98,37701
NC,G3700450,Hickory Regional Ap,723145,35.73,-81.38,28601
SC,G3700470,North Myrtle Beach Grand Stra,747915,33.82,-78.72,29598
NC,G3700490,New Bern Craven Co Regl Ap,723095,35.07,-77.05,28562
NC,G3700510,Fort Bragg Simmons Aaf,746930,35.13,-78.93,28311
NC,G3700530,Elizabeth City Rgnl AP-CGAS Elizabeth City,723070,36.26,-76.179,27909
NC,G3700550,Dare Co Rgnl,723046,35.92,-75.7,27954
NC,G3700570,Charlotte Douglas Intl Arpt,723140,35.22,-80.95,28208
NC,G3700590,Charlotte Douglas Intl Arpt,723140,35.22,-80.95,28208
NC,G3700610,Jacksonville  Awos,723069,34.83,-77.62,
NC,G3700630,Raleigh Durham International,723060,35.87,-78.78,27617
NC,G3700650,Pitt Greenville Arp,723065,35.63,-77.4,27834
NC,G3700670,Winston Salem Reynolds Ap,723193,36.13,-80.22,27105
NC,G3700690,Raleigh Durham International,723060,35.87,-78.78,27617
NC,G3700710,Charlotte Douglas Intl Arpt,723140,35.22,-80.95,28208
VA,G3700730,Franklin Naas,723083,36.7,-76.9,23315
TN,G3700750,Knoxville Mcghee Tyson Ap,723260,35.82,-83.98,37701
NC,G3700770,Raleigh Durham International,723060,35.87,-78.78,27617
NC,G3700790,Kinston Stallings Afb,723067,35.32,-77.63,28503
NC,G3700810,Greensboro Piedmont Triad Int,723170,36.1,-79.95,27410
NC,G3700830,Rocky Mount Wilson,723068,35.85,-77.9,27822
NC,G3700850,Raleigh Durham International,723060,35.87,-78.78,27617
NC,G3700870,Asheville Regional Arpt,723150,35.43,-82.53,28704
NC,G3700890,Asheville Regional Arpt,723150,35.43,-82.53,28704
VA,G3700910,Franklin Naas,723083,36.7,-76.9,23315
NC,G3700930,Fayetteville Pope Afb,723030,35.17,-79.02,28308
NC,G3700950,Cape Hatteras Nws Bldg,723040,35.27,-75.55,27920
NC,G3700970,Hickory Regional Ap,723145,35.73,-81.38,28601
NC,G3700990,Asheville Regional Arpt,723150,35.43,-82.53,28704
NC,G3701010,Goldsboro Seymour Johnson Afb,723066,35.35,-77.97,27531
NC,G3701030,New Bern Craven Co Regl Ap,723095,35.07,-77.05,28562
NC,G3701050,Raleigh Durham International,723060,35.87,-78.78,27617
NC,G3701070,Kinston Stallings Afb,723067,35.32,-77.63,28503
NC,G3701090,Hickory Regional Ap,723145,35.73,-81.38,28601
NC,G3701110,Asheville Regional Arpt,723150,35.43,-82.53,28704
NC,G3701130,Asheville Regional Arpt,723150,35.43,-82.53,28704
NC,G3701150,Asheville Regional Arpt,723150,35.43,-82.53,28704
NC,G3701170,Pitt Greenville Arp,723065,35.63,-77.4,27834
NC,G3701190,Charlotte Douglas Intl Arpt,723140,35.22,-80.95,28208
TN,G3701210,Bristol-Tri-Cities Rgnl AP,723350,36.467,-82.4,
NC,G3701230,Southern Pines Awos,723143,35.23,-79.4,28327
NC,G3701250,Southern Pines Awos,723143,35.23,-79.4,28327
NC,G3701270,Rocky Mount Wilson,723068,35.85,-77.9,27822
NC,G3701290,Wilmington International Arpt,723013,34.27,-77.9,28405
VA,G3701310,Franklin Naas,723083,36.7,-76.9,23315
NC,G3701330,New River Mcaf,723096,34.7,-77.38,28547
NC,G3701350,Raleigh Durham International,723060,35.87,-78.78,27617
NC,G3701370,Cherry Point Mcas,723090,34.9,-76.88,28532
NC,G3701390,Elizabeth City Coast Guard Ai,746943,36.3,-76.25,27909
NC,G3701410,Wilmington International Arpt,723013,34.27,-77.9,28405
NC,G3701430,Elizabeth City Coast Guard Ai,746943,36.3,-76.25,27909
VA,G3701450,Danville Faa Ap,724106,36.57,-79.33,24586
NC,G3701470,Pitt Greenville Arp,723065,35.63,-77.4,27834
NC,G3701490,Asheville Regional Arpt,723150,35.43,-82.53,28704
NC,G3701510,Southern Pines Awos,723143,35.23,-79.4,28327
NC,G3701530,Southern Pines Awos,723143,35.23,-79.4,28327
NC,G3701550,Fayetteville Rgnl G,723035,34.98,-78.88,28306
VA,G3701570,Martinsville,745985,36.63,-80.02,24112
NC,G3701590,Charlotte Douglas Intl Arpt,723140,35.22,-80.95,28208
NC,G3701610,Asheville Regional Arpt,723150,35.43,-82.53,28704
NC,G3701630,Fayetteville Rgnl G,723035,34.98,-78.88,28306
NC,G3701650,Southern Pines Awos,723143,35.23,-79.4,28327
NC,G3701670,Charlotte Douglas Intl Arpt,723140,35.22,-80.95,28208
NC,G3701690,Winston Salem Reynolds Ap,723193,36.13,-80.22,27105
VA,G3701710,Hillsville,724107,36.77,-80.82,24381
TN,G3701730,Knoxville Mcghee Tyson Ap,723260,35.82,-83.98,37701
NC,G3701750,Asheville Regional Arpt,723150,35.43,-82.53,28704
NC,G3701770,Elizabeth City Rgnl AP-CGAS Elizabeth City,723070,36.26,-76.179,27909
NC,G3701790,Charlotte Douglas Intl Arpt,723140,35.22,-80.95,28208
NC,G3701810,Raleigh Durham International,723060,35.87,-78.78,27617
NC,G3701830,Raleigh Durham International,723060,35.87,-78.78,27617
NC,G3701850,Rocky Mount Wilson,723068,35.85,-77.9,27822
NC,G3701870,Elizabeth City Coast Guard Ai,746943,36.3,-76.25,27909
WV,G3701890,Beckley Raleigh Co Mem Ap,724120,37.8,-81.12,25813
NC,G3701910,Goldsboro Seymour Johnson Afb,723066,35.35,-77.97,27531
NC,G3701930,Hickory Rgnl AP,723010,35.733,-81.383,28601
NC,G3701950,Rocky Mount Wilson,723068,35.85,-77.9,27822
NC,G3701970,Winston Salem Reynolds Ap,723193,36.13,-80.22,27105
NC,G3701990,Asheville Regional Arpt,723150,35.43,-82.53,28704
ND,G3800010,Dickinson Municipal Ap,727645,46.8,-102.8,
ND,G3800030,Jamestown Municipal Arpt,727535,46.92,-98.68,58401
ND,G3800050,Devils Lake Awos,727573,48.12,-98.92,
ND,G3800070,Dickinson Municipal Ap,727645,46.8,-102.8,
ND,G3800090,Minot Afb,727675,48.42,-101.35,58705
ND,G3800110,Dickinson Municipal Ap,727645,46.8,-102.8,
ND,G3800130,Minot Afb,727675,48.42,-101.35,58705
ND,G3800150,Bismarck Municipal Arpt  Isis,727640,46.77,-100.77,58506
ND,G3800170,Fargo Hector International Ap,727530,46.93,-96.82,58105
ND,G3800190,Devils Lake Awos,727573,48.12,-98.92,
SD,G3800210,Aberdeen Regional Arpt,726590,45.45,-98.42,
ND,G3800230,Williston Sloulin Intl Ap,727670,48.2,-103.65,58801
ND,G3800250,Dickinson Municipal Ap,727645,46.8,-102.8,
ND,G3800270,Devils Lake Awos,727573,48.12,-98.92,
ND,G3800290,Bismarck Municipal Arpt  Isis,727640,46.77,-100.77,58506
ND,G3800310,Jamestown Municipal Arpt,727535,46.92,-98.68,58401
ND,G3800330,Dickinson Municipal Ap,727645,46.8,-102.8,
ND,G3800350,Grand Forks International Ap,727576,47.95,-97.18,
ND,G3800370,Bismarck Municipal Arpt  Isis,727640,46.77,-100.77,58506
ND,G3800390,Jamestown Municipal Arpt,727535,46.92,-98.68,58401
ND,G3800410,Dickinson Municipal Ap,727645,46.8,-102.8,
ND,G3800430,Bismarck Municipal Arpt  Isis,727640,46.77,-100.77,58506
SD,G3800450,Aberdeen Regional Arpt,726590,45.45,-98.42,
ND,G3800470,Bismarck Municipal Arpt  Isis,727640,46.77,-100.77,58506
ND,G3800490,Minot Faa Ap,727676,48.27,-101.28,58703
SD,G3800510,Mobridge,726685,45.53,-100.43,57601
ND,G3800530,Dickinson Municipal Ap,727645,46.8,-102.8,
ND,G3800550,Minot Faa Ap,727676,48.27,-101.28,58703
ND,G3800570,Bismarck Municipal Arpt  Isis,727640,46.77,-100.77,58506
ND,G3800590,Bismarck Municipal Arpt  Isis,727640,46.77,-100.77,58506
ND,G3800610,Minot Afb,727675,48.42,-101.35,58705
ND,G3800630,Devils Lake Awos,727573,48.12,-98.92,
ND,G3800650,Bismarck Municipal Arpt  Isis,727640,46.77,-100.77,58506
MN,G3800670,Hallock,727478,48.78,-96.95,56728
ND,G3800690,Devils Lake Awos,727573,48.12,-98.92,
ND,G3800710,Devils Lake Awos,727573,48.12,-98.92,
SD,G3800730,Aberdeen Regional Arpt,726590,45.45,-98.42,
ND,G3800750,Minot Afb,727675,48.42,-101.35,58705
MN,G3800770,Wheaton Ndb  Awos,727533,45.7,-96.5,
ND,G3800790,Devils Lake Awos,727573,48.12,-98.92,
SD,G3800810,Aberdeen Regional Arpt,726590,45.45,-98.42,
ND,G3800830,Minot Faa Ap,727676,48.27,-101.28,58703
ND,G3800850,Bismarck Municipal Arpt  Isis,727640,46.77,-100.77,58506
ND,G3800870,Dickinson Municipal Ap,727645,46.8,-102.8,
ND,G3800890,Dickinson Municipal Ap,727645,46.8,-102.8,
ND,G3800910,Grand Forks Af,727575,47.97,-97.4,
ND,G3800930,Jamestown Municipal Arpt,727535,46.92,-98.68,58401
ND,G3800950,Devils Lake Awos,727573,48.12,-98.92,
ND,G3800970,Grand Forks Intl AP,727570,47.95,-97.183,
ND,G3800990,Grand Forks Af,727575,47.97,-97.4,
ND,G3801010,Minot Faa Ap,727676,48.27,-101.28,58703
ND,G3801030,Devils Lake Awos,727573,48.12,-98.92,
ND,G3801050,Williston Sloulin Intl Ap,727670,48.2,-103.65,58801
OH,G3900010,Cincinnati Municipal Ap Lunki,724297,39.1,-84.42,45226
OH,G3900030,Findlay Airport,725366,41.02,-83.67,45840
OH,G3900050,Mansfield Lahm Rgnl AP,724200,40.817,-82.517,44903
OH,G3900070,Youngstown Regional Airport,725250,41.25,-80.67,
OH,G3900090,Zanesville Municipal Ap,724286,39.95,-81.9,43701
OH,G3900110,Dayton International Airport,724290,39.9,-84.22,45377
WV,G3900130,Wheeling Ohio County Ap,724275,40.18,-80.65,26075
OH,G3900150,Cincinnati Municipal Ap Lunki,724297,39.1,-84.42,45226
OH,G3900170,Dayton International Airport,724290,39.9,-84.22,45377
OH,G3900190,Akron Akron Canton Reg Ap,725210,40.92,-81.43,44720
OH,G3900210,Dayton Wright Patterson Afb,745700,39.83,-84.05,45433
OH,G3900230,Dayton Wright Patterson Afb,745700,39.83,-84.05,45433
OH,G3900250,Cincinnati Municipal Ap Lunki,724297,39.1,-84.42,45226
OH,G3900270,Dayton Wright Patterson Afb,745700,39.83,-84.05,45433
OH,G3900290,Youngstown Regional Airport,725250,41.25,-80.67,
OH,G3900310,Zanesville Municipal Ap,724286,39.95,-81.9,43701
OH,G3900330,Mansfield Lahm Municipal Arpt,725246,40.82,-82.52,44903
OH,G3900350,Burke Lakefront,725245,41.52,-81.68,44114
OH,G3900370,Dayton International Airport,724290,39.9,-84.22,45377
OH,G3900390,Toledo Express Airport,725360,41.58,-83.8,43542
OH,G3900410,Ohio State Universi,724288,40.07,-83.07,43235
OH,G3900430,Mansfield Lahm Municipal Arpt,725246,40.82,-82.52,44903
OH,G3900450,Columbus Port Columbus Intl A,724280,39.98,-82.88,43213
OH,G3900470,Ohio State Universi,724288,40.07,-83.07,43235
OH,G3900490,Ohio State Universi,724288,40.07,-83.07,43235
OH,G3900510,Toledo Express Airport,725360,41.58,-83.8,43542
WV,G3900530,Huntington Tri State Arpt,724250,38.38,-82.55,25530
OH,G3900550,Burke Lakefront,725245,41.52,-81.68,44114
OH,G3900570,Dayton Wright Patterson Afb,745700,39.83,-84.05,45433
OH,G3900590,Zanesville Municipal Ap,724286,39.95,-81.9,43701
OH,G3900610,Cincinnati Municipal Ap Lunki,724297,39.1,-84.42,45226
OH,G3900630,Findlay Airport,725366,41.02,-83.67,45840
OH,G3900650,Findlay Airport,725366,41.02,-83.67,45840
WV,G3900670,Wheeling Ohio County Ap,724275,40.18,-80.65,26075
OH,G3900690,Toledo Express Airport,725360,41.58,-83.8,43542
OH,G3900710,Dayton Wright Patterson Afb,745700,39.83,-84.05,45433
OH,G3900730,Columbus Port Columbus Intl A,724280,39.98,-82.88,43213
OH,G3900750,Akron Akron Canton Reg Ap,725210,40.92,-81.43,44720
OH,G3900770,Mansfield Lahm Municipal Arpt,725246,40.82,-82.52,44903
OH,G3900790,Columbus Port Columbus Intl A,724280,39.98,-82.88,43213
WV,G3900810,Wheeling Ohio County Ap,724275,40.18,-80.65,26075
OH,G3900830,Mansfield Lahm Rgnl AP,724200,40.817,-82.517,44903
OH,G3900850,Burke Lakefront,725245,41.52,-81.68,44114
WV,G3900870,Huntington Tri State Arpt,724250,38.38,-82.55,25530
OH,G3900890,Columbus Port Columbus Intl A,724280,39.98,-82.88,43213
OH,G3900910,Dayton Wright Patterson Afb,745700,39.83,-84.05,45433
OH,G3900930,Cleveland Hopkins Intl Ap,725240,41.4,-81.85,44135
OH,G3900950,Toledo Express Airport,725360,41.58,-83.8,43542
OH,G3900970,Ohio State Universi,724288,40.07,-83.07,43235
OH,G3900990,Youngstown Regional Airport,725250,41.25,-80.67,
OH,G3901010,Ohio State Universi,724288,40.07,-83.07,43235
OH,G3901030,Cleveland Hopkins Intl Ap,725240,41.4,-81.85,44135
WV,G3901050,Parkersburg Wood County Ap,724273,39.35,-81.43,26184
OH,G3901070,Dayton International Airport,724290,39.9,-84.22,45377
OH,G3901090,Dayton International Airport,724290,39.9,-84.22,45377
WV,G3901110,Parkersburg Wood County Ap,724273,39.35,-81.43,26184
OH,G3901130,Dayton International Airport,724290,39.9,-84.22,45377
OH,G3901150,Zanesville Municipal Ap,724286,39.95,-81.9,43701
OH,G3901170,Mansfield Lahm Rgnl AP,724200,40.817,-82.517,44903
OH,G3901190,Zanesville Municipal Ap,724286,39.95,-81.9,43701
OH,G3901210,Zanesville Municipal Ap,724286,39.95,-81.9,43701
OH,G3901230,Toledo Express Airport,725360,41.58,-83.8,43542
IN,G3901250,Fort Wayne Intl Ap,725330,41,-85.2,46809
OH,G3901270,Zanesville Municipal Ap,724286,39.95,-81.9,43701
OH,G3901290,Columbus Port Columbus Intl A,724280,39.98,-82.88,43213
OH,G3901310,Columbus Port Columbus Intl A,724280,39.98,-82.88,43213
OH,G3901330,Akron Akron Canton Reg Ap,725210,40.92,-81.43,44720
OH,G3901350,Dayton International Airport,724290,39.9,-84.22,45377
OH,G3901370,Findlay Airport,725366,41.02,-83.67,45840
OH,G3901390,Mansfield Lahm Rgnl AP,724200,40.817,-82.517,44903
OH,G3901410,Columbus Port Columbus Intl A,724280,39.98,-82.88,43213
OH,G3901430,Findlay Airport,725366,41.02,-83.67,45840
WV,G3901450,Huntington Tri State Arpt,724250,38.38,-82.55,25530
OH,G3901470,Findlay Airport,725366,41.02,-83.67,45840
OH,G3901490,Dayton International Airport,724290,39.9,-84.22,45377
OH,G3901510,Akron Akron Canton Reg Ap,725210,40.92,-81.43,44720
OH,G3901530,Akron Akron Canton Reg Ap,725210,40.92,-81.43,44720
OH,G3901550,Youngstown Regional Airport,725250,41.25,-80.67,
OH,G3901570,Akron Akron Canton Reg Ap,725210,40.92,-81.43,44720
OH,G3901590,Ohio State Universi,724288,40.07,-83.07,43235
IN,G3901610,Fort Wayne Intl Ap,725330,41,-85.2,46809
OH,G3901630,Columbus Port Columbus Intl A,724280,39.98,-82.88,43213
OH,G3901650,Dayton Wright Patterson Afb,745700,39.83,-84.05,45433
WV,G3901670,Parkersburg Wood County Ap,724273,39.35,-81.43,26184
OH,G3901690,Akron Akron Canton Reg Ap,725210,40.92,-81.43,44720
MI,G3901710,Jackson Reynolds Field,725395,42.27,-84.47,49202
OH,G3901730,Toledo Express Airport,725360,41.58,-83.8,43542
OH,G3901750,Findlay Airport,725366,41.02,-83.67,45840
AR,G4000010,Fort Smith Regional Ap,723440,35.33,-94.37,72903
OK,G4000030,Vance Afb,723535,36.33,-97.92,73705
OK,G4000050,Mcalester Municipal Ap,723566,34.9,-95.78,74501
KS,G4000070,Liberal Muni,724516,37.03,-100.97,
OK,G4000090,Clinton Sherman,723526,35.33,-99.2,73624
OK,G4000110,Vance Afb,723535,36.33,-97.92,73705
TX,G4000130,Greenville Majors,722588,33.07,-96.07,75402
OK,G4000150,Fort Sill Post Field Af,723550,34.65,-98.4,73507
OK,G4000170,Oklahoma City Wiley,723544,35.53,-97.65,73123
TX,G4000190,Fort Worth Alliance,722594,32.98,-97.32,76177
AR,G4000210,Fort Smith Regional Ap,723440,35.33,-94.37,72903
TX,G4000230,Cox Fld,722587,33.63,-95.45,75416
KS,G4000250,Liberal Muni,724516,37.03,-100.97,
OK,G4000270,Oklahoma City Tinker Afb,723540,35.42,-97.38,73110
OK,G4000290,Mcalester Municipal Ap,723566,34.9,-95.78,74501
OK,G4000310,Fort Sill Post Field Af,723550,34.65,-98.4,73507
OK,G4000330,Lawton Municipal,723575,34.57,-98.42,
OK,G4000350,Tulsa International Airport,723560,36.2,-95.88,
OK,G4000370,Tulsa International Airport,723560,36.2,-95.88,
OK,G4000390,Clinton Sherman,723526,35.33,-99.2,73624
OK,G4000410,Tulsa International Airport,723560,36.2,-95.88,
OK,G4000430,Clinton Sherman,723526,35.33,-99.2,73624
OK,G4000450,Gage Airport,723527,36.3,-99.77,73843
OK,G4000470,Vance Afb,723535,36.33,-97.92,73705
OK,G4000490,Oklahoma City Tinker Afb,723540,35.42,-97.38,73110
OK,G4000510,Oklahoma City Will Rogers Wor,723530,35.38,-97.6,73159
OK,G4000530,Ponca City Municipal Ap  Sgp,723546,36.61,-97.49,74640
OK,G4000550,Altus Afb,723520,34.65,-99.27,
TX,G4000570,Childress Municipal Ap,723604,34.43,-100.28,79201
OK,G4000590,Gage-Shattuck AP,746410,36.3,-99.767,73843
OK,G4000610,Mcalester Municipal Ap,723566,34.9,-95.78,74501
OK,G4000630,Mcalester Municipal Ap,723566,34.9,-95.78,74501
OK,G4000650,Altus Afb,723520,34.65,-99.27,
TX,G4000670,Wichita Falls Municipal Arpt,723510,33.98,-98.5,76311
OK,G4000690,Mcalester Municipal Ap,723566,34.9,-95.78,74501
OK,G4000710,Ponca City Rgnl AP,724530,36.729,-97.1,74601
OK,G4000730,Vance Afb,723535,36.33,-97.92,73705
OK,G4000750,Hobart Municipal Ap,723525,35,-99.05,
OK,G4000770,Mcalester Municipal Ap,723566,34.9,-95.78,74501
AR,G4000790,Fort Smith Regional Ap,723440,35.33,-94.37,72903
OK,G4000810,Stillwater Rgnl,723545,36.15,-97.08,74075
OK,G4000830,Oklahoma City Wiley,723544,35.53,-97.65,73123
TX,G4000850,Fort Worth Alliance,722594,32.98,-97.32,76177
OK,G4000870,Oklahoma City Will Rogers Wor,723530,35.38,-97.6,73159
TX,G4000890,Cox Fld,722587,33.63,-95.45,75416
OK,G4000910,Mcalester Municipal Ap,723566,34.9,-95.78,74501
OK,G4000930,Vance Afb,723535,36.33,-97.92,73705
TX,G4000950,Dallas Addison Arpt,722598,32.97,-96.83,75001
OK,G4000970,Tulsa International Airport,723560,36.2,-95.88,
OK,G4000990,Oklahoma City Tinker Afb,723540,35.42,-97.38,73110
OK,G4001010,Tulsa International Airport,723560,36.2,-95.88,
OK,G4001030,Stillwater Rgnl,723545,36.15,-97.08,74075
OK,G4001050,Bartlesville Philli,723565,36.77,-96.02,74003
OK,G4001070,Mcalester Municipal Ap,723566,34.9,-95.78,74501
OK,G4001090,Oklahoma City Wiley,723544,35.53,-97.65,73123
OK,G4001110,Tulsa International Airport,723560,36.2,-95.88,
OK,G4001130,Bartlesville Philli,723565,36.77,-96.02,74003
OK,G4001150,Bartlesville Philli,723565,36.77,-96.02,74003
OK,G4001170,Stillwater Rgnl,723545,36.15,-97.08,74075
OK,G4001190,Stillwater Rgnl,723545,36.15,-97.08,74075
OK,G4001210,Mcalester Municipal Ap,723566,34.9,-95.78,74501
OK,G4001230,Mcalester Municipal Ap,723566,34.9,-95.78,74501
OK,G4001250,Oklahoma City Tinker Afb,723540,35.42,-97.38,73110
OK,G4001270,Mcalester Municipal Ap,723566,34.9,-95.78,74501
OK,G4001290,Clinton Sherman,723526,35.33,-99.2,73624
OK,G4001310,Tulsa International Airport,723560,36.2,-95.88,
OK,G4001330,Oklahoma City Tinker Afb,723540,35.42,-97.38,73110
AR,G4001350,Fort Smith Regional Ap,723440,35.33,-94.37,72903
OK,G4001370,Fort Sill Post Field Af,723550,34.65,-98.4,73507
TX,G4001390,Dalhart Municipal Ap,722636,36.02,-102.55,79022
OK,G4001410,Altus Afb,723520,34.65,-99.27,
OK,G4001430,Tulsa International Airport,723560,36.2,-95.88,
OK,G4001450,Tulsa International Airport,723560,36.2,-95.88,
OK,G4001470,Bartlesville Philli,723565,36.77,-96.02,74003
OK,G4001490,Clinton Sherman,723526,35.33,-99.2,73624
OK,G4001510,Vance Afb,723535,36.33,-97.92,73705
OK,G4001530,Gage-Shattuck AP,746410,36.3,-99.767,73843
OR,G4100010,Baker Municipal Ap,726886,44.83,-117.82,97814
OR,G4100030,Corvallis Muni,726945,44.48,-123.28,
OR,G4100050,Aurora State,726959,45.25,-122.77,97002
OR,G4100070,Astoria Regional Airport,727910,46.15,-123.88,97146
WA,G4100090,Kelso Wb Ap,727924,46.13,-122.9,98626
OR,G4100110,North Bend Muni Airport,726917,43.42,-124.25,97459
OR,G4100130,Redmond Muni AP-Roberts Field,726920,44.25,-121.167,97756
CA,G4100150,Crescent City Faa Ai,725946,41.78,-124.23,
OR,G4100170,Redmond Roberts Field,726835,44.25,-121.17,
OR,G4100190,Roseburg Regional Ap,726904,43.23,-123.35,97470
WA,G4100210,The Dalles Municipal Arpt,726988,45.62,-121.15,98617
OR,G4100230,Burns Municipal Arpt  Uo,726830,43.52,-119.02,
OR,G4100250,Burns Municipal Arpt  Uo,726830,43.52,-119.02,
WA,G4100270,The Dalles Municipal Arpt,726988,45.62,-121.15,98617
OR,G4100290,Medford Rogue Valley Intl Ap,725970,42.19,-122.7,97520
OR,G4100310,Redmond Roberts Field,726835,44.25,-121.17,
OR,G4100330,Sexton Summit,725975,42.6,-123.37,
OR,G4100350,Klamath Falls Intl Ap  Uo,725895,42.22,-121.74,97603
OR,G4100370,Lakeview  Awos,725976,42.17,-120.4,97630
OR,G4100390,Eugene Mahlon Sweet Arpt  Uo,726930,44.05,-123.07,97403
OR,G4100410,Corvallis Muni,726945,44.48,-123.28,
OR,G4100430,Corvallis Muni,726945,44.48,-123.28,
ID,G4100450,Caldwell  Awos,726813,43.63,-116.63,83651
OR,G4100470,Salem Mcnary Field,726940,44.9,-123,97302
WA,G4100490,Pasco,727845,46.27,-119.12,99301
OR,G4100510,Portland International Ap,726980,45.6,-122.62,97211
OR,G4100530,Salem Mcnary Field,726940,44.9,-123,97302
WA,G4100550,The Dalles Municipal Arpt,726988,45.62,-121.15,98617
OR,G4100570,Astoria Regional Airport,727910,46.15,-123.88,97146
OR,G4100590,Pendleton E Or Regional Ap,726880,45.7,-118.83,
OR,G4100610,La Grande Muni Ap,726884,45.28,-118,
OR,G4100630,La Grande Muni Ap,726884,45.28,-118,
WA,G4100650,The Dalles Municipal Arpt,726988,45.62,-121.15,98617
OR,G4100670,Portland Hillsboro,726986,45.53,-122.95,97124
OR,G4100690,Redmond Muni AP-Roberts Field,726920,44.25,-121.167,97756
OR,G4100710,Portland Hillsboro,726986,45.53,-122.95,97124
PA,G4200010,Harrisburg Capital City Arpt,725118,40.22,-76.85,17070
PA,G4200030,Pittsburgh Allegheny Co Ap,725205,40.35,-79.92,15122
PA,G4200050,Butler Co   Awos,725124,40.78,-79.95,16002
PA,G4200070,Pittsburgh International Ap,725200,40.5,-80.23,15231
PA,G4200090,Altoona Blair Co Arpt,725126,40.3,-78.32,16662
PA,G4200110,Reading Spaatz Field,725103,40.37,-75.97,19601
PA,G4200130,Altoona Blair Co Arpt,725126,40.3,-78.32,16662
NY,G4200150,Elmira Corning Regional Ap,725156,42.17,-76.9,14845
PA,G4200170,Willow Grove Nas,724086,40.2,-75.15,18976
PA,G4200190,Butler Co   Awos,725124,40.78,-79.95,16002
PA,G4200210,Johnstown Cambria County Ap,725127,40.32,-78.83,15904
PA,G4200230,Bradford Regional Ap,725266,41.8,-78.63,
PA,G4200250,Allentown Lehigh Valley Intl,725170,40.65,-75.45,18032
PA,G4200270,State College  Penn State   Su,725128,40.72,-77.93,16865
DE,G4200290,Wilmington New Castle Cnty Ap,724089,39.67,-75.6,19720
PA,G4200310,Franklin,725267,41.38,-79.87,
PA,G4200330,Bradford Regional Ap,725266,41.8,-78.63,
PA,G4200350,Williamsport Regional Ap,725140,41.25,-76.92,17754
PA,G4200370,Williamsport Regional Ap,725140,41.25,-76.92,17754
PA,G4200390,Franklin,725267,41.38,-79.87,
PA,G4200410,Harrisburg Capital City Arpt,725118,40.22,-76.85,17070
PA,G4200430,Harrisburg Capital City Arpt,725118,40.22,-76.85,17070
PA,G4200450,Philadelphia International Ap,724080,39.87,-75.23,19113
PA,G4200470,Bradford Regional Ap,725266,41.8,-78.63,
PA,G4200490,Erie International Ap,725260,42.08,-80.18,16505
WV,G4200510,Morgantown Hart Field,724176,39.65,-79.92,26508
PA,G4200530,Dubois Faa Ap,725125,41.18,-78.9,15851
MD,G4200550,Hagerstown Rgnl Ric,724066,39.7,-77.73,21767
MD,G4200570,Hagerstown Rgnl Ric,724066,39.7,-77.73,21767
WV,G4200590,Morgantown Hart Field,724176,39.65,-79.92,26508
PA,G4200610,State College  Penn State   Su,725128,40.72,-77.93,16865
PA,G4200630,Johnstown Cambria County Ap,725127,40.32,-78.83,15904
PA,G4200650,Dubois Faa Ap,725125,41.18,-78.9,15851
PA,G4200670,State College  Penn State   Su,725128,40.72,-77.93,16865
PA,G4200690,Wilkes Barre Scranton Intl Ap,725130,41.33,-75.73,18641
PA,G4200710,Lancaster,725116,40.12,-76.3,17543
OH,G4200730,Youngstown Regional Airport,725250,41.25,-80.67,
PA,G4200750,Lancaster,725116,40.12,-76.3,17543
PA,G4200770,Allentown Lehigh Valley Intl,725170,40.65,-75.45,18032
PA,G4200790,Wilkes Barre Scranton Intl Ap,725130,41.33,-75.73,18641
PA,G4200810,Williamsport Regional Ap,725140,41.25,-76.92,17754
PA,G4200830,Bradford Regional Ap,725266,41.8,-78.63,
OH,G4200850,Youngstown Regional Airport,725250,41.25,-80.67,
PA,G4200870,State College  Penn State   Su,725128,40.72,-77.93,16865
PA,G4200890,Allentown Lehigh Valley Intl,725170,40.65,-75.45,18032
PA,G4200910,Willow Grove Nas,724086,40.2,-75.15,18976
PA,G4200930,Williamsport Regional Ap,725140,41.25,-76.92,17754
PA,G4200950,Allentown Lehigh Valley Intl,725170,40.65,-75.45,18032
PA,G4200970,Williamsport Regional Ap,725140,41.25,-76.92,17754
PA,G4200990,Harrisburg Capital City Arpt,725118,40.22,-76.85,17070
PA,G4201010,Philadelphia Ne Philadelphia,724085,40.08,-75.02,19114
PA,G4201030,Wilkes Barre Scranton Intl Ap,725130,41.33,-75.73,18641
PA,G4201050,Bradford Regional Ap,725266,41.8,-78.63,
PA,G4201070,Reading Spaatz Field,725103,40.37,-75.97,19601
PA,G4201090,Williamsport Regional Ap,725140,41.25,-76.92,17754
PA,G4201110,Johnstown Cambria County Ap,725127,40.32,-78.83,15904
PA,G4201130,Williamsport Regional Ap,725140,41.25,-76.92,17754
NY,G4201150,Binghamton Edwin A Link Field,725150,42.2,-75.98,13905
NY,G4201170,Elmira Corning Regional Ap,725156,42.17,-76.9,14845
PA,G4201190,Williamsport Regional Ap,725140,41.25,-76.92,17754
PA,G4201210,Franklin,725267,41.38,-79.87,
NY,G4201230,Jamestown  Awos,725235,42.15,-79.27,14701
PA,G4201250,Washington  Awos,725117,40.13,-80.28,15301
PA,G4201270,Wilkes Barre Scranton Intl Ap,725130,41.33,-75.73,18641
PA,G4201290,Pittsburgh Allegheny Co Ap,725205,40.35,-79.92,15122
PA,G4201310,Wilkes Barre Scranton Intl Ap,725130,41.33,-75.73,18641
PA,G4201330,Harrisburg Capital City Arpt,725118,40.22,-76.85,17070
RI,G4400010,Providence T F Green State Ar,725070,41.72,-71.43,2886
RI,G4400030,Providence T F Green State Ar,725070,41.72,-71.43,2886
RI,G4400050,Providence T F Green State Ar,725070,41.72,-71.43,2886
RI,G4400070,Pawtucket  Awos,725054,41.92,-71.5,2917
RI,G4400090,Block Island State Arpt,725058,41.17,-71.58,2807
SC,G4500010,Anderson Rgnl AP,723190,34.5,-82.717,29626
GA,G4500030,Augusta Bush Field,722180,33.37,-81.97,
SC,G4500050,Beaufort Mcas,722085,32.48,-80.72,29904
SC,G4500070,Anderson Rgnl AP,723190,34.5,-82.717,29626
SC,G4500090,Columbia Metro Arpt,723100,33.95,-81.12,29170
GA,G4500110,Augusta Bush Field,722180,33.37,-81.97,
SC,G4500130,Beaufort Mcas,722085,32.48,-80.72,29904
SC,G4500150,Charleston Intl Arpt,722080,32.9,-80.03,29406
SC,G4500170,Columbia Metro Arpt,723100,33.95,-81.12,29170
SC,G4500190,Charleston Intl Arpt,722080,32.9,-80.03,29406
NC,G4500210,Hickory Regional Ap,723145,35.73,-81.38,28601
NC,G4500230,Charlotte Douglas Intl Arpt,723140,35.22,-80.95,28208
SC,G4500250,Florence Regional Ap,723106,34.18,-79.73,29506
SC,G4500270,Sumter Shaw Afb,747900,33.97,-80.47,29152
SC,G4500290,Beaufort Mcas,722085,32.48,-80.72,29904
SC,G4500310,Florence Regional Ap,723106,34.18,-79.73,29506
SC,G4500330,Florence Regional Ap,723106,34.18,-79.73,29506
SC,G4500350,Charleston Intl Arpt,722080,32.9,-80.03,29406
GA,G4500370,Augusta Bush Field,722180,33.37,-81.97,
SC,G4500390,Columbia Metro Arpt,723100,33.95,-81.12,29170
SC,G4500410,Florence Regional Ap,723106,34.18,-79.73,29506
SC,G4500430,Myrtle Beach Afb,747910,33.68,-78.93,29577
SC,G4500450,Greenville Downtown Ap,723119,34.85,-82.35,29607
SC,G4500470,Anderson Rgnl AP,723190,34.5,-82.717,29626
SC,G4500490,Beaufort Mcas,722085,32.48,-80.72,29904
SC,G4500510,Myrtle Beach Afb,747910,33.68,-78.93,29577
SC,G4500530,Beaufort Mcas,722085,32.48,-80.72,29904
SC,G4500550,Sumter Shaw Afb,747900,33.97,-80.47,29152
NC,G4500570,Charlotte Douglas Intl Arpt,723140,35.22,-80.95,28208
SC,G4500590,Greer GreenvL Spartanbrg Ap,723120,34.9,-82.22,29651
SC,G4500610,Sumter Shaw Afb,747900,33.97,-80.47,29152
SC,G4500630,Columbia Metro Arpt,723100,33.95,-81.12,29170
GA,G4500650,Augusta Bush Field,722180,33.37,-81.97,
SC,G4500670,Florence Regional Ap,723106,34.18,-79.73,29506
SC,G4500690,Florence Regional Ap,723106,34.18,-79.73,29506
SC,G4500710,Columbia Metro Arpt,723100,33.95,-81.12,29170
SC,G4500730,Anderson County Ap,723125,34.5,-82.72,29626
SC,G4500750,Columbia Metro Arpt,723100,33.95,-81.12,29170
SC,G4500770,Anderson Rgnl AP,723190,34.5,-82.717,29626
SC,G4500790,Columbia Metro Arpt,723100,33.95,-81.12,29170
SC,G4500810,Columbia Metro Arpt,723100,33.95,-81.12,29170
SC,G4500830,Greer GreenvL Spartanbrg Ap,723120,34.9,-82.22,29651
SC,G4500850,Sumter Shaw Afb,747900,33.97,-80.47,29152
SC,G4500870,Greer GreenvL Spartanbrg Ap,723120,34.9,-82.22,29651
SC,G4500890,Florence Regional Ap,723106,34.18,-79.73,29506
NC,G4500910,Charlotte Douglas Intl Arpt,723140,35.22,-80.95,28208
SD,G4600030,Mitchell  Awos,726545,43.77,-98.03,
SD,G4600050,Huron Regional Arpt,726540,44.4,-98.22,57350
NE,G4600070,Valentine Miller Field,725670,42.87,-100.55,69201
SD,G4600090,Chan Gurney Muni,726525,42.92,-97.38,
SD,G4600110,Brookings  Awos,726515,44.3,-96.82,57006
SD,G4600130,Aberdeen Regional Arpt,726590,45.45,-98.42,
SD,G4600150,Mitchell  Awos,726545,43.77,-98.03,
SD,G4600170,Pierre Municipal Ap,726686,44.38,-100.28,57501
SD,G4600190,Ellsworth Afb,726625,44.15,-103.1,57706
SD,G4600210,Mobridge,726685,45.53,-100.43,57601
SD,G4600230,Mitchell  Awos,726545,43.77,-98.03,
SD,G4600250,Watertown Municipal Ap,726546,44.93,-97.15,57201
SD,G4600270,Chan Gurney Muni,726525,42.92,-97.38,
SD,G4600290,Watertown Municipal Ap,726546,44.93,-97.15,57201
SD,G4600310,Mobridge,726685,45.53,-100.43,57601
SD,G4600330,Rapid City Regional Arpt,726620,44.05,-103.05,
SD,G4600350,Mitchell  Awos,726545,43.77,-98.03,
SD,G4600370,Watertown Municipal Ap,726546,44.93,-97.15,57201
SD,G4600390,Brookings  Awos,726515,44.3,-96.82,57006
SD,G4600410,Mobridge,726685,45.53,-100.43,57601
SD,G4600430,Mitchell  Awos,726545,43.77,-98.03,
SD,G4600450,Aberdeen Regional Arpt,726590,45.45,-98.42,
SD,G4600470,Rapid City Regional Arpt,726620,44.05,-103.05,
SD,G4600490,Aberdeen Regional Arpt,726590,45.45,-98.42,
MN,G4600510,Wheaton Ndb  Awos,727533,45.7,-96.5,
NE,G4600530,O Neill Baker Field,725566,42.47,-98.68,
SD,G4600550,Pierre Municipal Ap,726686,44.38,-100.28,57501
SD,G4600570,Watertown Municipal Ap,726546,44.93,-97.15,57201
SD,G4600590,Huron Regional Arpt,726540,44.4,-98.22,57350
SD,G4600610,Mitchell  Awos,726545,43.77,-98.03,
ND,G4600630,Dickinson Municipal Ap,727645,46.8,-102.8,
SD,G4600650,Pierre Municipal Ap,726686,44.38,-100.28,57501
SD,G4600670,Mitchell  Awos,726545,43.77,-98.03,
SD,G4600690,Pierre Municipal Ap,726686,44.38,-100.28,57501
SD,G4600710,Rapid City Regional Arpt,726620,44.05,-103.05,
SD,G4600730,Huron Regional Arpt,726540,44.4,-98.22,57350
SD,G4600750,Pierre Municipal Ap,726686,44.38,-100.28,57501
SD,G4600770,Brookings  Awos,726515,44.3,-96.82,57006
SD,G4600790,Brookings  Awos,726515,44.3,-96.82,57006
SD,G4600810,Ellsworth Afb,726625,44.15,-103.1,57706
SD,G4600830,Sioux Falls Foss Field,726510,43.58,-96.75,
SD,G4600850,Pierre Municipal Ap,726686,44.38,-100.28,57501
SD,G4600870,Sioux Falls Foss Field,726510,43.58,-96.75,
SD,G4600890,Aberdeen Regional Arpt,726590,45.45,-98.42,
SD,G4600910,Aberdeen Regional Arpt,726590,45.45,-98.42,
SD,G4600930,Ellsworth Afb,726625,44.15,-103.1,57706
NE,G4600950,Valentine Miller Field,725670,42.87,-100.55,69201
SD,G4600970,Mitchell  Awos,726545,43.77,-98.03,
SD,G4600990,Sioux Falls Foss Field,726510,43.58,-96.75,
SD,G4601010,Brookings  Awos,726515,44.3,-96.82,57006
SD,G4601020,Rapid City Regional Arpt,726620,44.05,-103.05,
SD,G4601030,Ellsworth Afb,726625,44.15,-103.1,57706
ND,G4601050,Dickinson Municipal Ap,727645,46.8,-102.8,
SD,G4601070,Mobridge,726685,45.53,-100.43,57601
MN,G4601090,Wheaton Ndb  Awos,727533,45.7,-96.5,
SD,G4601110,Mitchell  Awos,726545,43.77,-98.03,
SD,G4601150,Aberdeen Regional Arpt,726590,45.45,-98.42,
SD,G4601170,Pierre Municipal Ap,726686,44.38,-100.28,57501
SD,G4601190,Pierre Municipal Ap,726686,44.38,-100.28,57501
NE,G4601210,Valentine Miller Field,725670,42.87,-100.55,69201
NE,G4601230,Ainsworth Municipal,725556,42.58,-100,
SD,G4601250,Sioux Falls Foss Field,726510,43.58,-96.75,
IA,G4601270,Le Mars,725484,42.78,-96.2,51057
SD,G4601290,Mobridge,726685,45.53,-100.43,57601
SD,G4601350,Chan Gurney Muni,726525,42.92,-97.38,
SD,G4601370,Mobridge,726685,45.53,-100.43,57601
TN,G4700010,Knoxville Mcghee Tyson Ap,723260,35.82,-83.98,37701
TN,G4700030,Nashville International Ap,723270,36.12,-86.68,37214
KY,G4700050,Fort Campbell Aaf,746710,36.67,-87.48,42223
TN,G4700070,Crossville Meml AP-Whitson Field,723250,35.95,-85.083,38555
TN,G4700090,Knoxville Mcghee Tyson Ap,723260,35.82,-83.98,37701
TN,G4700110,Chattanooga Lovell Field Ap,723240,35.03,-85.2,37421
TN,G4700130,Knoxville Mcghee Tyson Ap,723260,35.82,-83.98,37701
TN,G4700150,Nashville International Ap,723270,36.12,-86.68,37214
KY,G4700170,Paducah Barkley Regional Ap,724350,37.05,-88.77,42086
TN,G4700190,Bristol-Tri-Cities Rgnl AP,723350,36.467,-82.4,
TN,G4700210,Nashville International Ap,723270,36.12,-86.68,37214
TN,G4700230,Jackson Mckellar Sipes Regl A,723346,35.6,-88.92,38391
KY,G4700250,London Corbin Ap,724243,37.08,-84.08,40744
TN,G4700270,Crossville Meml AP-Whitson Field,723250,35.95,-85.083,38555
TN,G4700290,Knoxville Mcghee Tyson Ap,723260,35.82,-83.98,37701
TN,G4700310,Nashville International Ap,723270,36.12,-86.68,37214
TN,G4700330,Jackson Mckellar Sipes Regl A,723346,35.6,-88.92,38391
TN,G4700350,Crossville Memorial Ap,723265,35.95,-85.08,38555
TN,G4700370,Nashville International Ap,723270,36.12,-86.68,37214
TN,G4700390,Jackson Mckellar Sipes Regl A,723346,35.6,-88.92,38391
TN,G4700410,Crossville Meml AP-Whitson Field,723250,35.95,-85.083,38555
KY,G4700430,Fort Campbell Aaf,746710,36.67,-87.48,42223
TN,G4700450,Dyersburg Municipal Ap,723347,36.02,-89.4,38024
TN,G4700470,Memphis International Ap,723340,35.07,-89.98,38131
TN,G4700490,Crossville Memorial Ap,723265,35.95,-85.08,38555
TN,G4700510,Chattanooga Lovell Field Ap,723240,35.03,-85.2,37421
TN,G4700530,Jackson Mckellar Sipes Regl A,723346,35.6,-88.92,38391
TN,G4700550,Nashville International Ap,723270,36.12,-86.68,37214
TN,G4700570,Knoxville Mcghee Tyson Ap,723260,35.82,-83.98,37701
TN,G4700590,Bristol-Tri-Cities Rgnl AP,723350,36.467,-82.4,
TN,G4700610,Chattanooga Lovell Field Ap,723240,35.03,-85.2,37421
TN,G4700630,Knoxville Mcghee Tyson Ap,723260,35.82,-83.98,37701
TN,G4700650,Chattanooga Lovell Field Ap,723240,35.03,-85.2,37421
TN,G4700670,Bristol Tri City Airport,723183,36.47,-82.4,38137
TN,G4700690,Jackson Mckellar Sipes Regl A,723346,35.6,-88.92,38391
AL,G4700710,Muscle Shoals Regional Ap,723235,34.75,-87.6,35661
TN,G4700730,Bristol-Tri-Cities Rgnl AP,723350,36.467,-82.4,
TN,G4700750,Jackson Mckellar Sipes Regl A,723346,35.6,-88.92,38391
TN,G4700770,Jackson Mckellar Sipes Regl A,723346,35.6,-88.92,38391
KY,G4700790,Paducah Barkley Regional Ap,724350,37.05,-88.77,42086
TN,G4700810,Nashville International Ap,723270,36.12,-86.68,37214
KY,G4700830,Fort Campbell Aaf,746710,36.67,-87.48,42223
KY,G4700850,Fort Campbell Aaf,746710,36.67,-87.48,42223
TN,G4700870,Crossville Meml AP-Whitson Field,723250,35.95,-85.083,38555
TN,G4700890,Knoxville Mcghee Tyson Ap,723260,35.82,-83.98,37701
VA,G4700910,Abington,724058,36.68,-82.03,24211
TN,G4700930,Knoxville Mcghee Tyson Ap,723260,35.82,-83.98,37701
TN,G4700950,Dyersburg Municipal Ap,723347,36.02,-89.4,38024
TN,G4700970,Dyersburg Municipal Ap,723347,36.02,-89.4,38024
TN,G4700990,Nashville International Ap,723270,36.12,-86.68,37214
TN,G4701010,Nashville International Ap,723270,36.12,-86.68,37214
TN,G4701030,Nashville International Ap,723270,36.12,-86.68,37214
TN,G4701050,Knoxville Mcghee Tyson Ap,723260,35.82,-83.98,37701
TN,G4701070,Crossville Memorial Ap,723265,35.95,-85.08,38555
TN,G4701090,Jackson Mckellar Sipes Regl A,723346,35.6,-88.92,38391
KY,G4701110,Bowling Green Warren Co Ap,746716,36.98,-86.43,42103
TN,G4701130,Jackson Mckellar Sipes Regl A,723346,35.6,-88.92,38391
TN,G4701150,Chattanooga Lovell Field Ap,723240,35.03,-85.2,37421
TN,G4701170,Nashville International Ap,723270,36.12,-86.68,37214
TN,G4701190,Nashville International Ap,723270,36.12,-86.68,37214
TN,G4701210,Crossville Memorial Ap,723265,35.95,-85.08,38555
TN,G4701230,Knoxville Mcghee Tyson Ap,723260,35.82,-83.98,37701
KY,G4701250,Fort Campbell Aaf,746710,36.67,-87.48,42223
TN,G4701270,Nashville International Ap,723270,36.12,-86.68,37214
TN,G4701290,Crossville Memorial Ap,723265,35.95,-85.08,38555
KY,G4701310,Paducah Barkley Regional Ap,724350,37.05,-88.77,42086
TN,G4701330,Crossville Meml AP-Whitson Field,723250,35.95,-85.083,38555
KY,G4701350,Fort Campbell Aaf,746710,36.67,-87.48,42223
TN,G4701370,Crossville Meml AP-Whitson Field,723250,35.95,-85.083,38555
TN,G4701390,Chattanooga Lovell Field Ap,723240,35.03,-85.2,37421
TN,G4701410,Crossville Meml AP-Whitson Field,723250,35.95,-85.083,38555
TN,G4701430,Crossville Memorial Ap,723265,35.95,-85.08,38555
TN,G4701450,Knoxville Mcghee Tyson Ap,723260,35.82,-83.98,37701
TN,G4701470,Nashville International Ap,723270,36.12,-86.68,37214
TN,G4701490,Nashville International Ap,723270,36.12,-86.68,37214
KY,G4701510,London Corbin Ap,724243,37.08,-84.08,40744
TN,G4701530,Chattanooga Lovell Field Ap,723240,35.03,-85.2,37421
TN,G4701550,Knoxville Mcghee Tyson Ap,723260,35.82,-83.98,37701
TN,G4701570,Memphis International Ap,723340,35.07,-89.98,38131
TN,G4701590,Nashville International Ap,723270,36.12,-86.68,37214
KY,G4701610,Fort Campbell Aaf,746710,36.67,-87.48,42223
TN,G4701630,Bristol Tri City Airport,723183,36.47,-82.4,38137
TN,G4701650,Nashville International Ap,723270,36.12,-86.68,37214
TN,G4701670,Memphis International Ap,723340,35.07,-89.98,38131
TN,G4701690,Nashville International Ap,723270,36.12,-86.68,37214
TN,G4701710,Bristol-Tri-Cities Rgnl AP,723350,36.467,-82.4,
TN,G4701730,Knoxville Mcghee Tyson Ap,723260,35.82,-83.98,37701
TN,G4701750,Crossville Meml AP-Whitson Field,723250,35.95,-85.083,38555
TN,G4701770,Crossville Meml AP-Whitson Field,723250,35.95,-85.083,38555
TN,G4701790,Bristol-Tri-Cities Rgnl AP,723350,36.467,-82.4,
AL,G4701810,Muscle Shoals Regional Ap,723235,34.75,-87.6,35661
KY,G4701830,Paducah Barkley Regional Ap,724350,37.05,-88.77,42086
TN,G4701850,Crossville Meml AP-Whitson Field,723250,35.95,-85.083,38555
TN,G4701870,Nashville International Ap,723270,36.12,-86.68,37214
TN,G4701890,Nashville International Ap,723270,36.12,-86.68,37214
TX,G4800010,Lufkin Angelina Co,722446,31.23,-94.75,75941
TX,G4800030,Midland International Ap,722650,31.95,-102.18,79712
TX,G4800050,Lufkin Angelina Co,722446,31.23,-94.75,75941
TX,G4800070,Rockport Aransas Co,722524,28.08,-97.05,78382
TX,G4800090,Wichita Falls Municipal Arpt,723510,33.98,-98.5,76311
TX,G4800110,Amarillo International Ap  Can,723630,34.99,-101.9,79015
TX,G4800130,San Antonio Stinson,722523,29.33,-98.47,78235
TX,G4800150,Houston D W  Hooks,722429,30.07,-95.55,77379
NM,G4800170,Clovis Muni   Awos,722689,34.43,-103.08,88135
TX,G4800190,Hondo Municipal Ap,722533,29.37,-99.17,78861
TX,G4800210,Austin Mueller Municipal Ap  U,722540,30.29,-97.74,78705
TX,G4800230,Abilene Regional Ap  Ut,722660,32.47,-99.71,79699
TX,G4800250,Corpus Christi Intl Arpt  Ut,722510,27.88,-97.63,78426
TX,G4800270,Killeen Muni  Awos,722575,31.08,-97.68,76548
TX,G4800290,San Antonio Intl Ap,722530,29.53,-98.47,
TX,G4800310,Camp Mabry,722544,30.32,-97.77,78731
TX,G4800330,Lubbock International Ap,722670,33.67,-101.82,79350
TX,G4800350,Waco Regional Ap,722560,31.62,-97.23,76702
AR,G4800370,Texarkana Webb Field,723418,33.45,-94,71854
TX,G4800390,Houston-Hobby AP,722440,29.65,-95.283,77061
TX,G4800410,College Station-Easterwood AP,747460,30.583,-96.367,77862
TX,G4800430,Marfa Ap,722640,30.37,-104.02,79843
TX,G4800450,Amarillo International Ap  Can,723630,34.99,-101.9,79015
TX,G4800470,Kingsville,722516,27.5,-97.82,78316
TX,G4800490,Mineral Wells Municipal Ap,722597,32.78,-98.07,76067
TX,G4800510,College Station Easterwood Fl,722445,30.58,-96.37,77862
TX,G4800530,Georgetown  Awos,722547,30.68,-97.68,78628
TX,G4800550,Austin Mueller Municipal Ap  U,722540,30.29,-97.74,78705
TX,G4800570,Palacios Municipal Ap,722555,28.72,-96.25,77465
TX,G4800590,Abilene Regional Ap  Ut,722660,32.47,-99.71,79699
TX,G4800610,Brownsville S Padre Isl Intl,722500,25.9,-97.43,
TX,G4800630,Longview Gregg County Ap  Over,722470,32.29,-94.98,75684
TX,G4800650,Amarillo International Ap  Can,723630,34.99,-101.9,79015
AR,G4800670,Texarkana Webb Field,723418,33.45,-94,71854
TX,G4800690,Amarillo International Ap  Can,723630,34.99,-101.9,79015
TX,G4800710,Houston Ellington Afb  Clear L,722436,29.57,-95.09,77508
TX,G4800730,Lufkin Angelina Co,722446,31.23,-94.75,75941
TX,G4800750,Childress Municipal Ap,723604,34.43,-100.28,79201
TX,G4800770,Wichita Falls Municipal Arpt,723510,33.98,-98.5,76311
TX,G4800790,Lubbock International Ap,722670,33.67,-101.82,79350
TX,G4800810,San Angelo Mathis Field,722630,31.35,-100.5,76904
TX,G4800830,Abilene Regional Ap  Ut,722660,32.47,-99.71,79699
TX,G4800850,Dallas Addison Arpt,722598,32.97,-96.83,75001
TX,G4800870,Childress Muni AP,723660,34.433,-100.283,79201
TX,G4800890,Victoria Regional Ap,722550,28.87,-96.93,
TX,G4800910,Randolph Afb,722536,29.53,-98.28,78150
TX,G4800930,Mineral Wells Municipal Ap,722597,32.78,-98.07,76067
TX,G4800950,San Angelo Mathis Field,722630,31.35,-100.5,76904
TX,G4800970,Fort Worth Alliance,722594,32.98,-97.32,76177
TX,G4800990,Fort Hood,722570,31.13,-97.72,76541
TX,G4801010,Childress Municipal Ap,723604,34.43,-100.28,79201
TX,G4801030,Midland International Ap,722650,31.95,-102.18,79712
TX,G4801050,San Angelo Mathis Field,722630,31.35,-100.5,76904
TX,G4801070,Lubbock International Ap,722670,33.67,-101.82,79350
TX,G4801090,Marfa Ap,722640,30.37,-104.02,79843
TX,G4801110,Dalhart Municipal Ap,722636,36.02,-102.55,79022
TX,G4801130,Dallas Love Field,722583,32.85,-96.85,75235
TX,G4801150,Midland International Ap,722650,31.95,-102.18,79712
TX,G4801170,Amarillo International Ap  Can,723630,34.99,-101.9,79015
TX,G4801190,Cox Fld,722587,33.63,-95.45,75416
TX,G4801210,Dallas Fort Worth Intl Ap,722590,32.9,-97.02,75261
TX,G4801230,Victoria Regional Ap,722550,28.87,-96.93,
TX,G4801250,Lubbock International Ap,722670,33.67,-101.82,79350
TX,G4801270,Cotulla Faa Ap,722526,28.45,-99.22,78014
TX,G4801290,Amarillo International Ap  Can,723630,34.99,-101.9,79015
TX,G4801310,Alice Intl Ap,722517,27.73,-98.03,78332
TX,G4801330,Mineral Wells Municipal Ap,722597,32.78,-98.07,76067
TX,G4801350,Midland International Ap,722650,31.95,-102.18,79712
TX,G4801370,Del Rio Laughlin Afb,722615,29.37,-100.78,78843
TX,G4801390,Dallas Redbird Arpt,722599,32.68,-96.87,75237
TX,G4801410,El Paso International Ap  Ut,722700,31.77,-106.5,79902
TX,G4801430,Mineral Wells Municipal Ap,722597,32.78,-98.07,76067
TX,G4801450,Mc Gregor  Awos,722563,31.48,-97.32,
TX,G4801470,Greenville Majors,722588,33.07,-96.07,75402
TX,G4801490,College Station Easterwood Fl,722445,30.58,-96.37,77862
TX,G4801530,Amarillo International Ap  Can,723630,34.99,-101.9,79015
TX,G4801550,Childress Municipal Ap,723604,34.43,-100.28,79201
TX,G4801570,Houston-Hobby AP,722440,29.65,-95.283,77061
TX,G4801590,Cox Fld,722587,33.63,-95.45,75416
TX,G4801610,Waco Regional Ap,722560,31.62,-97.23,76702
TX,G4801630,Cotulla Faa Ap,722526,28.45,-99.22,78014
TX,G4801650,Midland International Ap,722650,31.95,-102.18,79712
TX,G4801670,Houston Ellington Afb  Clear L,722436,29.57,-95.09,77508
TX,G4801690,Lubbock International Ap,722670,33.67,-101.82,79350
TX,G4801710,San Antonio Intl Ap,722530,29.53,-98.47,
TX,G4801730,Midland International Ap,722650,31.95,-102.18,79712
TX,G4801750,Victoria Regional Ap,722550,28.87,-96.93,
TX,G4801770,Randolph Afb,722536,29.53,-98.28,78150
TX,G4801790,Amarillo International Ap  Can,723630,34.99,-101.9,79015
TX,G4801810,Dallas Addison Arpt,722598,32.97,-96.83,75001
TX,G4801830,Longview Gregg County Ap  Over,722470,32.29,-94.98,75684
TX,G4801850,College Station-Easterwood AP,747460,30.583,-96.367,77862
TX,G4801870,Randolph Afb,722536,29.53,-98.28,78150
TX,G4801890,Amarillo International Ap  Can,723630,34.99,-101.9,79015
TX,G4801910,Childress Muni AP,723660,34.433,-100.283,79201
TX,G4801930,Mineral Wells Municipal Ap,722597,32.78,-98.07,76067
TX,G4801950,Dalhart Municipal Ap,722636,36.02,-102.55,79022
TX,G4801970,Childress Municipal Ap,723604,34.43,-100.28,79201
TX,G4801990,Port Arthur Jefferson County,722410,29.95,-94.02,77705
TX,G4802010,Houston Bush Intercontinental,722430,30,-95.37,77073
LA,G4802030,Shreveport Regional Arpt,722480,32.45,-93.82,71109
TX,G4802050,Dalhart Muni AP,747360,36.017,-102.55,79022
TX,G4802070,Abilene Regional Ap  Ut,722660,32.47,-99.71,79699
TX,G4802090,Austin Mueller Municipal Ap  U,722540,30.29,-97.74,78705
TX,G4802110,Childress Muni AP,723660,34.433,-100.283,79201
TX,G4802130,Tyler Pounds Fld,722448,32.35,-95.4,75704
TX,G4802150,Mcallen Miller Intl Ap  Edinbu,722506,26.31,-98.17,78541
TX,G4802170,Waco Regional Ap,722560,31.62,-97.23,76702
TX,G4802190,Lubbock International Ap,722670,33.67,-101.82,79350
TX,G4802210,Mineral Wells Municipal Ap,722597,32.78,-98.07,76067
TX,G4802230,Greenville Majors,722588,33.07,-96.07,75402
TX,G4802250,Lufkin Angelina Co,722446,31.23,-94.75,75941
TX,G4802270,Midland International Ap,722650,31.95,-102.18,79712
TX,G4802290,El Paso International Ap  Ut,722700,31.77,-106.5,79902
TX,G4802310,Greenville Majors,722588,33.07,-96.07,75402
TX,G4802330,Amarillo International Ap  Can,723630,34.99,-101.9,79015
TX,G4802350,San Angelo Mathis Field,722630,31.35,-100.5,76904
TX,G4802370,Mineral Wells Municipal Ap,722597,32.78,-98.07,76067
TX,G4802390,Victoria Regional Ap,722550,28.87,-96.93,
TX,G4802410,Port Arthur Jefferson County,722410,29.95,-94.02,77705
TX,G4802430,Marfa Ap,722640,30.37,-104.02,79843
TX,G4802450,Port Arthur Jefferson County,722410,29.95,-94.02,77705
TX,G4802470,Alice Intl Ap,722517,27.73,-98.03,78332
TX,G4802490,Alice Intl Ap,722517,27.73,-98.03,78332
TX,G4802510,Fort Worth Nas,722595,32.77,-97.45,76108
TX,G4802530,Abilene Regional Ap  Ut,722660,32.47,-99.71,79699
TX,G4802550,San Antonio Stinson,722523,29.33,-98.47,78235
TX,G4802570,Greenville Majors,722588,33.07,-96.07,75402
TX,G4802590,San Antonio Intl Ap,722530,29.53,-98.47,
TX,G4802610,Kingsville,722516,27.5,-97.82,78316
TX,G4802650,San Angelo Mathis Field,722630,31.35,-100.5,76904
TX,G4802670,San Angelo Mathis Field,722630,31.35,-100.5,76904
TX,G4802690,Childress Municipal Ap,723604,34.43,-100.28,79201
TX,G4802710,Del Rio Laughlin Afb,722615,29.37,-100.78,78843
TX,G4802730,Kingsville,722516,27.5,-97.82,78316
TX,G4802750,Abilene Regional Ap  Ut,722660,32.47,-99.71,79699
TX,G4802770,Cox Fld,722587,33.63,-95.45,75416
TX,G4802790,Lubbock International Ap,722670,33.67,-101.82,79350
TX,G4802810,Mineral Wells Municipal Ap,722597,32.78,-98.07,76067
TX,G4802830,Cotulla Faa Ap,722526,28.45,-99.22,78014
TX,G4802850,Victoria Regional Ap,722550,28.87,-96.93,
TX,G4802870,College Station Easterwood Fl,722445,30.58,-96.37,77862
TX,G4802890,College Station-Easterwood AP,747460,30.583,-96.367,77862
TX,G4802910,Houston Bush Intercontinental,722430,30,-95.37,77073
TX,G4802930,Waco Regional Ap,722560,31.62,-97.23,76702
OK,G4802950,Gage Airport,723527,36.3,-99.77,73843
TX,G4802970,Alice Intl Ap,722517,27.73,-98.03,78332
TX,G4802990,Robert Gray Aaf,722576,31.07,-97.83,
TX,G4803010,Wink Winkler County Ap,722656,31.78,-103.2,79789
TX,G4803030,Lubbock International Ap,722670,33.67,-101.82,79350
TX,G4803050,Lubbock International Ap,722670,33.67,-101.82,79350
TX,G4803070,San Angelo Mathis Field,722630,31.35,-100.5,76904
TX,G4803090,Waco Regional Ap,722560,31.62,-97.23,76702
TX,G4803110,Alice Intl Ap,722517,27.73,-98.03,78332
TX,G4803130,College Station-Easterwood AP,747460,30.583,-96.367,77862
LA,G4803150,Shreveport Regional Arpt,722480,32.45,-93.82,71109
TX,G4803170,Midland International Ap,722650,31.95,-102.18,79712
TX,G4803190,San Angelo Mathis Field,722630,31.35,-100.5,76904
TX,G4803210,Palacios Municipal Ap,722555,28.72,-96.25,77465
TX,G4803230,Del Rio Laughlin Afb,722615,29.37,-100.78,78843
TX,G4803250,Hondo Municipal Ap,722533,29.37,-99.17,78861
TX,G4803270,San Angelo Mathis Field,722630,31.35,-100.5,76904
TX,G4803290,Midland International Ap,722650,31.95,-102.18,79712
TX,G4803310,Draughon Miller Cen,722577,31.15,-97.4,76504
TX,G4803330,Mineral Wells Municipal Ap,722597,32.78,-98.07,76067
TX,G4803350,Abilene-Dyess AFB,720965,32.433,-99.85,79563
TX,G4803370,Fort Worth Alliance,722594,32.98,-97.32,76177
TX,G4803390,Houston D W  Hooks,722429,30.07,-95.55,77379
TX,G4803410,Dalhart Muni AP,747360,36.017,-102.55,79022
AR,G4803430,Texarkana Webb Field,723418,33.45,-94,71854
TX,G4803450,Childress Muni AP,723660,34.433,-100.283,79201
TX,G4803470,Nacogdoches  Awos,722499,31.58,-94.72,75964
TX,G4803490,Dallas Redbird Arpt,722599,32.68,-96.87,75237
LA,G4803510,Lake Charles Wb Airp,722404,30.22,-93.17,70602
TX,G4803550,Corpus Christi Nas,722515,27.68,-97.28,78418
TX,G4803570,Amarillo International Ap  Can,723630,34.99,-101.9,79015
TX,G4803590,Amarillo International Ap  Can,723630,34.99,-101.9,79015
TX,G4803610,Port Arthur Jefferson County,722410,29.95,-94.02,77705
TX,G4803630,Mineral Wells Municipal Ap,722597,32.78,-98.07,76067
LA,G4803650,Shreveport Regional Arpt,722480,32.45,-93.82,71109
TX,G4803670,Fort Worth Nas,722595,32.77,-97.45,76108
NM,G4803690,Clovis Muni   Awos,722689,34.43,-103.08,88135
TX,G4803710,Wink Winkler County Ap,722656,31.78,-103.2,79789
TX,G4803730,Lufkin Angelina Co,722446,31.23,-94.75,75941
TX,G4803750,Amarillo International Ap  Can,723630,34.99,-101.9,79015
TX,G4803770,Marfa Ap,722640,30.37,-104.02,79843
TX,G4803790,Greenville Majors,722588,33.07,-96.07,75402
TX,G4803810,Amarillo International Ap  Can,723630,34.99,-101.9,79015
TX,G4803830,San Angelo Mathis Field,722630,31.35,-100.5,76904
TX,G4803850,Hondo Municipal Ap,722533,29.37,-99.17,78861
TX,G4803870,Cox Fld,722587,33.63,-95.45,75416
TX,G4803890,Wink Winkler County Ap,722656,31.78,-103.2,79789
TX,G4803910,Rockport Aransas Co,722524,28.08,-97.05,78382
TX,G4803930,Amarillo International Ap  Can,723630,34.99,-101.9,79015
TX,G4803950,College Station-Easterwood AP,747460,30.583,-96.367,77862
TX,G4803970,Greenville Majors,722588,33.07,-96.07,75402
TX,G4803990,Abilene-Dyess AFB,720965,32.433,-99.85,79563
TX,G4804010,Longview Gregg County Ap  Over,722470,32.29,-94.98,75684
TX,G4804030,Lufkin Angelina Co,722446,31.23,-94.75,75941
TX,G4804050,Nacogdoches  Awos,722499,31.58,-94.72,75964
TX,G4804070,Houston Bush Intercontinental,722430,30,-95.37,77073
TX,G4804090,Corpus Christi Intl Arpt  Ut,722510,27.88,-97.63,78426
TX,G4804110,Mineral Wells Municipal Ap,722597,32.78,-98.07,76067
TX,G4804130,San Angelo Mathis Field,722630,31.35,-100.5,76904
TX,G4804150,Lubbock International Ap,722670,33.67,-101.82,79350
TX,G4804170,Abilene Regional Ap  Ut,722660,32.47,-99.71,79699
TX,G4804190,Nacogdoches  Awos,722499,31.58,-94.72,75964
TX,G4804210,Dalhart Municipal Ap,722636,36.02,-102.55,79022
TX,G4804230,Tyler Pounds Fld,722448,32.35,-95.4,75704
TX,G4804250,Fort Worth Nas,722595,32.77,-97.45,76108
TX,G4804270,Mcallen Miller Intl Ap  Edinbu,722506,26.31,-98.17,78541
TX,G4804290,Mineral Wells Municipal Ap,722597,32.78,-98.07,76067
TX,G4804310,San Angelo Mathis Field,722630,31.35,-100.5,76904
TX,G4804350,San Angelo Mathis Field,722630,31.35,-100.5,76904
TX,G4804370,Amarillo International Ap  Can,723630,34.99,-101.9,79015
TX,G4804390,Fort Worth Meacham Intl AP,747390,32.817,-97.367,76106
TX,G4804410,Abilene Regional Ap  Ut,722660,32.47,-99.71,79699
TX,G4804430,Marfa Ap,722640,30.37,-104.02,79843
TX,G4804450,Lubbock International Ap,722670,33.67,-101.82,79350
TX,G4804470,Wichita Falls Municipal Arpt,723510,33.98,-98.5,76311
TX,G4804490,Cox Fld,722587,33.63,-95.45,75416
TX,G4804510,San Angelo Mathis Field,722630,31.35,-100.5,76904
TX,G4804530,Camp Mabry,722544,30.32,-97.77,78731
TX,G4804550,Lufkin Angelina Co,722446,31.23,-94.75,75941
TX,G4804570,Lufkin Angelina Co,722446,31.23,-94.75,75941
TX,G4804590,Longview Gregg County Ap  Over,722470,32.29,-94.98,75684
TX,G4804610,Midland International Ap,722650,31.95,-102.18,79712
TX,G4804630,Hondo Municipal Ap,722533,29.37,-99.17,78861
TX,G4804650,Del Rio  Ut,722610,29.38,-100.91,78840
TX,G4804670,Tyler Pounds Fld,722448,32.35,-95.4,75704
TX,G4804690,Victoria Regional Ap,722550,28.87,-96.93,
TX,G4804710,Houston D W  Hooks,722429,30.07,-95.55,77379
TX,G4804730,Houston D W  Hooks,722429,30.07,-95.55,77379
TX,G4804750,Wink Winkler County Ap,722656,31.78,-103.2,79789
TX,G4804770,College Station Easterwood Fl,722445,30.58,-96.37,77862
TX,G4804790,Laredo Intl Ap  Ut,722520,27.57,-99.49,78045
TX,G4804810,Palacios Municipal Ap,722555,28.72,-96.25,77465
TX,G4804830,Amarillo International Ap  Can,723630,34.99,-101.9,79015
TX,G4804850,Wichita Falls Municipal Arpt,723510,33.98,-98.5,76311
TX,G4804870,Childress Municipal Ap,723604,34.43,-100.28,79201
TX,G4804890,Harlingen Rio Grande Valley I,722505,26.23,-97.65,78550
TX,G4804910,Georgetown  Awos,722547,30.68,-97.68,78628
TX,G4804930,Randolph Afb,722536,29.53,-98.28,78150
TX,G4804950,Wink Winkler County Ap,722656,31.78,-103.2,79789
TX,G4804970,Fort Worth Alliance,722594,32.98,-97.32,76177
TX,G4804990,Tyler Pounds Fld,722448,32.35,-95.4,75704
TX,G4805010,Lubbock International Ap,722670,33.67,-101.82,79350
TX,G4805030,Mineral Wells Municipal Ap,722597,32.78,-98.07,76067
TX,G4805050,Laredo Intl Ap  Ut,722520,27.57,-99.49,78045
TX,G4805070,Cotulla Faa Ap,722526,28.45,-99.22,78014
UT,G4900010,Cedar City Municipal Ap,724755,37.7,-113.1,84720
ID,G4900030,Malad City,725786,42.15,-112.28,
ID,G4900050,Malad City,725786,42.15,-112.28,
UT,G4900070,Vernal,725705,40.43,-109.52,84078
WY,G4900090,Rock Springs Arpt  Green River,725744,41.46,-109.44,
UT,G4900110,Ogden Hill Afb,725755,41.12,-111.97,84041
UT,G4900130,Vernal,725705,40.43,-109.52,84078
UT,G4900150,Vernal,725705,40.43,-109.52,84078
UT,G4900170,Bryce Cnyn Faa Ap,724756,37.7,-112.15,64000
UT,G4900190,Moab Canyonlands  Uo,724776,38.58,-109.54,84532
UT,G4900210,Cedar City Municipal Ap,724755,37.7,-113.1,84720
UT,G4900230,Provo Muni  Awos,725724,40.22,-111.72,84601
UT,G4900250,Bryce Cnyn Faa Ap,724756,37.7,-112.15,64000
UT,G4900270,Delta,724795,39.33,-112.58,84650
UT,G4900290,Ogden Hill Afb,725755,41.12,-111.97,84041
UT,G4900310,Bryce Cnyn Faa Ap,724756,37.7,-112.15,64000
WY,G4900330,Evanston Burns Fld,725775,41.28,-111.03,82930
UT,G4900350,Salt Lake City IntL Arpt  Isis,725720,40.77,-111.97,84122
UT,G4900370,Blanding,724723,37.62,-109.48,84511
UT,G4900390,Provo Muni  Awos,725724,40.22,-111.72,84601
UT,G4900410,Delta,724795,39.33,-112.58,84650
WY,G4900430,Evanston Burns Fld,725775,41.28,-111.03,82930
UT,G4900450,Salt Lake City IntL Arpt  Isis,725720,40.77,-111.97,84122
UT,G4900470,Vernal,725705,40.43,-109.52,84078
UT,G4900490,Provo Muni  Awos,725724,40.22,-111.72,84601
WY,G4900510,Evanston Burns Fld,725775,41.28,-111.03,82930
UT,G4900530,Saint George  Awos,724754,37.08,-113.6,84770
UT,G4900550,Hanksville,724735,38.37,-110.72,84374
UT,G4900570,Ogden Hinkley Airport,725750,41.2,-112.02,84401
VT,G5000010,Burlington International Ap,726170,44.47,-73.15,5403
VT,G5000030,Rutland State,725165,43.52,-72.95,5759
VT,G5000050,Montpelier Ap,726145,44.2,-72.57,5602
VT,G5000070,Burlington International Ap,726170,44.47,-73.15,5403
NH,G5000090,Berlin Municipal,726160,44.58,-71.18,3588
VT,G5000110,Burlington International Ap,726170,44.47,-73.15,5403
VT,G5000130,Burlington International Ap,726170,44.47,-73.15,5403
VT,G5000150,Montpelier Ap,726145,44.2,-72.57,5602
VT,G5000170,Montpelier Ap,726145,44.2,-72.57,5602
VT,G5000190,Montpelier Ap,726145,44.2,-72.57,5602
VT,G5000210,Rutland State,725165,43.52,-72.95,5759
VT,G5000230,Montpelier Ap,726145,44.2,-72.57,5602
NH,G5000250,Dillant Hopkins,726165,42.9,-72.27,3446
VT,G5000270,Springfield Hartnes,726115,43.35,-72.52,5151
VA,G5100010,Melfa Accomack Arpt,724026,37.65,-75.77,23410
VA,G5100030,Charlottesville Faa,724016,38.13,-78.45,22911
VA,G5100050,Hot Springs Ingalls,724115,37.95,-79.83,24445
VA,G5100070,Farmville,724017,37.35,-78.43,23901
VA,G5100090,Lynchburg Regional Arpt,724100,37.33,-79.2,24502
VA,G5100110,Lynchburg Regional Arpt,724100,37.33,-79.2,24502
VA,G5100130,Washington Dc Reagan Ap,724050,38.87,-77.03,20242
VA,G5100150,Staunton Shenandoah,724105,38.27,-78.9,24486
VA,G5100170,Hot Springs Ingalls,724115,37.95,-79.83,24445
VA,G5100190,Lynchburg Regional Arpt,724100,37.33,-79.2,24502
WV,G5100210,Bluefield Mercer Co  Nrel,724125,37.27,-81.24,24701
VA,G5100230,Roanoke Regional Ap,724110,37.32,-79.97,24019
VA,G5100250,Dinwiddie Co,724014,37.18,-77.52,23803
VA,G5100270,Wise Lonesome Pine,724117,36.98,-82.53,24293
VA,G5100290,Farmville,724017,37.35,-78.43,23901
VA,G5100310,Lynchburg Regional Arpt,724100,37.33,-79.2,24502
VA,G5100330,Shannon Arpt,724033,38.27,-77.45,22408
VA,G5100350,Hillsville,724107,36.77,-80.82,24381
VA,G5100360,Richmond International Ap,724010,37.52,-77.32,23250
VA,G5100370,Farmville,724017,37.35,-78.43,23901
VA,G5100410,Dinwiddie Co,724014,37.18,-77.52,23803
VA,G5100430,Winchester Rgnl,724053,39.15,-78.15,22602
VA,G5100450,Roanoke Regional Ap,724110,37.32,-79.97,24019
VA,G5100470,Manassas Muni Awos,724036,38.72,-77.52,20136
VA,G5100490,Farmville,724017,37.35,-78.43,23901
VA,G5100510,Wise Lonesome Pine,724117,36.98,-82.53,24293
VA,G5100530,Dinwiddie Co,724014,37.18,-77.52,23803
VA,G5100570,Richmond International Ap,724010,37.52,-77.32,23250
VA,G5100590,Davison Aaf,724037,38.72,-77.18,2200
VA,G5100610,Manassas Muni Awos,724036,38.72,-77.52,20136
VA,G5100630,Virginia Tech Arpt,724113,37.22,-80.42,24061
VA,G5100650,Charlottesville Faa,724016,38.13,-78.45,22911
VA,G5100670,Roanoke Regional Ap,724110,37.32,-79.97,24019
VA,G5100690,Winchester Rgnl,724053,39.15,-78.15,22602
VA,G5100710,Pulaski,724116,37.13,-80.68,24084
VA,G5100730,Newport News,723086,37.13,-76.5,23602
VA,G5100750,Richmond International Ap,724010,37.52,-77.32,23250
VA,G5100770,Hillsville,724107,36.77,-80.82,24381
VA,G5100790,Charlottesville Faa,724016,38.13,-78.45,22911
VA,G5100810,Dinwiddie Co,724014,37.18,-77.52,23803
VA,G5100830,Danville Faa Ap,724106,36.57,-79.33,24586
VA,G5100850,Richmond International Ap,724010,37.52,-77.32,23250
VA,G5100870,Richmond International Ap,724010,37.52,-77.32,23250
VA,G5100890,Martinsville,745985,36.63,-80.02,24112
VA,G5100910,Hot Springs Ingalls,724115,37.95,-79.83,24445
VA,G5100930,Newport News,723086,37.13,-76.5,23602
VA,G5100950,Newport News,723086,37.13,-76.5,23602
VA,G5100970,Richmond International Ap,724010,37.52,-77.32,23250
VA,G5100990,Quantico Mcas,724035,38.5,-77.3,22134
VA,G5101010,Richmond International Ap,724010,37.52,-77.32,23250
VA,G5101030,Newport News,723086,37.13,-76.5,23602
VA,G5101050,Wise Lonesome Pine,724117,36.98,-82.53,24293
VA,G5101070,Leesburg Godfrey,724055,39.08,-77.57,20175
VA,G5101090,Charlottesville Faa,724016,38.13,-78.45,22911
VA,G5101110,Farmville,724017,37.35,-78.43,23901
VA,G5101130,Charlottesville Faa,724016,38.13,-78.45,22911
VA,G5101150,Newport News,723086,37.13,-76.5,23602
VA,G5101170,Farmville,724017,37.35,-78.43,23901
VA,G5101190,Newport News,723086,37.13,-76.5,23602
VA,G5101210,Virginia Tech Arpt,724113,37.22,-80.42,24061
VA,G5101250,Staunton Shenandoah,724105,38.27,-78.9,24486
VA,G5101270,Richmond International Ap,724010,37.52,-77.32,23250
VA,G5101310,Melfa Accomack Arpt,724026,37.65,-75.77,23410
MD,G5101330,Patuxent River Nas,724040,38.3,-76.42,20670
VA,G5101350,Farmville,724017,37.35,-78.43,23901
VA,G5101370,Charlottesville Faa,724016,38.13,-78.45,22911
VA,G5101390,Charlottesville Faa,724016,38.13,-78.45,22911
VA,G5101410,Martinsville,745985,36.63,-80.02,24112
VA,G5101430,Danville Faa Ap,724106,36.57,-79.33,24586
VA,G5101450,Dinwiddie Co,724014,37.18,-77.52,23803
VA,G5101470,Farmville,724017,37.35,-78.43,23901
VA,G5101490,Dinwiddie Co,724014,37.18,-77.52,23803
VA,G5101530,Manassas Muni Awos,724036,38.72,-77.52,20136
VA,G5101550,Pulaski,724116,37.13,-80.68,24084
VA,G5101570,Winchester Rgnl,724053,39.15,-78.15,22602
MD,G5101590,Patuxent River Nas,724040,38.3,-76.42,20670
VA,G5101610,Roanoke Regional Ap,724110,37.32,-79.97,24019
VA,G5101630,Hot Springs Ingalls,724115,37.95,-79.83,24445
VA,G5101650,Staunton Shenandoah,724105,38.27,-78.9,24486
VA,G5101670,Abington,724058,36.68,-82.03,24211
TN,G5101690,Bristol Tri City Airport,723183,36.47,-82.4,38137
VA,G5101710,Winchester Rgnl,724053,39.15,-78.15,22602
VA,G5101730,Marion   Wytheville,724056,36.9,-81.35,24368
VA,G5101750,Franklin Naas,723083,36.7,-76.9,23315
VA,G5101770,Shannon Arpt,724033,38.27,-77.45,22408
VA,G5101790,Shannon Arpt,724033,38.27,-77.45,22408
VA,G5101810,Newport News,723086,37.13,-76.5,23602
VA,G5101830,Dinwiddie Co,724014,37.18,-77.52,23803
VA,G5101850,Marion   Wytheville,724056,36.9,-81.35,24368
VA,G5101870,Winchester Rgnl,724053,39.15,-78.15,22602
VA,G5101910,Abington,724058,36.68,-82.03,24211
MD,G5101930,Patuxent River Nas,724040,38.3,-76.42,20670
VA,G5101950,Wise Lonesome Pine,724117,36.98,-82.53,24293
VA,G5101970,Marion   Wytheville,724056,36.9,-81.35,24368
VA,G5101990,Newport News,723086,37.13,-76.5,23602
VA,G5105100,Washington Dc Reagan Ap,724050,38.87,-77.03,20242
VA,G5105200,Abington,724058,36.68,-82.03,24211
VA,G5105300,Lynchburg Regional Arpt,724100,37.33,-79.2,24502
VA,G5105400,Charlottesville Faa,724016,38.13,-78.45,22911
VA,G5105500,Norfolk International Ap,723080,36.9,-76.2,23518
VA,G5105700,Dinwiddie Co,724014,37.18,-77.52,23803
VA,G5105800,Hot Springs Ingalls,724115,37.95,-79.83,24445
VA,G5105900,Danville Faa Ap,724106,36.57,-79.33,24586
VA,G5105950,Dinwiddie Co,724014,37.18,-77.52,23803
VA,G5106000,Davison Aaf,724037,38.72,-77.18,2200
VA,G5106100,Washington Dc Reagan Ap,724050,38.87,-77.03,20242
VA,G5106200,Franklin Naas,723083,36.7,-76.9,23315
VA,G5106300,Shannon Arpt,724033,38.27,-77.45,22408
VA,G5106400,Hillsville,724107,36.77,-80.82,24381
VA,G5106500,Langley Afb,745980,37.08,-76.35,23665
VA,G5106600,Staunton Shenandoah,724105,38.27,-78.9,24486
VA,G5106700,Richmond International Ap,724010,37.52,-77.32,23250
VA,G5106780,Hot Springs Ingalls,724115,37.95,-79.83,24445
VA,G5106800,Lynchburg Regional Arpt,724100,37.33,-79.2,24502
VA,G5106830,Manassas Muni Awos,724036,38.72,-77.52,20136
VA,G5106850,Manassas Muni Awos,724036,38.72,-77.52,20136
VA,G5106900,Martinsville,745985,36.63,-80.02,24112
VA,G5107000,Newport News,723086,37.13,-76.5,23602
VA,G5107100,Norfolk Nas,723085,36.95,-76.28,23503
VA,G5107200,Wise Lonesome Pine,724117,36.98,-82.53,24293
VA,G5107300,Dinwiddie Co,724014,37.18,-77.52,23803
VA,G5107350,Langley Afb,745980,37.08,-76.35,23665
VA,G5107400,Norfolk Nas,723085,36.95,-76.28,23503
VA,G5107500,Pulaski,724116,37.13,-80.68,24084
VA,G5107600,Richmond International Ap,724010,37.52,-77.32,23250
VA,G5107700,Roanoke Regional Ap,724110,37.32,-79.97,24019
VA,G5107750,Roanoke Regional Ap,724110,37.32,-79.97,24019
VA,G5107900,Staunton Shenandoah,724105,38.27,-78.9,24486
VA,G5108000,Norfolk Nas,723085,36.95,-76.28,23503
VA,G5108100,Oceana Nas,723075,36.82,-76.03,23460
VA,G5108200,Staunton Shenandoah,724105,38.27,-78.9,24486
VA,G5108300,Newport News,723086,37.13,-76.5,23602
VA,G5108400,Winchester Rgnl,724053,39.15,-78.15,22602
WA,G5300010,Moses Lake Grant County Ap,727827,47.2,-119.32,
ID,G5300030,Lewiston Nez Perce Cnty Ap,727830,46.37,-117.02,83501
WA,G5300050,Pasco,727845,46.27,-119.12,99301
WA,G5300070,Wenatchee Pangborn,727825,47.4,-120.2,98802
WA,G5300090,William R Fairchild,727885,48.12,-123.5,
OR,G5300110,Portland International Ap,726980,45.6,-122.62,97211
WA,G5300130,Walla Walla City County Ap,727846,46.1,-118.28,
WA,G5300150,Kelso Wb Ap,727924,46.13,-122.9,98626
WA,G5300170,Wenatchee Pangborn,727825,47.4,-120.2,98802
WA,G5300190,Fairchild Afb,727855,47.63,-117.65,99011
WA,G5300210,Pasco,727845,46.27,-119.12,99301
WA,G5300230,Pullman Moscow Rgnl,727857,46.75,-117.12,99164
WA,G5300250,Moses Lake Grant County Ap,727827,47.2,-119.32,
WA,G5300270,Hoquiam Ap,727923,46.98,-123.93,98550
WA,G5300290,Oak Harbor-NAS Whidbey Island-Ault Field,720749,48.35,-122.667,97277
WA,G5300310,Whidbey Island Nas,690230,48.35,-122.67,98278
WA,G5300330,Renton Muni,727934,47.48,-122.22,98057
WA,G5300350,Bremerton National,727928,47.48,-122.75,
WA,G5300370,Yakima Air Terminal,727810,46.57,-120.55,98903
WA,G5300390,The Dalles Municipal Arpt,726988,45.62,-121.15,98617
WA,G5300410,Toledo Winlock Mem,727926,46.48,-122.8,98542
WA,G5300430,Fairchild Afb,727855,47.63,-117.65,99011
WA,G5300450,Bremerton National,727928,47.48,-122.75,
WA,G5300470,Ephrata Ap Fcwos,727826,47.3,-119.52,98823
OR,G5300490,Astoria Regional Airport,727910,46.15,-123.88,97146
WA,G5300510,Felts Fld,727856,47.68,-117.32,99212
WA,G5300530,Tacoma Mcchord Afb,742060,47.15,-122.48,98249
WA,G5300550,Whidbey Island Nas,690230,48.35,-122.67,98278
WA,G5300570,Oak Harbor-NAS Whidbey Island-Ault Field,720749,48.35,-122.667,97277
WA,G5300590,The Dalles Municipal Arpt,726988,45.62,-121.15,98617
WA,G5300610,Snohomish Co,727937,47.9,-122.28,98204
WA,G5300630,Felts Fld,727856,47.68,-117.32,99212
WA,G5300650,Fairchild Afb,727855,47.63,-117.65,99011
WA,G5300670,Olympia Airport,727920,46.97,-122.9,98501
OR,G5300690,Astoria Regional Airport,727910,46.15,-123.88,97146
WA,G5300710,Walla Walla City County Ap,727846,46.1,-118.28,
WA,G5300730,Bellingham Intl Ap,727976,48.8,-122.53,98226
WA,G5300750,Pullman Moscow Rgnl,727857,46.75,-117.12,99164
WA,G5300770,Yakima Air Terminal,727810,46.57,-120.55,98903
WV,G5400010,Elkins Elkins Randolph Co Arp,724170,38.88,-79.85,26253
WV,G5400030,Martinsburg Eastern Wv Reg Ap,724177,39.4,-77.98,25415
WV,G5400050,Charleston Yeager Arpt,724140,38.38,-81.58,25311
WV,G5400070,Charleston Yeager Arpt,724140,38.38,-81.58,25311
WV,G5400090,Wheeling Ohio County Ap,724275,40.18,-80.65,26075
WV,G5400110,Huntington Tri State Arpt,724250,38.38,-82.55,25530
WV,G5400130,Parkersburg Wood County Ap,724273,39.35,-81.43,26184
WV,G5400150,Charleston Yeager Arpt,724140,38.38,-81.58,25311
WV,G5400170,Harrison Marion Rgn,724175,39.28,-80.23,26330
WV,G5400190,Beckley Raleigh Co Mem Ap,724120,37.8,-81.12,25813
WV,G5400210,Parkersburg Wood County Ap,724273,39.35,-81.43,26184
WV,G5400230,Elkins Elkins Randolph Co Arp,724170,38.88,-79.85,26253
WV,G5400250,Lewisburg Greenbrie,724127,37.87,-80.4,24957
VA,G5400270,Winchester Rgnl,724053,39.15,-78.15,22602
WV,G5400290,Wheeling Ohio County Ap,724275,40.18,-80.65,26075
WV,G5400310,Elkins Elkins Randolph Co Arp,724170,38.88,-79.85,26253
WV,G5400330,Harrison Marion Rgn,724175,39.28,-80.23,26330
WV,G5400350,Charleston Yeager Arpt,724140,38.38,-81.58,25311
WV,G5400370,Martinsburg Eastern Wv Reg Ap,724177,39.4,-77.98,25415
WV,G5400390,Charleston Yeager Arpt,724140,38.38,-81.58,25311
WV,G5400410,Harrison Marion Rgn,724175,39.28,-80.23,26330
WV,G5400430,Huntington Tri State Arpt,724250,38.38,-82.55,25530
WV,G5400450,Charleston Yeager Arpt,724140,38.38,-81.58,25311
WV,G5400470,Bluefield Mercer Co  Nrel,724125,37.27,-81.24,24701
WV,G5400490,Harrison Marion Rgn,724175,39.28,-80.23,26330
WV,G5400510,Wheeling Ohio County Ap,724275,40.18,-80.65,26075
WV,G5400530,Charleston Yeager Arpt,724140,38.38,-81.58,25311
WV,G5400550,Bluefield Mercer Co  Nrel,724125,37.27,-81.24,24701
VA,G5400570,Winchester Rgnl,724053,39.15,-78.15,22602
WV,G5400590,Huntington Tri State Arpt,724250,38.38,-82.55,25530
WV,G5400610,Morgantown Hart Field,724176,39.65,-79.92,26508
WV,G5400630,Lewisburg Greenbrie,724127,37.87,-80.4,24957
WV,G5400650,Martinsburg Eastern Wv Reg Ap,724177,39.4,-77.98,25415
WV,G5400670,Charleston Yeager Arpt,724140,38.38,-81.58,25311
WV,G5400690,Wheeling Ohio County Ap,724275,40.18,-80.65,26075
WV,G5400710,Elkins Elkins Randolph Co Arp,724170,38.88,-79.85,26253
WV,G5400730,Parkersburg Wood County Ap,724273,39.35,-81.43,26184
VA,G5400750,Hot Springs Ingalls,724115,37.95,-79.83,24445
WV,G5400770,Morgantown Hart Field,724176,39.65,-79.92,26508
WV,G5400790,Charleston Yeager Arpt,724140,38.38,-81.58,25311
WV,G5400810,Beckley Raleigh Co Mem Ap,724120,37.8,-81.12,25813
WV,G5400830,Elkins Elkins Randolph Co Arp,724170,38.88,-79.85,26253
WV,G5400850,Parkersburg Wood County Ap,724273,39.35,-81.43,26184
WV,G5400870,Charleston Yeager Arpt,724140,38.38,-81.58,25311
WV,G5400890,Beckley Raleigh Co Mem Ap,724120,37.8,-81.12,25813
WV,G5400910,Harrison Marion Rgn,724175,39.28,-80.23,26330
WV,G5400930,Elkins Elkins Randolph Co Arp,724170,38.88,-79.85,26253
WV,G5400950,Parkersburg Wood County Ap,724273,39.35,-81.43,26184
WV,G5400970,Harrison Marion Rgn,724175,39.28,-80.23,26330
WV,G5400990,Huntington Tri State Arpt,724250,38.38,-82.55,25530
VA,G5401010,Hot Springs Ingalls,724115,37.95,-79.83,24445
WV,G5401030,Wheeling Ohio County Ap,724275,40.18,-80.65,26075
WV,G5401050,Parkersburg Wood County Ap,724273,39.35,-81.43,26184
WV,G5401070,Parkersburg Wood County Ap,724273,39.35,-81.43,26184
WV,G5401090,Bluefield Mercer Co  Nrel,724125,37.27,-81.24,24701
WI,G5500010,Marshfield Muni,726574,44.63,-90.18,54449
MI,G5500030,Ironwood  Awos,727445,46.53,-90.13,49938
WI,G5500050,Rice Lake Municipal,726467,45.48,-91.72,54868
MN,G5500070,Silver Bay,727556,47.2,-91.4,
WI,G5500090,Green Bay Austin Straubel Int,726450,44.48,-88.13,54313
MN,G5500110,Winona Muni  Awos,726588,44.08,-91.7,55959
MN,G5500130,Crane Lake  Awos,727473,46.27,-92.57,55712
WI,G5500150,Appleton Outagamie,726457,44.25,-88.52,
WI,G5500170,Eau Claire County Ap,726435,44.87,-91.48,54703
WI,G5500190,Marshfield Muni,726574,44.63,-90.18,54449
WI,G5500210,Madison Dane Co Regional Arpt,726410,43.13,-89.33,53704
IA,G5500230,Decorah,725476,43.28,-91.73,
WI,G5500250,Madison Dane Co Regional Arpt,726410,43.13,-89.33,53704
WI,G5500270,Watertown,726464,43.17,-88.72,53094
WI,G5500290,Sturgeon Bay,726458,44.85,-87.42,54235
MN,G5500310,Duluth International Arpt,727450,46.83,-92.22,55811
WI,G5500330,Eau Claire County Ap,726435,44.87,-91.48,54703
WI,G5500350,Eau Claire County Ap,726435,44.87,-91.48,54703
MI,G5500370,Iron Mountain Ford,727437,45.82,-88.12,49802
WI,G5500390,Wittman Rgnl,726456,43.98,-88.55,54902
WI,G5500410,Rhinelander Oneida,727415,45.63,-89.47,54501
WI,G5500430,Lone Rock Faa Ap,726416,43.2,-90.18,53588
WI,G5500450,Madison Dane Co Regional Arpt,726410,43.13,-89.33,53704
WI,G5500470,Wittman Rgnl,726456,43.98,-88.55,54902
WI,G5500490,Lone Rock Faa Ap,726416,43.2,-90.18,53588
MI,G5500510,Ironwood  Awos,727445,46.53,-90.13,49938
WI,G5500530,La Crosse Municipal Arpt,726430,43.87,-91.25,54603
WI,G5500550,Watertown,726464,43.17,-88.72,53094
WI,G5500570,Lone Rock Faa Ap,726416,43.2,-90.18,53588
WI,G5500590,Milwaukee Mitchell Intl Ap,726400,42.95,-87.9,53207
WI,G5500610,Sturgeon Bay,726458,44.85,-87.42,54235
WI,G5500630,La Crosse Municipal Arpt,726430,43.87,-91.25,54603
WI,G5500650,Lone Rock Faa Ap,726416,43.2,-90.18,53588
WI,G5500670,Rhinelander Oneida,727415,45.63,-89.47,54501
WI,G5500690,Rhinelander Oneida,727415,45.63,-89.47,54501
WI,G5500710,Manitowac Muni Awos,726455,44.13,-87.68,54220
WI,G5500730,Wausau Municipal Arpt,726463,44.92,-89.63,54401
MI,G5500750,Menominee  Awos,726487,45.13,-87.63,49858
WI,G5500770,Madison Dane Co Regional Arpt,726410,43.13,-89.33,53704
WI,G5500780,Green Bay Austin Straubel Int,726450,44.48,-88.13,54313
WI,G5500790,Milwaukee Mitchell Intl Ap,726400,42.95,-87.9,53207
WI,G5500810,La Crosse Municipal Arpt,726430,43.87,-91.25,54603
WI,G5500830,Green Bay Austin Straubel Int,726450,44.48,-88.13,54313
WI,G5500850,Rhinelander Oneida,727415,45.63,-89.47,54501
WI,G5500870,Appleton Outagamie,726457,44.25,-88.52,
WI,G5500890,Milwaukee Mitchell Intl Ap,726400,42.95,-87.9,53207
MN,G5500910,Red Wing,726564,44.58,-92.48,
MN,G5500930,Red Wing,726564,44.58,-92.48,
MN,G5500950,St Paul Downtown Ap,726584,44.93,-93.05,55106
WI,G5500970,Mosinee Central Wi,726465,44.78,-89.67,54455
WI,G5500990,Phillips Price Co,726468,45.7,-90.4,54555
WI,G5501010,Milwaukee Mitchell Intl Ap,726400,42.95,-87.9,53207
WI,G5501030,Lone Rock Faa Ap,726416,43.2,-90.18,53588
WI,G5501050,Janesville Rock Co,726415,42.62,-89.03,53546
WI,G5501070,Rice Lake Municipal,726467,45.48,-91.72,54868
MN,G5501090,Red Wing,726564,44.58,-92.48,
WI,G5501110,Lone Rock Faa Ap,726416,43.2,-90.18,53588
WI,G5501130,Phillips Price Co,726468,45.7,-90.4,54555
WI,G5501150,Appleton Outagamie,726457,44.25,-88.52,
WI,G5501170,Manitowac Muni Awos,726455,44.13,-87.68,54220
WI,G5501190,Phillips Price Co,726468,45.7,-90.4,54555
MN,G5501210,Winona Muni  Awos,726588,44.08,-91.7,55959
WI,G5501230,La Crosse Municipal Arpt,726430,43.87,-91.25,54603
WI,G5501250,Minocqua Woodruff,726404,45.93,-89.73,54568
WI,G5501270,Janesville Rock Co,726415,42.62,-89.03,53546
MN,G5501290,Crane Lake  Awos,727473,46.27,-92.57,55712
WI,G5501310,Milwaukee Mitchell Intl Ap,726400,42.95,-87.9,53207
WI,G5501330,Milwaukee Mitchell Intl Ap,726400,42.95,-87.9,53207
WI,G5501350,Appleton Outagamie,726457,44.25,-88.52,
WI,G5501370,Wittman Rgnl,726456,43.98,-88.55,54902
WI,G5501390,Wittman Rgnl,726456,43.98,-88.55,54902
WI,G5501410,Marshfield Muni,726574,44.63,-90.18,54449
WY,G5600010,Laramie General Brees Field,725645,41.32,-105.68,82070
WY,G5600030,Worland Municipal,726665,43.97,-107.95,82401
WY,G5600050,Gillette Gillette C,726650,44.35,-105.53,
WY,G5600070,Rawlins Municipal Ap,725745,41.8,-107.2,
WY,G5600090,Casper Natrona Co Intl Ap,725690,42.9,-106.47,82602
WY,G5600110,Gillette Gillette C,726650,44.35,-105.53,
WY,G5600130,Riverton Municipl Ap,725765,43.05,-108.45,82501
CO,G5600150,Greeley Weld  Awos,724768,40.43,-104.63,
WY,G5600170,Worland Municipal,726665,43.97,-107.95,82401
WY,G5600190,Sheridan County Arpt,726660,44.77,-106.97,82801
WY,G5600210,Cheyenne Municipal Arpt,725640,41.15,-104.8,82001
WY,G5600230,Jackson Hole,725776,43.6,-110.73,
WY,G5600250,Casper Natrona Co Intl Ap,725690,42.9,-106.47,82602
NE,G5600270,Scottsbluff W B Heilig Field,725660,41.87,-103.6,
WY,G5600290,Cody Muni  Awos,726700,44.52,-109.02,
CO,G5600310,Fort Collins  Awos,724769,40.45,-105.02,80538
WY,G5600330,Sheridan County Arpt,726660,44.77,-106.97,82801
WY,G5600350,Jackson Hole,725776,43.6,-110.73,
WY,G5600370,Rock Springs Arpt  Green River,725744,41.46,-109.44,
WY,G5600390,Jackson Hole,725776,43.6,-110.73,
WY,G5600410,Evanston Burns Fld,725775,41.28,-111.03,82930
WY,G5600430,Worland Municipal,726665,43.97,-107.95,82401
SD,G5600450,Ellsworth Afb,726625,44.15,-103.1,57706
