,State,Station_Number,Station_Name,Station_WMO,Latitude,Longitude,ZIP Codes
0,MO,G2901710,Kirksville Regional Ap,724455,40.1,-92.55,
1,IL,G2901730,Quincy Muni Baldwin Fld,724396,39.93,-91.2,62338
2,MO,G2901750,Columbia Regional Airport,724450,38.82,-92.22,65201
3,MO,G2901770,Kansas City Downtown Ap,724463,39.12,-94.6,64105
4,MO,G2901790,Farmington,724454,37.77,-90.4,
5,MO,G2901810,Poplar Bluff Amos,723300,36.77,-90.47,63901
6,MO,G2901830,St Louis Spirit Of St Louis A,724345,38.65,-90.65,63005
7,MO,G2901850,Whiteman Afb,724467,38.72,-93.55,65305
8,MO,G2901870,Farmington,724454,37.77,-90.4,
9,MO,G2901890,St Louis Lambert IntL Arpt,724340,38.75,-90.37,63145
10,MO,G2901950,Whiteman Afb,724467,38.72,-93.55,65305
11,MO,G2901970,Kirksville Regional Ap,724455,40.1,-92.55,
12,MO,G2901990,Kirksville Regional Ap,724455,40.1,-92.55,
13,MO,G2902010,Cape Girardeau Municipal Ap,723489,37.23,-89.57,63780
14,MO,G2902030,Ft Lnrd Wd Aaf,724457,37.75,-92.15,65473
15,MO,G2902050,Columbia Regional Airport,724450,38.82,-92.22,65201
16,MO,G2902070,Poplar Bluff Amos,723300,36.77,-90.47,63901
17,MO,G2902090,Springfield Regional Arpt,724400,37.23,-93.38,
18,MO,G2902110,Kirksville Regional Ap,724455,40.1,-92.55,
19,AR,G2902130,Harrison Faa Ap,723446,36.27,-93.15,72601
20,MO,G2902150,Ft Lnrd Wd Aaf,724457,37.75,-92.15,65473
21,MO,G2902170,Joplin Municipal Ap,723495,37.15,-94.5,64870
22,MO,G2902190,St Louis Spirit Of St Louis A,724345,38.65,-90.65,63005
23,MO,G2902210,Farmington,724454,37.77,-90.4,
24,MO,G2902230,Poplar Bluff Amos,723300,36.77,-90.47,63901
25,MO,G2902250,Springfield Regional Arpt,724400,37.23,-93.38,
26,IA,G2902270,Creston,725474,41.02,-94.37,50801
27,MO,G2902290,Ft Lnrd Wd Aaf,724457,37.75,-92.15,65473
28,MT,G3000010,Butte Bert Mooney Arpt,726785,45.95,-112.5,59701
29,WY,G3000030,Sheridan County Arpt,726660,44.77,-106.97,82801
30,MT,G3000050,Havre City County Ap,727770,48.55,-109.77,
31,MT,G3000070,Helena Regional Airport,727720,46.6,-111.97,59601
32,MT,G3000090,Billings Logan IntL Arpt,726770,45.8,-108.55,59102
33,MT,G3000110,Glendive Awos,726676,47.13,-104.8,59330
34,MT,G3000130,Great Falls Intl Arpt,727750,47.47,-111.38,59404
35,MT,G3000150,Havre City County Ap,727770,48.55,-109.77,
36,MT,G3000170,Miles City Municipal Arpt,742300,46.43,-105.88,
37,MT,G3000190,Wolf Point Intl  Fort Peck   S,727686,48.31,-105.1,
38,MT,G3000210,Glendive Awos,726676,47.13,-104.8,59330
39,MT,G3000230,Butte Bert Mooney Arpt,726785,45.95,-112.5,59701
40,MT,G3000250,Glendive Awos,726676,47.13,-104.8,59330
41,MT,G3000270,Lewistown Municipal Arpt,726776,47.05,-109.45,59457
42,MT,G3000290,Kalispell Glacier Pk IntL Ar,727790,48.32,-114.25,
43,MT,G3000310,Bozeman Gallatin Field,726797,45.8,-111.15,59714
44,MT,G3000330,Glasgow Intl Arpt,727680,48.22,-106.62,
45,MT,G3000350,Cut Bank Muni Ap,727796,48.6,-112.37,59427
46,MT,G3000370,Billings Logan IntL Arpt,726770,45.8,-108.55,59102
47,MT,G3000390,Missoula International Ap,727730,46.92,-114.1,
48,MT,G3000410,Havre City County Ap,727770,48.55,-109.77,
49,MT,G3000430,Helena Regional Airport,727720,46.6,-111.97,59601
50,MT,G3000450,Lewistown Municipal Arpt,726776,47.05,-109.45,59457
51,MT,G3000470,Missoula International Ap,727730,46.92,-114.1,
52,MT,G3000490,Helena Regional Airport,727720,46.6,-111.97,59601
53,MT,G3000510,Great Falls Intl Arpt,727750,47.47,-111.38,59404
54,MT,G3000530,Kalispell Glacier Pk IntL Ar,727790,48.32,-114.25,
55,MT,G3000550,Wolf Point Intl  Fort Peck   S,727686,48.31,-105.1,
56,MT,G3000570,Butte Bert Mooney Arpt,726785,45.95,-112.5,59701
57,MT,G3000590,Bozeman Gallatin Field,726797,45.8,-111.15,59714
58,MT,G3000610,Missoula International Ap,727730,46.92,-114.1,
59,MT,G3000630,Missoula International Ap,727730,46.92,-114.1,
60,MT,G3000650,Billings Logan IntL Arpt,726770,45.8,-108.55,59102
61,MT,G3000670,Livingston Mission Field,726798,45.7,-110.45,
62,MT,G3000690,Lewistown Municipal Arpt,726776,47.05,-109.45,59457
63,MT,G3000710,Glasgow Intl Arpt,727680,48.22,-106.62,
64,MT,G3000730,Cut Bank Intl AP,727690,48.6,-112.367,59427
65,MT,G3000750,Miles City Municipal Arpt,742300,46.43,-105.88,
66,MT,G3000770,Butte Bert Mooney Arpt,726785,45.95,-112.5,59701
67,MT,G3000790,Glendive Awos,726676,47.13,-104.8,59330
68,MT,G3000810,Missoula International Ap,727730,46.92,-114.1,
69,MT,G3000830,Sidney Richland,727687,47.7,-104.2,59270
70,MT,G3000850,Wolf Point Intl  Fort Peck   S,727686,48.31,-105.1,
71,MT,G3000870,Miles City Municipal Arpt,742300,46.43,-105.88,
72,MT,G3000890,Kalispell Glacier Pk IntL Ar,727790,48.32,-114.25,
73,ND,G3000910,Williston Sloulin Intl Ap,727670,48.2,-103.65,58801
74,MT,G3000930,Butte Bert Mooney Arpt,726785,45.95,-112.5,59701
75,MT,G3000950,Billings Logan IntL Arpt,726770,45.8,-108.55,59102
76,MT,G3000970,Livingston Mission Field,726798,45.7,-110.45,
77,MT,G3000990,Great Falls Intl Arpt,727750,47.47,-111.38,59404
78,MT,G3001010,Cut Bank Intl AP,727690,48.6,-112.367,59427
79,MT,G3001030,Miles City Municipal Arpt,742300,46.43,-105.88,
80,MT,G3001050,Glasgow Intl Arpt,727680,48.22,-106.62,
81,MT,G3001070,Lewistown Municipal Arpt,726776,47.05,-109.45,59457
82,ND,G3001090,Dickinson Municipal Ap,727645,46.8,-102.8,
83,MT,G3001110,Billings Logan IntL Arpt,726770,45.8,-108.55,59102
84,NE,G3100010,Hastings Municipal,725525,40.6,-98.43,68902
85,NE,G3100030,Norfolk Karl Stefan Mem Arpt,725560,41.98,-97.43,68701
86,NE,G3100050,Imperial Faa Ap,725626,40.52,-101.62,69033
87,NE,G3100070,Scottsbluff W B Heilig Field,725660,41.87,-103.6,
88,NE,G3100090,Broken Bow Muni,725555,41.43,-99.65,68822
89,NE,G3100110,Norfolk Karl Stefan Mem Arpt,725560,41.98,-97.43,68701
90,NE,G3100130,Alliance Municipal,725635,42.05,-102.8,
91,NE,G3100150,O Neill Baker Field,725566,42.47,-98.68,
92,NE,G3100170,Ainsworth Municipal,725556,42.58,-100.0,
93,NE,G3100190,Kearney Muni  Awos,725526,40.73,-99.0,68847
94,NE,G3100210,Tekamah  Asos,725527,41.77,-96.17,68061
95,NE,G3100230,Columbus Muni,725565,41.45,-97.33,68601
96,NE,G3100250,Bellevue Offutt Afb,725540,41.12,-95.92,68123
97,SD,G3100270,Chan Gurney Muni,726525,42.92,-97.38,
98,NE,G3100290,Imperial Faa Ap,725626,40.52,-101.62,69033
99,NE,G3100310,Valentine Miller Field,725670,42.87,-100.55,69201
100,NE,G3100330,Sidney Municipal Ap,725610,41.1,-102.98,69162
101,NE,G3100350,Hastings Municipal,725525,40.6,-98.43,68902
102,NE,G3100370,Columbus Muni,725565,41.45,-97.33,68601
103,NE,G3100390,Fremont Muni Arpt,725564,41.45,-96.52,68025
104,NE,G3100410,Broken Bow Muni,725555,41.43,-99.65,68822
105,IA,G3100430,Sioux City Sioux Gateway Ap,725570,42.38,-96.38,51054
106,NE,G3100450,Chadron Municipal Ap,725636,42.83,-103.08,
107,NE,G3100470,Broken Bow Muni,725555,41.43,-99.65,68822
108,NE,G3100490,Sidney Municipal Ap,725610,41.1,-102.98,69162
109,IA,G3100510,Sioux City Sioux Gateway Ap,725570,42.38,-96.38,51054
110,NE,G3100530,Fremont Muni Arpt,725564,41.45,-96.52,68025
111,NE,G3100550,Omaha Wsfo,725530,41.37,-96.02,68152
112,NE,G3100570,Imperial Faa Ap,725626,40.52,-101.62,69033
113,NE,G3100590,Hastings Municipal,725525,40.6,-98.43,68902
114,NE,G3100610,Brewster Field Arpt,725628,40.45,-99.33,68949
115,NE,G3100630,Mccook Municipal,725625,40.2,-100.58,69001
116,NE,G3100650,Brewster Field Arpt,725628,40.45,-99.33,68949
117,NE,G3100670,Beatrice Municipal,725515,40.3,-96.75,
118,NE,G3100690,Sidney Municipal Ap,725610,41.1,-102.98,69162
119,NE,G3100710,Ord Sharp Field,725524,41.62,-98.95,68862
120,NE,G3100730,Brewster Field Arpt,725628,40.45,-99.33,68949
121,NE,G3100750,Alliance Municipal,725635,42.05,-102.8,
122,NE,G3100770,Ord Sharp Field,725524,41.62,-98.95,68862
123,NE,G3100790,Grand Island Central Ne Regio,725520,40.97,-98.32,68824
124,NE,G3100810,Grand Island Central Ne Regio,725520,40.97,-98.32,68824
125,NE,G3100830,Brewster Field Arpt,725628,40.45,-99.33,68949
126,NE,G3100850,Imperial Faa Ap,725626,40.52,-101.62,69033
127,NE,G3100870,Mccook Municipal,725625,40.2,-100.58,69001
128,NE,G3100890,O Neill Baker Field,725566,42.47,-98.68,
129,NE,G3100910,North Platte Regional Ap,725620,41.12,-100.67,69101
130,NE,G3100930,Grand Island Central Ne Regio,725520,40.97,-98.32,68824
131,NE,G3100950,Beatrice Municipal,725515,40.3,-96.75,
132,NE,G3100970,Beatrice Municipal,725515,40.3,-96.75,
133,NE,G3100990,Kearney Muni  Awos,725526,40.73,-99.0,68847
134,NE,G3101010,Imperial Faa Ap,725626,40.52,-101.62,69033
135,NE,G3101030,Ainsworth Municipal,725556,42.58,-100.0,
136,NE,G3101050,Scottsbluff W B Heilig Field,725660,41.87,-103.6,
137,SD,G3101070,Chan Gurney Muni,726525,42.92,-97.38,
138,NE,G3101090,Lincoln Municipal Arpt,725510,40.83,-96.77,68588
139,NE,G3101110,North Platte Regional Ap,725620,41.12,-100.67,69101
140,NE,G3101130,North Platte Regional Ap,725620,41.12,-100.67,69101
141,NE,G3101150,Broken Bow Muni,725555,41.43,-99.65,68822
142,NE,G3101170,North Platte Regional Ap,725620,41.12,-100.67,69101
143,NE,G3101190,Norfolk Karl Stefan Mem Arpt,725560,41.98,-97.43,68701
144,NE,G3101210,Grand Island Central Ne Regio,725520,40.97,-98.32,68824
145,NE,G3101230,Scottsbluff W B Heilig Field,725660,41.87,-103.6,
146,NE,G3101250,Columbus Muni,725565,41.45,-97.33,68601
147,NE,G3101270,Falls City Brenner,725533,40.08,-95.6,68355
148,NE,G3101290,Hastings Municipal,725525,40.6,-98.43,68902
149,NE,G3101310,Bellevue Offutt Afb,725540,41.12,-95.92,68123
150,NE,G3101330,Falls City Brenner,725533,40.08,-95.6,68355
151,NE,G3101350,Imperial Faa Ap,725626,40.52,-101.62,69033
152,NE,G3101370,Brewster Field Arpt,725628,40.45,-99.33,68949
153,NE,G3101390,Norfolk Karl Stefan Mem Arpt,725560,41.98,-97.43,68701
154,NE,G3101410,Columbus Muni,725565,41.45,-97.33,68601
155,NE,G3101430,Columbus Muni,725565,41.45,-97.33,68601
156,NE,G3101450,Mccook Municipal,725625,40.2,-100.58,69001
157,NE,G3101470,Falls City Brenner,725533,40.08,-95.6,68355
158,NE,G3101490,Ainsworth Municipal,725556,42.58,-100.0,
159,NE,G3101510,Lincoln Municipal Arpt,725510,40.83,-96.77,68588
160,NE,G3101530,Bellevue Offutt Afb,725540,41.12,-95.92,68123
161,NE,G3101550,Fremont Muni Arpt,725564,41.45,-96.52,68025
162,NE,G3101570,Scottsbluff W B Heilig Field,725660,41.87,-103.6,
163,NE,G3101590,Lincoln Municipal Arpt,725510,40.83,-96.77,68588
164,NE,G3101610,Chadron Municipal Ap,725636,42.83,-103.08,
165,NE,G3101630,Ord Sharp Field,725524,41.62,-98.95,68862
166,NE,G3101650,Scottsbluff W B Heilig Field,725660,41.87,-103.6,
167,NE,G3101670,Norfolk Karl Stefan Mem Arpt,725560,41.98,-97.43,68701
168,KS,G3101690,Concordia Blosser Muni Ap,724580,39.55,-97.65,66901
169,NE,G3101710,Ainsworth Municipal,725556,42.58,-100.0,
170,IA,G3101730,Sioux City Sioux Gateway Ap,725570,42.38,-96.38,51054
171,NE,G3101750,Ord Sharp Field,725524,41.62,-98.95,68862
172,NE,G3101770,Omaha Wsfo,725530,41.37,-96.02,68152
173,NE,G3101790,Norfolk Karl Stefan Mem Arpt,725560,41.98,-97.43,68701
174,NE,G3101810,Hastings Municipal,725525,40.6,-98.43,68902
175,NE,G3101830,Ord Sharp Field,725524,41.62,-98.95,68862
176,NE,G3101850,Columbus Muni,725565,41.45,-97.33,68601
177,NV,G3200010,Fallon Naas,724885,39.42,-118.72,
178,NV,G3200030,Las Vegas Mccarran Intl Ap,723860,36.08,-115.15,89154
179,CA,G3200050,Truckee Tahoe,725846,39.32,-120.13,
180,NV,G3200070,Elko Municipal Arpt,725825,40.83,-115.8,89890
181,NV,G3200090,Tonopah Airport,724855,38.07,-117.08,
182,NV,G3200110,Elko Municipal Arpt,725825,40.83,-115.8,89890
183,NV,G3200130,Winnemucca Municipal Arpt,725830,40.9,-117.8,88944
184,NV,G3200150,Winnemucca Municipal Arpt,725830,40.9,-117.8,88944
185,UT,G3200170,Cedar City Municipal Ap,724755,37.7,-113.1,84720
186,NV,G3200190,Reno Tahoe International Ap,724880,39.48,-119.77,89502
187,NV,G3200210,Fallon Naas,724885,39.42,-118.72,
188,NV,G3200230,Mercury Desert Rock Ap  Surfra,723870,36.63,-116.02,89023
189,NV,G3200270,Lovelock Derby Field,725805,40.07,-118.55,
190,NV,G3200290,Reno Tahoe International Ap,724880,39.48,-119.77,89502
191,NV,G3200310,Reno Tahoe International Ap,724880,39.48,-119.77,89502
192,NV,G3200330,Ely Yelland Field,724860,39.3,-114.85,89301
193,NH,G3300010,Laconia Muni  Awos,726155,43.57,-71.42,03249
194,NH,G3300030,Laconia Muni  Awos,726155,43.57,-71.42,03249
195,NH,G3300050,Dillant Hopkins,726165,42.9,-72.27,03446
196,NH,G3300070,Berlin Municipal,726160,44.58,-71.18,03588
197,NH,G3300090,Lebanon Municipal,726116,43.63,-72.3,03784
198,NH,G3300110,Manchester Airport,743945,42.93,-71.43,03103
199,NH,G3300130,Concord Municipal Arpt,726050,43.2,-71.5,03305
200,MA,G3300150,Lawrence Muni,744904,42.72,-71.12,01842
201,NH,G3300170,Pease Intl Tradepor,726055,43.08,-70.82,03801
202,VT,G3300190,Springfield Hartnes,726115,43.35,-72.52,05151
203,NJ,G3400010,Atlantic City Intl Ap,724070,39.45,-74.57,08240
204,NJ,G3400030,Teterboro Airport,725025,40.85,-74.07,07608
205,PA,G3400050,Philadelphia Ne Philadelphia,724085,40.08,-75.02,19114
206,PA,G3400070,Philadelphia International Ap,724080,39.87,-75.23,19113
207,NJ,G3400090,Cape May Co,745966,39.0,-74.92,08204
208,NJ,G3400110,Millville Municipal Ap,724075,39.37,-75.08,08332
209,NJ,G3400130,Newark International Arpt,725020,40.72,-74.18,07104
210,PA,G3400150,Philadelphia International Ap,724080,39.87,-75.23,19113
211,NY,G3400170,New York Central Prk Obs Belv,725033,40.78,-73.97,10024
212,NJ,G3400190,Trenton Mercer County Ap,724095,40.28,-74.82,08628
213,NJ,G3400210,Trenton Mercer County Ap,724095,40.28,-74.82,08628
214,NJ,G3400230,Newark International Arpt,725020,40.72,-74.18,07104
215,NJ,G3400250,Belmar Asc,724084,40.18,-74.07,07719
216,NJ,G3400270,Teterboro Airport,725025,40.85,-74.07,07608
217,NJ,G3400290,Belmar Asc,724084,40.18,-74.07,07719
218,NJ,G3400310,Caldwell Essex Co,724094,40.88,-74.28,07004
219,DE,G3400330,Wilmington New Castle Cnty Ap,724089,39.67,-75.6,19720
220,NJ,G3400350,Trenton Mercer County Ap,724095,40.28,-74.82,08628
221,NJ,G3400370,Teterboro Airport,725025,40.85,-74.07,07608
222,NJ,G3400390,Newark International Arpt,725020,40.72,-74.18,07104
223,PA,G3400410,Allentown Lehigh Valley Intl,725170,40.65,-75.45,18032
224,NM,G3500010,Albuquerque Intl Arpt  Isis,723650,35.04,-106.62,87106
225,AZ,G3500030,Show Low Municipal,723747,34.27,-110.0,85901
226,NM,G3500050,Roswell Industrial Air Park,722680,33.3,-104.53,88203
227,NM,G3500070,Taos Muni Apt Awos,723663,36.45,-105.67,87529
228,NM,G3500090,Clovis Cannon Afb,722686,34.38,-103.32,88103
229,NM,G3500110,Clovis Cannon Afb,722686,34.38,-103.32,88103
230,NM,G3500130,Las Cruces Intl,722695,32.28,-106.92,
231,NM,G3500150,Carlsbad Cavern City Air Term,722687,32.33,-104.27,
232,NM,G3500170,Truth Or Consequences Muni Ap,722710,33.23,-107.27,
233,NM,G3500190,Las Vegas Municipal Arpt,723677,35.65,-105.15,
234,NM,G3500210,Tucumcari Faa Ap,723676,35.18,-103.6,
235,NM,G3500230,Deming Muni,722725,32.25,-107.72,88030
236,TX,G3500250,Wink Winkler County Ap,722656,31.78,-103.2,79789
237,NM,G3500270,Sierra Blanca Rgnl,722683,33.47,-105.53,
238,NM,G3500290,Deming Muni,722725,32.25,-107.72,88030
239,NM,G3500310,Gallup Sen Clarke Fld,723627,35.52,-108.78,87301
240,NM,G3500330,Las Vegas Municipal Arpt,723677,35.65,-105.15,
241,NM,G3500350,Holloman Afb,747320,32.85,-106.1,
242,NM,G3500370,Tucumcari Faa Ap,723676,35.18,-103.6,
243,NM,G3500390,Taos Muni Apt Awos,723663,36.45,-105.67,87529
244,NM,G3500410,Clovis Cannon Afb,722686,34.38,-103.32,88103
245,NM,G3500430,Albuquerque Intl Arpt  Isis,723650,35.04,-106.62,87106
246,NM,G3500450,Farmington Four Corners Regl,723658,36.75,-108.23,
247,NM,G3500470,Las Vegas Municipal Arpt,723677,35.65,-105.15,
248,NM,G3500490,Sata Fe County Municipal Ap,723656,35.62,-106.08,87507
249,NM,G3500510,Truth Or Consequences Muni Ap,722710,33.23,-107.27,
250,NM,G3500530,Albuquerque Intl Arpt  Isis,723650,35.04,-106.62,87106
251,NM,G3500550,Taos Muni Apt Awos,723663,36.45,-105.67,87529
252,NM,G3500570,Sata Fe County Municipal Ap,723656,35.62,-106.08,87507
253,NM,G3500590,Clayton Municipal Airpark,723600,36.45,-103.15,
254,NM,G3500610,Albuquerque Intl Arpt  Isis,723650,35.04,-106.62,87106
255,NY,G3600010,Albany County Ap,725180,42.75,-73.8,12205
256,PA,G3600030,Bradford Regional Ap,725266,41.8,-78.63,
257,NY,G3600050,New York Laguardia Arpt,725030,40.78,-73.88,11371
258,NY,G3600070,Binghamton Edwin A Link Field,725150,42.2,-75.98,13905
259,PA,G3600090,Bradford Regional Ap,725266,41.8,-78.63,
260,NY,G3600110,Syracuse Hancock IntL Arpt,725190,43.12,-76.1,13212
261,NY,G3600130,Jamestown  Awos,725235,42.15,-79.27,14701
262,NY,G3600150,Elmira Corning Regional Ap,725156,42.17,-76.9,14845
263,NY,G3600170,Binghamton Edwin A Link Field,725150,42.2,-75.98,13905
264,VT,G3600190,Burlington International Ap,726170,44.47,-73.15,05403
265,NY,G3600210,Albany County Ap,725180,42.75,-73.8,12205
266,NY,G3600230,Binghamton Edwin A Link Field,725150,42.2,-75.98,13905
267,NY,G3600250,Monticello Awos,725145,41.7,-74.8,12762
268,NY,G3600270,Poughkeepsie Dutchess Co Ap,725036,41.63,-73.88,12590
269,NY,G3600290,Buffalo Niagara Intl Ap,725280,42.93,-78.73,14225
270,NY,G3600310,Adirondack Rgnl,726228,44.38,-74.2,12945
271,NY,G3600330,Adirondack Rgnl,726228,44.38,-74.2,12945
272,NY,G3600350,Albany County Ap,725180,42.75,-73.8,12205
273,NY,G3600370,Rochester Greater Rochester I,725290,43.12,-77.68,14624
274,NY,G3600390,Albany County Ap,725180,42.75,-73.8,12205
275,NY,G3600410,Adirondack Rgnl,726228,44.38,-74.2,12945
276,NY,G3600430,Utica Oneida County Ap,725197,43.15,-75.38,13424
277,NY,G3600450,Watertown Ap,726227,44.0,-76.02,13634
278,NY,G3600470,New York-Central Park Observatory-Belevedere Castle,725053,40.7793,-73.9691,
279,NY,G3600490,Fort Drum Wheeler S,743700,44.05,-75.72,13643
280,NY,G3600510,Rochester Greater Rochester I,725290,43.12,-77.68,14624
281,NY,G3600530,Utica Oneida County Ap,725197,43.15,-75.38,13424
282,NY,G3600550,Rochester Greater Rochester I,725290,43.12,-77.68,14624
283,NY,G3600570,Albany County Ap,725180,42.75,-73.8,12205
284,NY,G3600590,Republic,744864,40.72,-73.42,11735
285,NY,G3600610,New York-Central Park Observatory-Belevedere Castle,725053,40.7793,-73.9691,
286,NY,G3600630,Niagara Falls Af,725287,43.1,-78.95,14304
287,NY,G3600650,Utica Oneida County Ap,725197,43.15,-75.38,13424
288,NY,G3600670,Syracuse Hancock IntL Arpt,725190,43.12,-76.1,13212
289,NY,G3600690,Rochester Greater Rochester I,725290,43.12,-77.68,14624
290,NY,G3600710,Stewart Field,725038,41.5,-74.1,12475
291,NY,G3600730,Rochester Greater Rochester I,725290,43.12,-77.68,14624
292,NY,G3600750,Syracuse Hancock IntL Arpt,725190,43.12,-76.1,13212
293,NY,G3600770,Utica Oneida County Ap,725197,43.15,-75.38,13424
294,CT,G3600790,Danbury Municipal,725086,41.37,-73.48,06813
295,NY,G3600810,New York Laguardia Arpt,725030,40.78,-73.88,11371
296,NY,G3600830,Albany County Ap,725180,42.75,-73.8,12205
297,NJ,G3600850,Newark International Arpt,725020,40.72,-74.18,07104
298,NY,G3600870,White Plains Westchester Co A,725037,41.07,-73.72,10577
299,NY,G3600890,Massena Ap,726223,44.93,-74.85,13662
300,NY,G3600910,Albany County Ap,725180,42.75,-73.8,12205
301,NY,G3600930,Albany County Ap,725180,42.75,-73.8,12205
302,NY,G3600950,Albany County Ap,725180,42.75,-73.8,12205
303,NY,G3600970,Elmira Corning Regional Ap,725156,42.17,-76.9,14845
304,NY,G3600990,Elmira Corning Regional Ap,725156,42.17,-76.9,14845
305,NY,G3601010,Elmira Corning Regional Ap,725156,42.17,-76.9,14845
306,NY,G3601030,Islip-Long Island MacArthur AP,725050,40.79,-73.1,11779
307,NY,G3601050,Monticello Awos,725145,41.7,-74.8,12762
308,NY,G3601070,Binghamton Edwin A Link Field,725150,42.2,-75.98,13905
309,NY,G3601090,Binghamton Edwin A Link Field,725150,42.2,-75.98,13905
310,NY,G3601110,Poughkeepsie Dutchess Co Ap,725036,41.63,-73.88,12590
311,NY,G3601130,Glens Falls Ap,725185,43.35,-73.62,12804
312,NY,G3601150,Glens Falls-Bennett Meml AP,725220,43.35,-73.617,12804
313,NY,G3601170,Rochester Greater Rochester I,725290,43.12,-77.68,14624
314,NY,G3601190,White Plains Westchester Co A,725037,41.07,-73.72,10577
315,NY,G3601210,Buffalo Niagara Intl Ap,725280,42.93,-78.73,14225
316,NY,G3601230,Elmira Corning Regional Ap,725156,42.17,-76.9,14845
317,VA,G3700010,Danville Faa Ap,724106,36.57,-79.33,24586
318,NC,G3700030,Hickory Regional Ap,723145,35.73,-81.38,28601
319,WV,G3700050,Beckley Raleigh Co Mem Ap,724120,37.8,-81.12,25813
320,NC,G3700070,Southern Pines Awos,723143,35.23,-79.4,28327
321,WV,G3700090,Beckley Raleigh Co Mem Ap,724120,37.8,-81.12,25813
322,TN,G3700110,Bristol-Tri-Cities Rgnl AP,723350,36.467,-82.4,
323,NC,G3700130,Pitt Greenville Arp,723065,35.63,-77.4,27834
324,VA,G3700150,Franklin Naas,723083,36.7,-76.9,23315
325,NC,G3700170,Fayetteville Rgnl G,723035,34.98,-78.88,28306
326,NC,G3700190,Wilmington International Arpt,723013,34.27,-77.9,28405
327,NC,G3700210,Asheville Regional Arpt,723150,35.43,-82.53,28704
328,NC,G3700230,Hickory Rgnl AP,723010,35.733,-81.383,28601
329,NC,G3700250,Charlotte Douglas Intl Arpt,723140,35.22,-80.95,28208
330,NC,G3700270,Hickory Rgnl AP,723010,35.733,-81.383,28601
331,NC,G3700290,Elizabeth City Coast Guard Ai,746943,36.3,-76.25,27909
332,NC,G3700310,Cherry Point Mcas,723090,34.9,-76.88,28532
333,VA,G3700330,Danville Faa Ap,724106,36.57,-79.33,24586
334,NC,G3700350,Hickory Regional Ap,723145,35.73,-81.38,28601
335,NC,G3700370,Raleigh Durham International,723060,35.87,-78.78,27617
336,TN,G3700390,Knoxville Mcghee Tyson Ap,723260,35.82,-83.98,37701
337,NC,G3700410,Elizabeth City Coast Guard Ai,746943,36.3,-76.25,27909
338,TN,G3700430,Knoxville Mcghee Tyson Ap,723260,35.82,-83.98,37701
339,NC,G3700450,Hickory Regional Ap,723145,35.73,-81.38,28601
340,SC,G3700470,North Myrtle Beach Grand Stra,747915,33.82,-78.72,29598
341,NC,G3700490,New Bern Craven Co Regl Ap,723095,35.07,-77.05,28562
342,NC,G3700510,Fort Bragg Simmons Aaf,746930,35.13,-78.93,28311
343,NC,G3700530,Elizabeth City Rgnl AP-CGAS Elizabeth City,723070,36.26,-76.179,27909
344,NC,G3700550,Dare Co Rgnl,723046,35.92,-75.7,27954
345,NC,G3700570,Charlotte Douglas Intl Arpt,723140,35.22,-80.95,28208
346,NC,G3700590,Charlotte Douglas Intl Arpt,723140,35.22,-80.95,28208
347,NC,G3700610,Jacksonville  Awos,723069,34.83,-77.62,
348,NC,G3700630,Raleigh Durham International,723060,35.87,-78.78,27617
349,NC,G3700650,Pitt Greenville Arp,723065,35.63,-77.4,27834
350,NC,G3700670,Winston Salem Reynolds Ap,723193,36.13,-80.22,27105
351,NC,G3700690,Raleigh Durham International,723060,35.87,-78.78,27617
352,NC,G3700710,Charlotte Douglas Intl Arpt,723140,35.22,-80.95,28208
353,VA,G3700730,Franklin Naas,723083,36.7,-76.9,23315
354,TN,G3700750,Knoxville Mcghee Tyson Ap,723260,35.82,-83.98,37701
355,NC,G3700770,Raleigh Durham International,723060,35.87,-78.78,27617
356,NC,G3700790,Kinston Stallings Afb,723067,35.32,-77.63,28503
357,NC,G3700810,Greensboro Piedmont Triad Int,723170,36.1,-79.95,27410
358,NC,G3700830,Rocky Mount Wilson,723068,35.85,-77.9,27822
359,NC,G3700850,Raleigh Durham International,723060,35.87,-78.78,27617
360,NC,G3700870,Asheville Regional Arpt,723150,35.43,-82.53,28704
361,NC,G3700890,Asheville Regional Arpt,723150,35.43,-82.53,28704
362,VA,G3700910,Franklin Naas,723083,36.7,-76.9,23315
363,NC,G3700930,Fayetteville Pope Afb,723030,35.17,-79.02,28308
364,NC,G3700950,Cape Hatteras Nws Bldg,723040,35.27,-75.55,27920
365,NC,G3700970,Hickory Regional Ap,723145,35.73,-81.38,28601
366,NC,G3700990,Asheville Regional Arpt,723150,35.43,-82.53,28704
367,NC,G3701010,Goldsboro Seymour Johnson Afb,723066,35.35,-77.97,27531
368,NC,G3701030,New Bern Craven Co Regl Ap,723095,35.07,-77.05,28562
369,NC,G3701050,Raleigh Durham International,723060,35.87,-78.78,27617
370,NC,G3701070,Kinston Stallings Afb,723067,35.32,-77.63,28503
371,NC,G3701090,Hickory Regional Ap,723145,35.73,-81.38,28601
372,NC,G3701110,Asheville Regional Arpt,723150,35.43,-82.53,28704
373,NC,G3701130,Asheville Regional Arpt,723150,35.43,-82.53,28704
374,NC,G3701150,Asheville Regional Arpt,723150,35.43,-82.53,28704
375,NC,G3701170,Pitt Greenville Arp,723065,35.63,-77.4,27834
376,NC,G3701190,Charlotte Douglas Intl Arpt,723140,35.22,-80.95,28208
377,TN,G3701210,Bristol-Tri-Cities Rgnl AP,723350,36.467,-82.4,
378,NC,G3701230,Southern Pines Awos,723143,35.23,-79.4,28327
379,NC,G3701250,Southern Pines Awos,723143,35.23,-79.4,28327
380,NC,G3701270,Rocky Mount Wilson,723068,35.85,-77.9,27822
381,NC,G3701290,Wilmington International Arpt,723013,34.27,-77.9,28405
382,VA,G3701310,Franklin Naas,723083,36.7,-76.9,23315
383,NC,G3701330,New River Mcaf,723096,34.7,-77.38,28547
384,NC,G3701350,Raleigh Durham International,723060,35.87,-78.78,27617
385,NC,G3701370,Cherry Point Mcas,723090,34.9,-76.88,28532
386,NC,G3701390,Elizabeth City Coast Guard Ai,746943,36.3,-76.25,27909
387,NC,G3701410,Wilmington International Arpt,723013,34.27,-77.9,28405
388,NC,G3701430,Elizabeth City Coast Guard Ai,746943,36.3,-76.25,27909
389,VA,G3701450,Danville Faa Ap,724106,36.57,-79.33,24586
390,NC,G3701470,Pitt Greenville Arp,723065,35.63,-77.4,27834
391,NC,G3701490,Asheville Regional Arpt,723150,35.43,-82.53,28704
392,NC,G3701510,Southern Pines Awos,723143,35.23,-79.4,28327
393,NC,G3701530,Southern Pines Awos,723143,35.23,-79.4,28327
394,NC,G3701550,Fayetteville Rgnl G,723035,34.98,-78.88,28306
395,VA,G3701570,Martinsville,745985,36.63,-80.02,24112
396,NC,G3701590,Charlotte Douglas Intl Arpt,723140,35.22,-80.95,28208
397,NC,G3701610,Asheville Regional Arpt,723150,35.43,-82.53,28704
398,NC,G3701630,Fayetteville Rgnl G,723035,34.98,-78.88,28306
399,NC,G3701650,Southern Pines Awos,723143,35.23,-79.4,28327
400,NC,G3701670,Charlotte Douglas Intl Arpt,723140,35.22,-80.95,28208
401,NC,G3701690,Winston Salem Reynolds Ap,723193,36.13,-80.22,27105
402,VA,G3701710,Hillsville,724107,36.77,-80.82,24381
403,TN,G3701730,Knoxville Mcghee Tyson Ap,723260,35.82,-83.98,37701
404,NC,G3701750,Asheville Regional Arpt,723150,35.43,-82.53,28704
405,NC,G3701770,Elizabeth City Rgnl AP-CGAS Elizabeth City,723070,36.26,-76.179,27909
406,NC,G3701790,Charlotte Douglas Intl Arpt,723140,35.22,-80.95,28208
407,NC,G3701810,Raleigh Durham International,723060,35.87,-78.78,27617
408,NC,G3701830,Raleigh Durham International,723060,35.87,-78.78,27617
409,NC,G3701850,Rocky Mount Wilson,723068,35.85,-77.9,27822
410,NC,G3701870,Elizabeth City Coast Guard Ai,746943,36.3,-76.25,27909
411,WV,G3701890,Beckley Raleigh Co Mem Ap,724120,37.8,-81.12,25813
412,NC,G3701910,Goldsboro Seymour Johnson Afb,723066,35.35,-77.97,27531
413,NC,G3701930,Hickory Rgnl AP,723010,35.733,-81.383,28601
414,NC,G3701950,Rocky Mount Wilson,723068,35.85,-77.9,27822
415,NC,G3701970,Winston Salem Reynolds Ap,723193,36.13,-80.22,27105
416,NC,G3701990,Asheville Regional Arpt,723150,35.43,-82.53,28704
417,ND,G3800010,Dickinson Municipal Ap,727645,46.8,-102.8,
418,ND,G3800030,Jamestown Municipal Arpt,727535,46.92,-98.68,58401
419,ND,G3800050,Devils Lake Awos,727573,48.12,-98.92,
420,ND,G3800070,Dickinson Municipal Ap,727645,46.8,-102.8,
421,ND,G3800090,Minot Afb,727675,48.42,-101.35,58705
422,ND,G3800110,Dickinson Municipal Ap,727645,46.8,-102.8,
423,ND,G3800130,Minot Afb,727675,48.42,-101.35,58705
424,ND,G3800150,Bismarck Municipal Arpt  Isis,727640,46.77,-100.77,58506
425,ND,G3800170,Fargo Hector International Ap,727530,46.93,-96.82,58105
426,ND,G3800190,Devils Lake Awos,727573,48.12,-98.92,
427,SD,G3800210,Aberdeen Regional Arpt,726590,45.45,-98.42,
428,ND,G3800230,Williston Sloulin Intl Ap,727670,48.2,-103.65,58801
429,ND,G3800250,Dickinson Municipal Ap,727645,46.8,-102.8,
430,ND,G3800270,Devils Lake Awos,727573,48.12,-98.92,
431,ND,G3800290,Bismarck Municipal Arpt  Isis,727640,46.77,-100.77,58506
432,ND,G3800310,Jamestown Municipal Arpt,727535,46.92,-98.68,58401
433,ND,G3800330,Dickinson Municipal Ap,727645,46.8,-102.8,
434,ND,G3800350,Grand Forks International Ap,727576,47.95,-97.18,
435,ND,G3800370,Bismarck Municipal Arpt  Isis,727640,46.77,-100.77,58506
436,ND,G3800390,Jamestown Municipal Arpt,727535,46.92,-98.68,58401
437,ND,G3800410,Dickinson Municipal Ap,727645,46.8,-102.8,
438,ND,G3800430,Bismarck Municipal Arpt  Isis,727640,46.77,-100.77,58506
439,SD,G3800450,Aberdeen Regional Arpt,726590,45.45,-98.42,
440,ND,G3800470,Bismarck Municipal Arpt  Isis,727640,46.77,-100.77,58506
441,ND,G3800490,Minot Faa Ap,727676,48.27,-101.28,58703
442,SD,G3800510,Mobridge,726685,45.53,-100.43,57601
443,ND,G3800530,Dickinson Municipal Ap,727645,46.8,-102.8,
444,ND,G3800550,Minot Faa Ap,727676,48.27,-101.28,58703
445,ND,G3800570,Bismarck Municipal Arpt  Isis,727640,46.77,-100.77,58506
446,ND,G3800590,Bismarck Municipal Arpt  Isis,727640,46.77,-100.77,58506
447,ND,G3800610,Minot Afb,727675,48.42,-101.35,58705
448,ND,G3800630,Devils Lake Awos,727573,48.12,-98.92,
449,ND,G3800650,Bismarck Municipal Arpt  Isis,727640,46.77,-100.77,58506
450,MN,G3800670,Hallock,727478,48.78,-96.95,56728
451,ND,G3800690,Devils Lake Awos,727573,48.12,-98.92,
452,ND,G3800710,Devils Lake Awos,727573,48.12,-98.92,
453,SD,G3800730,Aberdeen Regional Arpt,726590,45.45,-98.42,
454,ND,G3800750,Minot Afb,727675,48.42,-101.35,58705
455,MN,G3800770,Wheaton Ndb  Awos,727533,45.7,-96.5,
456,ND,G3800790,Devils Lake Awos,727573,48.12,-98.92,
457,SD,G3800810,Aberdeen Regional Arpt,726590,45.45,-98.42,
458,ND,G3800830,Minot Faa Ap,727676,48.27,-101.28,58703
459,ND,G3800850,Bismarck Municipal Arpt  Isis,727640,46.77,-100.77,58506
460,ND,G3800870,Dickinson Municipal Ap,727645,46.8,-102.8,
461,ND,G3800890,Dickinson Municipal Ap,727645,46.8,-102.8,
462,ND,G3800910,Grand Forks Af,727575,47.97,-97.4,
463,ND,G3800930,Jamestown Municipal Arpt,727535,46.92,-98.68,58401
464,ND,G3800950,Devils Lake Awos,727573,48.12,-98.92,
465,ND,G3800970,Grand Forks Intl AP,727570,47.95,-97.183,
466,ND,G3800990,Grand Forks Af,727575,47.97,-97.4,
467,ND,G3801010,Minot Faa Ap,727676,48.27,-101.28,58703
468,ND,G3801030,Devils Lake Awos,727573,48.12,-98.92,
469,ND,G3801050,Williston Sloulin Intl Ap,727670,48.2,-103.65,58801
470,OH,G3900010,Cincinnati Municipal Ap Lunki,724297,39.1,-84.42,45226
471,OH,G3900030,Findlay Airport,725366,41.02,-83.67,45840
472,OH,G3900050,Mansfield Lahm Rgnl AP,724200,40.817,-82.517,44903
473,OH,G3900070,Youngstown Regional Airport,725250,41.25,-80.67,
474,OH,G3900090,Zanesville Municipal Ap,724286,39.95,-81.9,43701
475,OH,G3900110,Dayton International Airport,724290,39.9,-84.22,45377
476,WV,G3900130,Wheeling Ohio County Ap,724275,40.18,-80.65,26075
477,OH,G3900150,Cincinnati Municipal Ap Lunki,724297,39.1,-84.42,45226
478,OH,G3900170,Dayton International Airport,724290,39.9,-84.22,45377
479,OH,G3900190,Akron Akron Canton Reg Ap,725210,40.92,-81.43,44720
480,OH,G3900210,Dayton Wright Patterson Afb,745700,39.83,-84.05,45433
481,OH,G3900230,Dayton Wright Patterson Afb,745700,39.83,-84.05,45433
482,OH,G3900250,Cincinnati Municipal Ap Lunki,724297,39.1,-84.42,45226
483,OH,G3900270,Dayton Wright Patterson Afb,745700,39.83,-84.05,45433
484,OH,G3900290,Youngstown Regional Airport,725250,41.25,-80.67,
485,OH,G3900310,Zanesville Municipal Ap,724286,39.95,-81.9,43701
486,OH,G3900330,Mansfield Lahm Municipal Arpt,725246,40.82,-82.52,44903
487,OH,G3900350,Burke Lakefront,725245,41.52,-81.68,44114
488,OH,G3900370,Dayton International Airport,724290,39.9,-84.22,45377
489,OH,G3900390,Toledo Express Airport,725360,41.58,-83.8,43542
490,OH,G3900410,Ohio State Universi,724288,40.07,-83.07,43235
491,OH,G3900430,Mansfield Lahm Municipal Arpt,725246,40.82,-82.52,44903
492,OH,G3900450,Columbus Port Columbus Intl A,724280,39.98,-82.88,43213
493,OH,G3900470,Ohio State Universi,724288,40.07,-83.07,43235
494,OH,G3900490,Ohio State Universi,724288,40.07,-83.07,43235
495,OH,G3900510,Toledo Express Airport,725360,41.58,-83.8,43542
496,WV,G3900530,Huntington Tri State Arpt,724250,38.38,-82.55,25530
497,OH,G3900550,Burke Lakefront,725245,41.52,-81.68,44114
498,OH,G3900570,Dayton Wright Patterson Afb,745700,39.83,-84.05,45433
499,OH,G3900590,Zanesville Municipal Ap,724286,39.95,-81.9,43701
500,OH,G3900610,Cincinnati Municipal Ap Lunki,724297,39.1,-84.42,45226
501,OH,G3900630,Findlay Airport,725366,41.02,-83.67,45840
502,OH,G3900650,Findlay Airport,725366,41.02,-83.67,45840
503,WV,G3900670,Wheeling Ohio County Ap,724275,40.18,-80.65,26075
504,OH,G3900690,Toledo Express Airport,725360,41.58,-83.8,43542
505,OH,G3900710,Dayton Wright Patterson Afb,745700,39.83,-84.05,45433
506,OH,G3900730,Columbus Port Columbus Intl A,724280,39.98,-82.88,43213
507,OH,G3900750,Akron Akron Canton Reg Ap,725210,40.92,-81.43,44720
508,OH,G3900770,Mansfield Lahm Municipal Arpt,725246,40.82,-82.52,44903
509,OH,G3900790,Columbus Port Columbus Intl A,724280,39.98,-82.88,43213
510,WV,G3900810,Wheeling Ohio County Ap,724275,40.18,-80.65,26075
511,OH,G3900830,Mansfield Lahm Rgnl AP,724200,40.817,-82.517,44903
512,OH,G3900850,Burke Lakefront,725245,41.52,-81.68,44114
513,WV,G3900870,Huntington Tri State Arpt,724250,38.38,-82.55,25530
514,OH,G3900890,Columbus Port Columbus Intl A,724280,39.98,-82.88,43213
515,OH,G3900910,Dayton Wright Patterson Afb,745700,39.83,-84.05,45433
516,OH,G3900930,Cleveland Hopkins Intl Ap,725240,41.4,-81.85,44135
517,OH,G3900950,Toledo Express Airport,725360,41.58,-83.8,43542
518,OH,G3900970,Ohio State Universi,724288,40.07,-83.07,43235
519,OH,G3900990,Youngstown Regional Airport,725250,41.25,-80.67,
520,OH,G3901010,Ohio State Universi,724288,40.07,-83.07,43235
521,OH,G3901030,Cleveland Hopkins Intl Ap,725240,41.4,-81.85,44135
522,WV,G3901050,Parkersburg Wood County Ap,724273,39.35,-81.43,26184
523,OH,G3901070,Dayton International Airport,724290,39.9,-84.22,45377
524,OH,G3901090,Dayton International Airport,724290,39.9,-84.22,45377
525,WV,G3901110,Parkersburg Wood County Ap,724273,39.35,-81.43,26184
526,OH,G3901130,Dayton International Airport,724290,39.9,-84.22,45377
527,OH,G3901150,Zanesville Municipal Ap,724286,39.95,-81.9,43701
528,OH,G3901170,Mansfield Lahm Rgnl AP,724200,40.817,-82.517,44903
529,OH,G3901190,Zanesville Municipal Ap,724286,39.95,-81.9,43701
530,OH,G3901210,Zanesville Municipal Ap,724286,39.95,-81.9,43701
531,OH,G3901230,Toledo Express Airport,725360,41.58,-83.8,43542
532,IN,G3901250,Fort Wayne Intl Ap,725330,41.0,-85.2,46809
533,OH,G3901270,Zanesville Municipal Ap,724286,39.95,-81.9,43701
534,OH,G3901290,Columbus Port Columbus Intl A,724280,39.98,-82.88,43213
535,OH,G3901310,Columbus Port Columbus Intl A,724280,39.98,-82.88,43213
536,OH,G3901330,Akron Akron Canton Reg Ap,725210,40.92,-81.43,44720
537,OH,G3901350,Dayton International Airport,724290,39.9,-84.22,45377
538,OH,G3901370,Findlay Airport,725366,41.02,-83.67,45840
539,OH,G3901390,Mansfield Lahm Rgnl AP,724200,40.817,-82.517,44903
540,OH,G3901410,Columbus Port Columbus Intl A,724280,39.98,-82.88,43213
541,OH,G3901430,Findlay Airport,725366,41.02,-83.67,45840
542,WV,G3901450,Huntington Tri State Arpt,724250,38.38,-82.55,25530
543,OH,G3901470,Findlay Airport,725366,41.02,-83.67,45840
544,OH,G3901490,Dayton International Airport,724290,39.9,-84.22,45377
545,OH,G3901510,Akron Akron Canton Reg Ap,725210,40.92,-81.43,44720
546,OH,G3901530,Akron Akron Canton Reg Ap,725210,40.92,-81.43,44720
547,OH,G3901550,Youngstown Regional Airport,725250,41.25,-80.67,
548,OH,G3901570,Akron Akron Canton Reg Ap,725210,40.92,-81.43,44720
549,OH,G3901590,Ohio State Universi,724288,40.07,-83.07,43235
550,IN,G3901610,Fort Wayne Intl Ap,725330,41.0,-85.2,46809
551,OH,G3901630,Columbus Port Columbus Intl A,724280,39.98,-82.88,43213
552,OH,G3901650,Dayton Wright Patterson Afb,745700,39.83,-84.05,45433
553,WV,G3901670,Parkersburg Wood County Ap,724273,39.35,-81.43,26184
554,OH,G3901690,Akron Akron Canton Reg Ap,725210,40.92,-81.43,44720
555,MI,G3901710,Jackson Reynolds Field,725395,42.27,-84.47,49202
556,OH,G3901730,Toledo Express Airport,725360,41.58,-83.8,43542
557,OH,G3901750,Findlay Airport,725366,41.02,-83.67,45840
558,AR,G4000010,Fort Smith Regional Ap,723440,35.33,-94.37,72903
559,OK,G4000030,Vance Afb,723535,36.33,-97.92,73705
560,OK,G4000050,Mcalester Municipal Ap,723566,34.9,-95.78,74501
561,KS,G4000070,Liberal Muni,724516,37.03,-100.97,
562,OK,G4000090,Clinton Sherman,723526,35.33,-99.2,73624
563,OK,G4000110,Vance Afb,723535,36.33,-97.92,73705
564,TX,G4000130,Greenville Majors,722588,33.07,-96.07,75402
565,OK,G4000150,Fort Sill Post Field Af,723550,34.65,-98.4,73507
566,OK,G4000170,Oklahoma City Wiley,723544,35.53,-97.65,73123
567,TX,G4000190,Fort Worth Alliance,722594,32.98,-97.32,76177
568,AR,G4000210,Fort Smith Regional Ap,723440,35.33,-94.37,72903
569,TX,G4000230,Cox Fld,722587,33.63,-95.45,75416
570,KS,G4000250,Liberal Muni,724516,37.03,-100.97,
571,OK,G4000270,Oklahoma City Tinker Afb,723540,35.42,-97.38,73110
572,OK,G4000290,Mcalester Municipal Ap,723566,34.9,-95.78,74501
573,OK,G4000310,Fort Sill Post Field Af,723550,34.65,-98.4,73507
574,OK,G4000330,Lawton Municipal,723575,34.57,-98.42,
575,OK,G4000350,Tulsa International Airport,723560,36.2,-95.88,
576,OK,G4000370,Tulsa International Airport,723560,36.2,-95.88,
577,OK,G4000390,Clinton Sherman,723526,35.33,-99.2,73624
578,OK,G4000410,Tulsa International Airport,723560,36.2,-95.88,
579,OK,G4000430,Clinton Sherman,723526,35.33,-99.2,73624
580,OK,G4000450,Gage Airport,723527,36.3,-99.77,73843
581,OK,G4000470,Vance Afb,723535,36.33,-97.92,73705
582,OK,G4000490,Oklahoma City Tinker Afb,723540,35.42,-97.38,73110
583,OK,G4000510,Oklahoma City Will Rogers Wor,723530,35.38,-97.6,73159
584,OK,G4000530,Ponca City Municipal Ap  Sgp,723546,36.61,-97.49,74640
585,OK,G4000550,Altus Afb,723520,34.65,-99.27,
586,TX,G4000570,Childress Municipal Ap,723604,34.43,-100.28,79201
587,OK,G4000590,Gage-Shattuck AP,746410,36.3,-99.767,73843
588,OK,G4000610,Mcalester Municipal Ap,723566,34.9,-95.78,74501
589,OK,G4000630,Mcalester Municipal Ap,723566,34.9,-95.78,74501
590,OK,G4000650,Altus Afb,723520,34.65,-99.27,
591,TX,G4000670,Wichita Falls Municipal Arpt,723510,33.98,-98.5,76311
592,OK,G4000690,Mcalester Municipal Ap,723566,34.9,-95.78,74501
593,OK,G4000710,Ponca City Rgnl AP,724530,36.729,-97.1,74601
594,OK,G4000730,Vance Afb,723535,36.33,-97.92,73705
595,OK,G4000750,Hobart Municipal Ap,723525,35.0,-99.05,
596,OK,G4000770,Mcalester Municipal Ap,723566,34.9,-95.78,74501
597,AR,G4000790,Fort Smith Regional Ap,723440,35.33,-94.37,72903
598,OK,G4000810,Stillwater Rgnl,723545,36.15,-97.08,74075
599,OK,G4000830,Oklahoma City Wiley,723544,35.53,-97.65,73123
600,TX,G4000850,Fort Worth Alliance,722594,32.98,-97.32,76177
601,OK,G4000870,Oklahoma City Will Rogers Wor,723530,35.38,-97.6,73159
602,TX,G4000890,Cox Fld,722587,33.63,-95.45,75416
603,OK,G4000910,Mcalester Municipal Ap,723566,34.9,-95.78,74501
604,OK,G4000930,Vance Afb,723535,36.33,-97.92,73705
605,TX,G4000950,Dallas Addison Arpt,722598,32.97,-96.83,75001
606,OK,G4000970,Tulsa International Airport,723560,36.2,-95.88,
607,OK,G4000990,Oklahoma City Tinker Afb,723540,35.42,-97.38,73110
608,OK,G4001010,Tulsa International Airport,723560,36.2,-95.88,
609,OK,G4001030,Stillwater Rgnl,723545,36.15,-97.08,74075
610,OK,G4001050,Bartlesville Philli,723565,36.77,-96.02,74003
611,OK,G4001070,Mcalester Municipal Ap,723566,34.9,-95.78,74501
612,OK,G4001090,Oklahoma City Wiley,723544,35.53,-97.65,73123
613,OK,G4001110,Tulsa International Airport,723560,36.2,-95.88,
614,OK,G4001130,Bartlesville Philli,723565,36.77,-96.02,74003
615,OK,G4001150,Bartlesville Philli,723565,36.77,-96.02,74003
616,OK,G4001170,Stillwater Rgnl,723545,36.15,-97.08,74075
617,OK,G4001190,Stillwater Rgnl,723545,36.15,-97.08,74075
618,OK,G4001210,Mcalester Municipal Ap,723566,34.9,-95.78,74501
619,OK,G4001230,Mcalester Municipal Ap,723566,34.9,-95.78,74501
620,OK,G4001250,Oklahoma City Tinker Afb,723540,35.42,-97.38,73110
621,OK,G4001270,Mcalester Municipal Ap,723566,34.9,-95.78,74501
622,OK,G4001290,Clinton Sherman,723526,35.33,-99.2,73624
623,OK,G4001310,Tulsa International Airport,723560,36.2,-95.88,
624,OK,G4001330,Oklahoma City Tinker Afb,723540,35.42,-97.38,73110
625,AR,G4001350,Fort Smith Regional Ap,723440,35.33,-94.37,72903
626,OK,G4001370,Fort Sill Post Field Af,723550,34.65,-98.4,73507
627,TX,G4001390,Dalhart Municipal Ap,722636,36.02,-102.55,79022
628,OK,G4001410,Altus Afb,723520,34.65,-99.27,
629,OK,G4001430,Tulsa International Airport,723560,36.2,-95.88,
630,OK,G4001450,Tulsa International Airport,723560,36.2,-95.88,
631,OK,G4001470,Bartlesville Philli,723565,36.77,-96.02,74003
632,OK,G4001490,Clinton Sherman,723526,35.33,-99.2,73624
633,OK,G4001510,Vance Afb,723535,36.33,-97.92,73705
634,OK,G4001530,Gage-Shattuck AP,746410,36.3,-99.767,73843
635,OR,G4100010,Baker Municipal Ap,726886,44.83,-117.82,97814
636,OR,G4100030,Corvallis Muni,726945,44.48,-123.28,
637,OR,G4100050,Aurora State,726959,45.25,-122.77,97002
638,OR,G4100070,Astoria Regional Airport,727910,46.15,-123.88,97146
639,WA,G4100090,Kelso Wb Ap,727924,46.13,-122.9,98626
640,OR,G4100110,North Bend Muni Airport,726917,43.42,-124.25,97459
641,OR,G4100130,Redmond Muni AP-Roberts Field,726920,44.25,-121.167,97756
642,CA,G4100150,Crescent City Faa Ai,725946,41.78,-124.23,
643,OR,G4100170,Redmond Roberts Field,726835,44.25,-121.17,
644,OR,G4100190,Roseburg Regional Ap,726904,43.23,-123.35,97470
645,WA,G4100210,The Dalles Municipal Arpt,726988,45.62,-121.15,98617
646,OR,G4100230,Burns Municipal Arpt  Uo,726830,43.52,-119.02,
647,OR,G4100250,Burns Municipal Arpt  Uo,726830,43.52,-119.02,
648,WA,G4100270,The Dalles Municipal Arpt,726988,45.62,-121.15,98617
649,OR,G4100290,Medford Rogue Valley Intl Ap,725970,42.19,-122.7,97520
650,OR,G4100310,Redmond Roberts Field,726835,44.25,-121.17,
651,OR,G4100330,Sexton Summit,725975,42.6,-123.37,
652,OR,G4100350,Klamath Falls Intl Ap  Uo,725895,42.22,-121.74,97603
653,OR,G4100370,Lakeview  Awos,725976,42.17,-120.4,97630
654,OR,G4100390,Eugene Mahlon Sweet Arpt  Uo,726930,44.05,-123.07,97403
655,OR,G4100410,Corvallis Muni,726945,44.48,-123.28,
656,OR,G4100430,Corvallis Muni,726945,44.48,-123.28,
657,ID,G4100450,Caldwell  Awos,726813,43.63,-116.63,83651
658,OR,G4100470,Salem Mcnary Field,726940,44.9,-123.0,97302
659,WA,G4100490,Pasco,727845,46.27,-119.12,99301
660,OR,G4100510,Portland International Ap,726980,45.6,-122.62,97211
661,OR,G4100530,Salem Mcnary Field,726940,44.9,-123.0,97302
662,WA,G4100550,The Dalles Municipal Arpt,726988,45.62,-121.15,98617
663,OR,G4100570,Astoria Regional Airport,727910,46.15,-123.88,97146
664,OR,G4100590,Pendleton E Or Regional Ap,726880,45.7,-118.83,
665,OR,G4100610,La Grande Muni Ap,726884,45.28,-118.0,
666,OR,G4100630,La Grande Muni Ap,726884,45.28,-118.0,
667,WA,G4100650,The Dalles Municipal Arpt,726988,45.62,-121.15,98617
668,OR,G4100670,Portland Hillsboro,726986,45.53,-122.95,97124
669,OR,G4100690,Redmond Muni AP-Roberts Field,726920,44.25,-121.167,97756
670,OR,G4100710,Portland Hillsboro,726986,45.53,-122.95,97124
671,PA,G4200010,Harrisburg Capital City Arpt,725118,40.22,-76.85,17070
672,PA,G4200030,Pittsburgh Allegheny Co Ap,725205,40.35,-79.92,15122
673,PA,G4200050,Butler Co   Awos,725124,40.78,-79.95,16002
674,PA,G4200070,Pittsburgh International Ap,725200,40.5,-80.23,15231
675,PA,G4200090,Altoona Blair Co Arpt,725126,40.3,-78.32,16662
676,PA,G4200110,Reading Spaatz Field,725103,40.37,-75.97,19601
677,PA,G4200130,Altoona Blair Co Arpt,725126,40.3,-78.32,16662
678,NY,G4200150,Elmira Corning Regional Ap,725156,42.17,-76.9,14845
679,PA,G4200170,Willow Grove Nas,724086,40.2,-75.15,18976
680,PA,G4200190,Butler Co   Awos,725124,40.78,-79.95,16002
681,PA,G4200210,Johnstown Cambria County Ap,725127,40.32,-78.83,15904
682,PA,G4200230,Bradford Regional Ap,725266,41.8,-78.63,
683,PA,G4200250,Allentown Lehigh Valley Intl,725170,40.65,-75.45,18032
684,PA,G4200270,State College  Penn State   Su,725128,40.72,-77.93,16865
685,DE,G4200290,Wilmington New Castle Cnty Ap,724089,39.67,-75.6,19720
686,PA,G4200310,Franklin,725267,41.38,-79.87,
687,PA,G4200330,Bradford Regional Ap,725266,41.8,-78.63,
688,PA,G4200350,Williamsport Regional Ap,725140,41.25,-76.92,17754
689,PA,G4200370,Williamsport Regional Ap,725140,41.25,-76.92,17754
690,PA,G4200390,Franklin,725267,41.38,-79.87,
691,PA,G4200410,Harrisburg Capital City Arpt,725118,40.22,-76.85,17070
692,PA,G4200430,Harrisburg Capital City Arpt,725118,40.22,-76.85,17070
693,PA,G4200450,Philadelphia International Ap,724080,39.87,-75.23,19113
694,PA,G4200470,Bradford Regional Ap,725266,41.8,-78.63,
695,PA,G4200490,Erie International Ap,725260,42.08,-80.18,16505
696,WV,G4200510,Morgantown Hart Field,724176,39.65,-79.92,26508
697,PA,G4200530,Dubois Faa Ap,725125,41.18,-78.9,15851
698,MD,G4200550,Hagerstown Rgnl Ric,724066,39.7,-77.73,21767
699,MD,G4200570,Hagerstown Rgnl Ric,724066,39.7,-77.73,21767
700,WV,G4200590,Morgantown Hart Field,724176,39.65,-79.92,26508
701,PA,G4200610,State College  Penn State   Su,725128,40.72,-77.93,16865
702,PA,G4200630,Johnstown Cambria County Ap,725127,40.32,-78.83,15904
703,PA,G4200650,Dubois Faa Ap,725125,41.18,-78.9,15851
704,PA,G4200670,State College  Penn State   Su,725128,40.72,-77.93,16865
705,PA,G4200690,Wilkes Barre Scranton Intl Ap,725130,41.33,-75.73,18641
706,PA,G4200710,Lancaster,725116,40.12,-76.3,17543
707,OH,G4200730,Youngstown Regional Airport,725250,41.25,-80.67,
708,PA,G4200750,Lancaster,725116,40.12,-76.3,17543
709,PA,G4200770,Allentown Lehigh Valley Intl,725170,40.65,-75.45,18032
710,PA,G4200790,Wilkes Barre Scranton Intl Ap,725130,41.33,-75.73,18641
711,PA,G4200810,Williamsport Regional Ap,725140,41.25,-76.92,17754
712,PA,G4200830,Bradford Regional Ap,725266,41.8,-78.63,
713,OH,G4200850,Youngstown Regional Airport,725250,41.25,-80.67,
714,PA,G4200870,State College  Penn State   Su,725128,40.72,-77.93,16865
715,PA,G4200890,Allentown Lehigh Valley Intl,725170,40.65,-75.45,18032
716,PA,G4200910,Willow Grove Nas,724086,40.2,-75.15,18976
717,PA,G4200930,Williamsport Regional Ap,725140,41.25,-76.92,17754
718,PA,G4200950,Allentown Lehigh Valley Intl,725170,40.65,-75.45,18032
719,PA,G4200970,Williamsport Regional Ap,725140,41.25,-76.92,17754
720,PA,G4200990,Harrisburg Capital City Arpt,725118,40.22,-76.85,17070
721,PA,G4201010,Philadelphia Ne Philadelphia,724085,40.08,-75.02,19114
722,PA,G4201030,Wilkes Barre Scranton Intl Ap,725130,41.33,-75.73,18641
723,PA,G4201050,Bradford Regional Ap,725266,41.8,-78.63,
724,PA,G4201070,Reading Spaatz Field,725103,40.37,-75.97,19601
725,PA,G4201090,Williamsport Regional Ap,725140,41.25,-76.92,17754
726,PA,G4201110,Johnstown Cambria County Ap,725127,40.32,-78.83,15904
727,PA,G4201130,Williamsport Regional Ap,725140,41.25,-76.92,17754
728,NY,G4201150,Binghamton Edwin A Link Field,725150,42.2,-75.98,13905
729,NY,G4201170,Elmira Corning Regional Ap,725156,42.17,-76.9,14845
730,PA,G4201190,Williamsport Regional Ap,725140,41.25,-76.92,17754
731,PA,G4201210,Franklin,725267,41.38,-79.87,
732,NY,G4201230,Jamestown  Awos,725235,42.15,-79.27,14701
733,PA,G4201250,Washington  Awos,725117,40.13,-80.28,15301
734,PA,G4201270,Wilkes Barre Scranton Intl Ap,725130,41.33,-75.73,18641
735,PA,G4201290,Pittsburgh Allegheny Co Ap,725205,40.35,-79.92,15122
736,PA,G4201310,Wilkes Barre Scranton Intl Ap,725130,41.33,-75.73,18641
737,PA,G4201330,Harrisburg Capital City Arpt,725118,40.22,-76.85,17070
738,RI,G4400010,Providence T F Green State Ar,725070,41.72,-71.43,02886
739,RI,G4400030,Providence T F Green State Ar,725070,41.72,-71.43,02886
740,RI,G4400050,Providence T F Green State Ar,725070,41.72,-71.43,02886
741,RI,G4400070,Pawtucket  Awos,725054,41.92,-71.5,02917
742,RI,G4400090,Block Island State Arpt,725058,41.17,-71.58,02807
743,SC,G4500010,Anderson Rgnl AP,723190,34.5,-82.717,29626
744,GA,G4500030,Augusta Bush Field,722180,33.37,-81.97,
745,SC,G4500050,Beaufort Mcas,722085,32.48,-80.72,29904
746,SC,G4500070,Anderson Rgnl AP,723190,34.5,-82.717,29626
747,SC,G4500090,Columbia Metro Arpt,723100,33.95,-81.12,29170
748,GA,G4500110,Augusta Bush Field,722180,33.37,-81.97,
749,SC,G4500130,Beaufort Mcas,722085,32.48,-80.72,29904
750,SC,G4500150,Charleston Intl Arpt,722080,32.9,-80.03,29406
751,SC,G4500170,Columbia Metro Arpt,723100,33.95,-81.12,29170
752,SC,G4500190,Charleston Intl Arpt,722080,32.9,-80.03,29406
753,NC,G4500210,Hickory Regional Ap,723145,35.73,-81.38,28601
754,NC,G4500230,Charlotte Douglas Intl Arpt,723140,35.22,-80.95,28208
755,SC,G4500250,Florence Regional Ap,723106,34.18,-79.73,29506
756,SC,G4500270,Sumter Shaw Afb,747900,33.97,-80.47,29152
757,SC,G4500290,Beaufort Mcas,722085,32.48,-80.72,29904
758,SC,G4500310,Florence Regional Ap,723106,34.18,-79.73,29506
759,SC,G4500330,Florence Regional Ap,723106,34.18,-79.73,29506
760,SC,G4500350,Charleston Intl Arpt,722080,32.9,-80.03,29406
761,GA,G4500370,Augusta Bush Field,722180,33.37,-81.97,
762,SC,G4500390,Columbia Metro Arpt,723100,33.95,-81.12,29170
763,SC,G4500410,Florence Regional Ap,723106,34.18,-79.73,29506
764,SC,G4500430,Myrtle Beach Afb,747910,33.68,-78.93,29577
765,SC,G4500450,Greenville Downtown Ap,723119,34.85,-82.35,29607
766,SC,G4500470,Anderson Rgnl AP,723190,34.5,-82.717,29626
767,SC,G4500490,Beaufort Mcas,722085,32.48,-80.72,29904
768,SC,G4500510,Myrtle Beach Afb,747910,33.68,-78.93,29577
769,SC,G4500530,Beaufort Mcas,722085,32.48,-80.72,29904
770,SC,G4500550,Sumter Shaw Afb,747900,33.97,-80.47,29152
771,NC,G4500570,Charlotte Douglas Intl Arpt,723140,35.22,-80.95,28208
772,SC,G4500590,Greer GreenvL Spartanbrg Ap,723120,34.9,-82.22,29651
773,SC,G4500610,Sumter Shaw Afb,747900,33.97,-80.47,29152
774,SC,G4500630,Columbia Metro Arpt,723100,33.95,-81.12,29170
775,GA,G4500650,Augusta Bush Field,722180,33.37,-81.97,
776,SC,G4500670,Florence Regional Ap,723106,34.18,-79.73,29506
777,SC,G4500690,Florence Regional Ap,723106,34.18,-79.73,29506
778,SC,G4500710,Columbia Metro Arpt,723100,33.95,-81.12,29170
779,SC,G4500730,Anderson County Ap,723125,34.5,-82.72,29626
780,SC,G4500750,Columbia Metro Arpt,723100,33.95,-81.12,29170
781,SC,G4500770,Anderson Rgnl AP,723190,34.5,-82.717,29626
782,SC,G4500790,Columbia Metro Arpt,723100,33.95,-81.12,29170
783,SC,G4500810,Columbia Metro Arpt,723100,33.95,-81.12,29170
784,SC,G4500830,Greer GreenvL Spartanbrg Ap,723120,34.9,-82.22,29651
785,SC,G4500850,Sumter Shaw Afb,747900,33.97,-80.47,29152
786,SC,G4500870,Greer GreenvL Spartanbrg Ap,723120,34.9,-82.22,29651
787,SC,G4500890,Florence Regional Ap,723106,34.18,-79.73,29506
788,NC,G4500910,Charlotte Douglas Intl Arpt,723140,35.22,-80.95,28208
789,SD,G4600030,Mitchell  Awos,726545,43.77,-98.03,
790,SD,G4600050,Huron Regional Arpt,726540,44.4,-98.22,57350
791,NE,G4600070,Valentine Miller Field,725670,42.87,-100.55,69201
792,SD,G4600090,Chan Gurney Muni,726525,42.92,-97.38,
793,SD,G4600110,Brookings  Awos,726515,44.3,-96.82,57006
794,SD,G4600130,Aberdeen Regional Arpt,726590,45.45,-98.42,
795,SD,G4600150,Mitchell  Awos,726545,43.77,-98.03,
796,SD,G4600170,Pierre Municipal Ap,726686,44.38,-100.28,57501
797,SD,G4600190,Ellsworth Afb,726625,44.15,-103.1,57706
798,SD,G4600210,Mobridge,726685,45.53,-100.43,57601
799,SD,G4600230,Mitchell  Awos,726545,43.77,-98.03,
800,SD,G4600250,Watertown Municipal Ap,726546,44.93,-97.15,57201
801,SD,G4600270,Chan Gurney Muni,726525,42.92,-97.38,
802,SD,G4600290,Watertown Municipal Ap,726546,44.93,-97.15,57201
803,SD,G4600310,Mobridge,726685,45.53,-100.43,57601
804,SD,G4600330,Rapid City Regional Arpt,726620,44.05,-103.05,
805,SD,G4600350,Mitchell  Awos,726545,43.77,-98.03,
806,SD,G4600370,Watertown Municipal Ap,726546,44.93,-97.15,57201
807,SD,G4600390,Brookings  Awos,726515,44.3,-96.82,57006
808,SD,G4600410,Mobridge,726685,45.53,-100.43,57601
809,SD,G4600430,Mitchell  Awos,726545,43.77,-98.03,
810,SD,G4600450,Aberdeen Regional Arpt,726590,45.45,-98.42,
811,SD,G4600470,Rapid City Regional Arpt,726620,44.05,-103.05,
812,SD,G4600490,Aberdeen Regional Arpt,726590,45.45,-98.42,
813,MN,G4600510,Wheaton Ndb  Awos,727533,45.7,-96.5,
814,NE,G4600530,O Neill Baker Field,725566,42.47,-98.68,
815,SD,G4600550,Pierre Municipal Ap,726686,44.38,-100.28,57501
816,SD,G4600570,Watertown Municipal Ap,726546,44.93,-97.15,57201
817,SD,G4600590,Huron Regional Arpt,726540,44.4,-98.22,57350
818,SD,G4600610,Mitchell  Awos,726545,43.77,-98.03,
819,ND,G4600630,Dickinson Municipal Ap,727645,46.8,-102.8,
820,SD,G4600650,Pierre Municipal Ap,726686,44.38,-100.28,57501
821,SD,G4600670,Mitchell  Awos,726545,43.77,-98.03,
822,SD,G4600690,Pierre Municipal Ap,726686,44.38,-100.28,57501
823,SD,G4600710,Rapid City Regional Arpt,726620,44.05,-103.05,
824,SD,G4600730,Huron Regional Arpt,726540,44.4,-98.22,57350
825,SD,G4600750,Pierre Municipal Ap,726686,44.38,-100.28,57501
826,SD,G4600770,Brookings  Awos,726515,44.3,-96.82,57006
827,SD,G4600790,Brookings  Awos,726515,44.3,-96.82,57006
828,SD,G4600810,Ellsworth Afb,726625,44.15,-103.1,57706
829,SD,G4600830,Sioux Falls Foss Field,726510,43.58,-96.75,
830,SD,G4600850,Pierre Municipal Ap,726686,44.38,-100.28,57501
831,SD,G4600870,Sioux Falls Foss Field,726510,43.58,-96.75,
832,SD,G4600890,Aberdeen Regional Arpt,726590,45.45,-98.42,
833,SD,G4600910,Aberdeen Regional Arpt,726590,45.45,-98.42,
834,SD,G4600930,Ellsworth Afb,726625,44.15,-103.1,57706
835,NE,G4600950,Valentine Miller Field,725670,42.87,-100.55,69201
836,SD,G4600970,Mitchell  Awos,726545,43.77,-98.03,
837,SD,G4600990,Sioux Falls Foss Field,726510,43.58,-96.75,
838,SD,G4601010,Brookings  Awos,726515,44.3,-96.82,57006
839,SD,G4601030,Ellsworth Afb,726625,44.15,-103.1,57706
840,ND,G4601050,Dickinson Municipal Ap,727645,46.8,-102.8,
841,SD,G4601070,Mobridge,726685,45.53,-100.43,57601
842,MN,G4601090,Wheaton Ndb  Awos,727533,45.7,-96.5,
843,SD,G4601110,Mitchell  Awos,726545,43.77,-98.03,
844,SD,G4601150,Aberdeen Regional Arpt,726590,45.45,-98.42,
845,SD,G4601170,Pierre Municipal Ap,726686,44.38,-100.28,57501
846,SD,G4601190,Pierre Municipal Ap,726686,44.38,-100.28,57501
847,NE,G4601210,Valentine Miller Field,725670,42.87,-100.55,69201
848,NE,G4601230,Ainsworth Municipal,725556,42.58,-100.0,
849,SD,G4601250,Sioux Falls Foss Field,726510,43.58,-96.75,
850,IA,G4601270,Le Mars,725484,42.78,-96.2,51057
851,SD,G4601290,Mobridge,726685,45.53,-100.43,57601
852,SD,G4601350,Chan Gurney Muni,726525,42.92,-97.38,
853,SD,G4601370,Mobridge,726685,45.53,-100.43,57601
854,TN,G4700010,Knoxville Mcghee Tyson Ap,723260,35.82,-83.98,37701
855,TN,G4700030,Nashville International Ap,723270,36.12,-86.68,37214
856,KY,G4700050,Fort Campbell Aaf,746710,36.67,-87.48,42223
857,TN,G4700070,Crossville Meml AP-Whitson Field,723250,35.95,-85.083,38555
858,TN,G4700090,Knoxville Mcghee Tyson Ap,723260,35.82,-83.98,37701
859,TN,G4700110,Chattanooga Lovell Field Ap,723240,35.03,-85.2,37421
860,TN,G4700130,Knoxville Mcghee Tyson Ap,723260,35.82,-83.98,37701
861,TN,G4700150,Nashville International Ap,723270,36.12,-86.68,37214
862,KY,G4700170,Paducah Barkley Regional Ap,724350,37.05,-88.77,42086
863,TN,G4700190,Bristol-Tri-Cities Rgnl AP,723350,36.467,-82.4,
864,TN,G4700210,Nashville International Ap,723270,36.12,-86.68,37214
865,TN,G4700230,Jackson Mckellar Sipes Regl A,723346,35.6,-88.92,38391
866,KY,G4700250,London Corbin Ap,724243,37.08,-84.08,40744
867,TN,G4700270,Crossville Meml AP-Whitson Field,723250,35.95,-85.083,38555
868,TN,G4700290,Knoxville Mcghee Tyson Ap,723260,35.82,-83.98,37701
869,TN,G4700310,Nashville International Ap,723270,36.12,-86.68,37214
870,TN,G4700330,Jackson Mckellar Sipes Regl A,723346,35.6,-88.92,38391
871,TN,G4700350,Crossville Memorial Ap,723265,35.95,-85.08,38555
872,TN,G4700370,Nashville International Ap,723270,36.12,-86.68,37214
873,TN,G4700390,Jackson Mckellar Sipes Regl A,723346,35.6,-88.92,38391
874,TN,G4700410,Crossville Meml AP-Whitson Field,723250,35.95,-85.083,38555
875,KY,G4700430,Fort Campbell Aaf,746710,36.67,-87.48,42223
876,TN,G4700450,Dyersburg Municipal Ap,723347,36.02,-89.4,38024
877,TN,G4700470,Memphis International Ap,723340,35.07,-89.98,38131
878,TN,G4700490,Crossville Memorial Ap,723265,35.95,-85.08,38555
879,TN,G4700510,Chattanooga Lovell Field Ap,723240,35.03,-85.2,37421
880,TN,G4700530,Jackson Mckellar Sipes Regl A,723346,35.6,-88.92,38391
881,TN,G4700550,Nashville International Ap,723270,36.12,-86.68,37214
882,TN,G4700570,Knoxville Mcghee Tyson Ap,723260,35.82,-83.98,37701
883,TN,G4700590,Bristol-Tri-Cities Rgnl AP,723350,36.467,-82.4,
884,TN,G4700610,Chattanooga Lovell Field Ap,723240,35.03,-85.2,37421
885,TN,G4700630,Knoxville Mcghee Tyson Ap,723260,35.82,-83.98,37701
886,TN,G4700650,Chattanooga Lovell Field Ap,723240,35.03,-85.2,37421
887,TN,G4700670,Bristol Tri City Airport,723183,36.47,-82.4,38137
888,TN,G4700690,Jackson Mckellar Sipes Regl A,723346,35.6,-88.92,38391
889,AL,G4700710,Muscle Shoals Regional Ap,723235,34.75,-87.6,35661
890,TN,G4700730,Bristol-Tri-Cities Rgnl AP,723350,36.467,-82.4,
891,TN,G4700750,Jackson Mckellar Sipes Regl A,723346,35.6,-88.92,38391
892,TN,G4700770,Jackson Mckellar Sipes Regl A,723346,35.6,-88.92,38391
893,KY,G4700790,Paducah Barkley Regional Ap,724350,37.05,-88.77,42086
894,TN,G4700810,Nashville International Ap,723270,36.12,-86.68,37214
895,KY,G4700830,Fort Campbell Aaf,746710,36.67,-87.48,42223
896,KY,G4700850,Fort Campbell Aaf,746710,36.67,-87.48,42223
897,TN,G4700870,Crossville Meml AP-Whitson Field,723250,35.95,-85.083,38555
898,TN,G4700890,Knoxville Mcghee Tyson Ap,723260,35.82,-83.98,37701
899,VA,G4700910,Abington,724058,36.68,-82.03,24211
900,TN,G4700930,Knoxville Mcghee Tyson Ap,723260,35.82,-83.98,37701
901,TN,G4700950,Dyersburg Municipal Ap,723347,36.02,-89.4,38024
902,TN,G4700970,Dyersburg Municipal Ap,723347,36.02,-89.4,38024
903,TN,G4700990,Nashville International Ap,723270,36.12,-86.68,37214
904,TN,G4701010,Nashville International Ap,723270,36.12,-86.68,37214
905,TN,G4701030,Nashville International Ap,723270,36.12,-86.68,37214
906,TN,G4701050,Knoxville Mcghee Tyson Ap,723260,35.82,-83.98,37701
907,TN,G4701070,Crossville Memorial Ap,723265,35.95,-85.08,38555
908,TN,G4701090,Jackson Mckellar Sipes Regl A,723346,35.6,-88.92,38391
909,KY,G4701110,Bowling Green Warren Co Ap,746716,36.98,-86.43,42103
910,TN,G4701130,Jackson Mckellar Sipes Regl A,723346,35.6,-88.92,38391
911,TN,G4701150,Chattanooga Lovell Field Ap,723240,35.03,-85.2,37421
912,TN,G4701170,Nashville International Ap,723270,36.12,-86.68,37214
913,TN,G4701190,Nashville International Ap,723270,36.12,-86.68,37214
914,TN,G4701210,Crossville Memorial Ap,723265,35.95,-85.08,38555
915,TN,G4701230,Knoxville Mcghee Tyson Ap,723260,35.82,-83.98,37701
916,KY,G4701250,Fort Campbell Aaf,746710,36.67,-87.48,42223
917,TN,G4701270,Nashville International Ap,723270,36.12,-86.68,37214
918,TN,G4701290,Crossville Memorial Ap,723265,35.95,-85.08,38555
919,KY,G4701310,Paducah Barkley Regional Ap,724350,37.05,-88.77,42086
920,TN,G4701330,Crossville Meml AP-Whitson Field,723250,35.95,-85.083,38555
921,KY,G4701350,Fort Campbell Aaf,746710,36.67,-87.48,42223
922,TN,G4701370,Crossville Meml AP-Whitson Field,723250,35.95,-85.083,38555
923,TN,G4701390,Chattanooga Lovell Field Ap,723240,35.03,-85.2,37421
924,TN,G4701410,Crossville Meml AP-Whitson Field,723250,35.95,-85.083,38555
925,TN,G4701430,Crossville Memorial Ap,723265,35.95,-85.08,38555
926,TN,G4701450,Knoxville Mcghee Tyson Ap,723260,35.82,-83.98,37701
927,TN,G4701470,Nashville International Ap,723270,36.12,-86.68,37214
928,TN,G4701490,Nashville International Ap,723270,36.12,-86.68,37214
929,KY,G4701510,London Corbin Ap,724243,37.08,-84.08,40744
930,TN,G4701530,Chattanooga Lovell Field Ap,723240,35.03,-85.2,37421
931,TN,G4701550,Knoxville Mcghee Tyson Ap,723260,35.82,-83.98,37701
932,TN,G4701570,Memphis International Ap,723340,35.07,-89.98,38131
933,TN,G4701590,Nashville International Ap,723270,36.12,-86.68,37214
934,KY,G4701610,Fort Campbell Aaf,746710,36.67,-87.48,42223
935,TN,G4701630,Bristol Tri City Airport,723183,36.47,-82.4,38137
936,TN,G4701650,Nashville International Ap,723270,36.12,-86.68,37214
937,TN,G4701670,Memphis International Ap,723340,35.07,-89.98,38131
938,TN,G4701690,Nashville International Ap,723270,36.12,-86.68,37214
939,TN,G4701710,Bristol-Tri-Cities Rgnl AP,723350,36.467,-82.4,
940,TN,G4701730,Knoxville Mcghee Tyson Ap,723260,35.82,-83.98,37701
941,TN,G4701750,Crossville Meml AP-Whitson Field,723250,35.95,-85.083,38555
942,TN,G4701770,Crossville Meml AP-Whitson Field,723250,35.95,-85.083,38555
943,TN,G4701790,Bristol-Tri-Cities Rgnl AP,723350,36.467,-82.4,
944,AL,G4701810,Muscle Shoals Regional Ap,723235,34.75,-87.6,35661
945,KY,G4701830,Paducah Barkley Regional Ap,724350,37.05,-88.77,42086
946,TN,G4701850,Crossville Meml AP-Whitson Field,723250,35.95,-85.083,38555
947,TN,G4701870,Nashville International Ap,723270,36.12,-86.68,37214
948,TN,G4701890,Nashville International Ap,723270,36.12,-86.68,37214
949,TX,G4800010,Lufkin Angelina Co,722446,31.23,-94.75,75941
950,TX,G4800030,Midland International Ap,722650,31.95,-102.18,79712
951,TX,G4800050,Lufkin Angelina Co,722446,31.23,-94.75,75941
952,TX,G4800070,Rockport Aransas Co,722524,28.08,-97.05,78382
953,TX,G4800090,Wichita Falls Municipal Arpt,723510,33.98,-98.5,76311
954,TX,G4800110,Amarillo International Ap  Can,723630,34.99,-101.9,79015
955,TX,G4800130,San Antonio Stinson,722523,29.33,-98.47,78235
956,TX,G4800150,Houston D W  Hooks,722429,30.07,-95.55,77379
957,NM,G4800170,Clovis Muni   Awos,722689,34.43,-103.08,88135
958,TX,G4800190,Hondo Municipal Ap,722533,29.37,-99.17,78861
959,TX,G4800210,Austin Mueller Municipal Ap  U,722540,30.29,-97.74,78705
960,TX,G4800230,Abilene Regional Ap  Ut,722660,32.47,-99.71,79699
961,TX,G4800250,Corpus Christi Intl Arpt  Ut,722510,27.88,-97.63,78426
962,TX,G4800270,Killeen Muni  Awos,722575,31.08,-97.68,76548
963,TX,G4800290,San Antonio Intl Ap,722530,29.53,-98.47,
964,TX,G4800310,Camp Mabry,722544,30.32,-97.77,78731
965,TX,G4800330,Lubbock International Ap,722670,33.67,-101.82,79350
966,TX,G4800350,Waco Regional Ap,722560,31.62,-97.23,76702
967,AR,G4800370,Texarkana Webb Field,723418,33.45,-94.0,71854
968,TX,G4800390,Houston-Hobby AP,722440,29.65,-95.283,77061
969,TX,G4800410,College Station-Easterwood AP,747460,30.583,-96.367,77862
970,TX,G4800430,Marfa Ap,722640,30.37,-104.02,79843
971,TX,G4800450,Amarillo International Ap  Can,723630,34.99,-101.9,79015
972,TX,G4800470,Kingsville,722516,27.5,-97.82,78316
973,TX,G4800490,Mineral Wells Municipal Ap,722597,32.78,-98.07,76067
974,TX,G4800510,College Station Easterwood Fl,722445,30.58,-96.37,77862
975,TX,G4800530,Georgetown  Awos,722547,30.68,-97.68,78628
976,TX,G4800550,Austin Mueller Municipal Ap  U,722540,30.29,-97.74,78705
977,TX,G4800570,Palacios Municipal Ap,722555,28.72,-96.25,77465
978,TX,G4800590,Abilene Regional Ap  Ut,722660,32.47,-99.71,79699
979,TX,G4800610,Brownsville S Padre Isl Intl,722500,25.9,-97.43,
980,TX,G4800630,Longview Gregg County Ap  Over,722470,32.29,-94.98,75684
981,TX,G4800650,Amarillo International Ap  Can,723630,34.99,-101.9,79015
982,AR,G4800670,Texarkana Webb Field,723418,33.45,-94.0,71854
983,TX,G4800690,Amarillo International Ap  Can,723630,34.99,-101.9,79015
984,TX,G4800710,Houston Ellington Afb  Clear L,722436,29.57,-95.09,77508
985,TX,G4800730,Lufkin Angelina Co,722446,31.23,-94.75,75941
986,TX,G4800750,Childress Municipal Ap,723604,34.43,-100.28,79201
987,TX,G4800770,Wichita Falls Municipal Arpt,723510,33.98,-98.5,76311
988,TX,G4800790,Lubbock International Ap,722670,33.67,-101.82,79350
989,TX,G4800810,San Angelo Mathis Field,722630,31.35,-100.5,76904
990,TX,G4800830,Abilene Regional Ap  Ut,722660,32.47,-99.71,79699
991,TX,G4800850,Dallas Addison Arpt,722598,32.97,-96.83,75001
992,TX,G4800870,Childress Muni AP,723660,34.433,-100.283,79201
993,TX,G4800890,Victoria Regional Ap,722550,28.87,-96.93,
994,TX,G4800910,Randolph Afb,722536,29.53,-98.28,78150
995,TX,G4800930,Mineral Wells Municipal Ap,722597,32.78,-98.07,76067
996,TX,G4800950,San Angelo Mathis Field,722630,31.35,-100.5,76904
997,TX,G4800970,Fort Worth Alliance,722594,32.98,-97.32,76177
998,TX,G4800990,Fort Hood,722570,31.13,-97.72,76541
999,TX,G4801010,Childress Municipal Ap,723604,34.43,-100.28,79201
1000,TX,G4801030,Midland International Ap,722650,31.95,-102.18,79712
1001,TX,G4801050,San Angelo Mathis Field,722630,31.35,-100.5,76904
1002,TX,G4801070,Lubbock International Ap,722670,33.67,-101.82,79350
1003,TX,G4801090,Marfa Ap,722640,30.37,-104.02,79843
1004,TX,G4801110,Dalhart Municipal Ap,722636,36.02,-102.55,79022
1005,TX,G4801130,Dallas Love Field,722583,32.85,-96.85,75235
1006,TX,G4801150,Midland International Ap,722650,31.95,-102.18,79712
1007,TX,G4801170,Amarillo International Ap  Can,723630,34.99,-101.9,79015
1008,TX,G4801190,Cox Fld,722587,33.63,-95.45,75416
1009,TX,G4801210,Dallas Fort Worth Intl Ap,722590,32.9,-97.02,75261
1010,TX,G4801230,Victoria Regional Ap,722550,28.87,-96.93,
1011,TX,G4801250,Lubbock International Ap,722670,33.67,-101.82,79350
1012,TX,G4801270,Cotulla Faa Ap,722526,28.45,-99.22,78014
1013,TX,G4801290,Amarillo International Ap  Can,723630,34.99,-101.9,79015
1014,TX,G4801310,Alice Intl Ap,722517,27.73,-98.03,78332
1015,TX,G4801330,Mineral Wells Municipal Ap,722597,32.78,-98.07,76067
1016,TX,G4801350,Midland International Ap,722650,31.95,-102.18,79712
1017,TX,G4801370,Del Rio Laughlin Afb,722615,29.37,-100.78,78843
1018,TX,G4801390,Dallas Redbird Arpt,722599,32.68,-96.87,75237
1019,TX,G4801410,El Paso International Ap  Ut,722700,31.77,-106.5,79902
1020,TX,G4801430,Mineral Wells Municipal Ap,722597,32.78,-98.07,76067
1021,TX,G4801450,Mc Gregor  Awos,722563,31.48,-97.32,
1022,TX,G4801470,Greenville Majors,722588,33.07,-96.07,75402
1023,TX,G4801490,College Station Easterwood Fl,722445,30.58,-96.37,77862
1024,TX,G4801530,Amarillo International Ap  Can,723630,34.99,-101.9,79015
1025,TX,G4801550,Childress Municipal Ap,723604,34.43,-100.28,79201
1026,TX,G4801570,Houston-Hobby AP,722440,29.65,-95.283,77061
1027,TX,G4801590,Cox Fld,722587,33.63,-95.45,75416
1028,TX,G4801610,Waco Regional Ap,722560,31.62,-97.23,76702
1029,TX,G4801630,Cotulla Faa Ap,722526,28.45,-99.22,78014
1030,TX,G4801650,Midland International Ap,722650,31.95,-102.18,79712
1031,TX,G4801670,Houston Ellington Afb  Clear L,722436,29.57,-95.09,77508
1032,TX,G4801690,Lubbock International Ap,722670,33.67,-101.82,79350
1033,TX,G4801710,San Antonio Intl Ap,722530,29.53,-98.47,
1034,TX,G4801730,Midland International Ap,722650,31.95,-102.18,79712
1035,TX,G4801750,Victoria Regional Ap,722550,28.87,-96.93,
1036,TX,G4801770,Randolph Afb,722536,29.53,-98.28,78150
1037,TX,G4801790,Amarillo International Ap  Can,723630,34.99,-101.9,79015
1038,TX,G4801810,Dallas Addison Arpt,722598,32.97,-96.83,75001
1039,TX,G4801830,Longview Gregg County Ap  Over,722470,32.29,-94.98,75684
1040,TX,G4801850,College Station-Easterwood AP,747460,30.583,-96.367,77862
1041,TX,G4801870,Randolph Afb,722536,29.53,-98.28,78150
1042,TX,G4801890,Amarillo International Ap  Can,723630,34.99,-101.9,79015
1043,TX,G4801910,Childress Muni AP,723660,34.433,-100.283,79201
1044,TX,G4801930,Mineral Wells Municipal Ap,722597,32.78,-98.07,76067
1045,TX,G4801950,Dalhart Municipal Ap,722636,36.02,-102.55,79022
1046,TX,G4801970,Childress Municipal Ap,723604,34.43,-100.28,79201
1047,TX,G4801990,Port Arthur Jefferson County,722410,29.95,-94.02,77705
1048,TX,G4802010,Houston Bush Intercontinental,722430,30.0,-95.37,77073
1049,LA,G4802030,Shreveport Regional Arpt,722480,32.45,-93.82,71109
1050,TX,G4802050,Dalhart Muni AP,747360,36.017,-102.55,79022
1051,TX,G4802070,Abilene Regional Ap  Ut,722660,32.47,-99.71,79699
1052,TX,G4802090,Austin Mueller Municipal Ap  U,722540,30.29,-97.74,78705
1053,TX,G4802110,Childress Muni AP,723660,34.433,-100.283,79201
1054,TX,G4802130,Tyler Pounds Fld,722448,32.35,-95.4,75704
1055,TX,G4802150,Mcallen Miller Intl Ap  Edinbu,722506,26.31,-98.17,78541
1056,TX,G4802170,Waco Regional Ap,722560,31.62,-97.23,76702
1057,TX,G4802190,Lubbock International Ap,722670,33.67,-101.82,79350
1058,TX,G4802210,Mineral Wells Municipal Ap,722597,32.78,-98.07,76067
1059,TX,G4802230,Greenville Majors,722588,33.07,-96.07,75402
1060,TX,G4802250,Lufkin Angelina Co,722446,31.23,-94.75,75941
1061,TX,G4802270,Midland International Ap,722650,31.95,-102.18,79712
1062,TX,G4802290,El Paso International Ap  Ut,722700,31.77,-106.5,79902
1063,TX,G4802310,Greenville Majors,722588,33.07,-96.07,75402
1064,TX,G4802330,Amarillo International Ap  Can,723630,34.99,-101.9,79015
1065,TX,G4802350,San Angelo Mathis Field,722630,31.35,-100.5,76904
1066,TX,G4802370,Mineral Wells Municipal Ap,722597,32.78,-98.07,76067
1067,TX,G4802390,Victoria Regional Ap,722550,28.87,-96.93,
1068,TX,G4802410,Port Arthur Jefferson County,722410,29.95,-94.02,77705
1069,TX,G4802430,Marfa Ap,722640,30.37,-104.02,79843
1070,TX,G4802450,Port Arthur Jefferson County,722410,29.95,-94.02,77705
1071,TX,G4802470,Alice Intl Ap,722517,27.73,-98.03,78332
1072,TX,G4802490,Alice Intl Ap,722517,27.73,-98.03,78332
1073,TX,G4802510,Fort Worth Nas,722595,32.77,-97.45,76108
1074,TX,G4802530,Abilene Regional Ap  Ut,722660,32.47,-99.71,79699
1075,TX,G4802550,San Antonio Stinson,722523,29.33,-98.47,78235
1076,TX,G4802570,Greenville Majors,722588,33.07,-96.07,75402
1077,TX,G4802590,San Antonio Intl Ap,722530,29.53,-98.47,
1078,TX,G4802610,Kingsville,722516,27.5,-97.82,78316
1079,TX,G4802650,San Angelo Mathis Field,722630,31.35,-100.5,76904
1080,TX,G4802670,San Angelo Mathis Field,722630,31.35,-100.5,76904
1081,TX,G4802690,Childress Municipal Ap,723604,34.43,-100.28,79201
1082,TX,G4802710,Del Rio Laughlin Afb,722615,29.37,-100.78,78843
1083,TX,G4802730,Kingsville,722516,27.5,-97.82,78316
1084,TX,G4802750,Abilene Regional Ap  Ut,722660,32.47,-99.71,79699
1085,TX,G4802770,Cox Fld,722587,33.63,-95.45,75416
1086,TX,G4802790,Lubbock International Ap,722670,33.67,-101.82,79350
1087,TX,G4802810,Mineral Wells Municipal Ap,722597,32.78,-98.07,76067
1088,TX,G4802830,Cotulla Faa Ap,722526,28.45,-99.22,78014
1089,TX,G4802850,Victoria Regional Ap,722550,28.87,-96.93,
1090,TX,G4802870,College Station Easterwood Fl,722445,30.58,-96.37,77862
1091,TX,G4802890,College Station-Easterwood AP,747460,30.583,-96.367,77862
1092,TX,G4802910,Houston Bush Intercontinental,722430,30.0,-95.37,77073
1093,TX,G4802930,Waco Regional Ap,722560,31.62,-97.23,76702
1094,OK,G4802950,Gage Airport,723527,36.3,-99.77,73843
1095,TX,G4802970,Alice Intl Ap,722517,27.73,-98.03,78332
1096,TX,G4802990,Robert Gray Aaf,722576,31.07,-97.83,
1097,TX,G4803010,Wink Winkler County Ap,722656,31.78,-103.2,79789
1098,TX,G4803030,Lubbock International Ap,722670,33.67,-101.82,79350
1099,TX,G4803050,Lubbock International Ap,722670,33.67,-101.82,79350
1100,TX,G4803070,San Angelo Mathis Field,722630,31.35,-100.5,76904
1101,TX,G4803090,Waco Regional Ap,722560,31.62,-97.23,76702
1102,TX,G4803110,Alice Intl Ap,722517,27.73,-98.03,78332
1103,TX,G4803130,College Station-Easterwood AP,747460,30.583,-96.367,77862
1104,LA,G4803150,Shreveport Regional Arpt,722480,32.45,-93.82,71109
1105,TX,G4803170,Midland International Ap,722650,31.95,-102.18,79712
1106,TX,G4803190,San Angelo Mathis Field,722630,31.35,-100.5,76904
1107,TX,G4803210,Palacios Municipal Ap,722555,28.72,-96.25,77465
1108,TX,G4803230,Del Rio Laughlin Afb,722615,29.37,-100.78,78843
1109,TX,G4803250,Hondo Municipal Ap,722533,29.37,-99.17,78861
1110,TX,G4803270,San Angelo Mathis Field,722630,31.35,-100.5,76904
1111,TX,G4803290,Midland International Ap,722650,31.95,-102.18,79712
1112,TX,G4803310,Draughon Miller Cen,722577,31.15,-97.4,76504
1113,TX,G4803330,Mineral Wells Municipal Ap,722597,32.78,-98.07,76067
1114,TX,G4803350,Abilene-Dyess AFB,720965,32.433,-99.85,79563
1115,TX,G4803370,Fort Worth Alliance,722594,32.98,-97.32,76177
1116,TX,G4803390,Houston D W  Hooks,722429,30.07,-95.55,77379
1117,TX,G4803410,Dalhart Muni AP,747360,36.017,-102.55,79022
1118,AR,G4803430,Texarkana Webb Field,723418,33.45,-94.0,71854
1119,TX,G4803450,Childress Muni AP,723660,34.433,-100.283,79201
1120,TX,G4803470,Nacogdoches  Awos,722499,31.58,-94.72,75964
1121,TX,G4803490,Dallas Redbird Arpt,722599,32.68,-96.87,75237
1122,LA,G4803510,Lake Charles Wb Airp,722404,30.22,-93.17,70602
1123,TX,G4803550,Corpus Christi Nas,722515,27.68,-97.28,78418
1124,TX,G4803570,Amarillo International Ap  Can,723630,34.99,-101.9,79015
1125,TX,G4803590,Amarillo International Ap  Can,723630,34.99,-101.9,79015
1126,TX,G4803610,Port Arthur Jefferson County,722410,29.95,-94.02,77705
1127,TX,G4803630,Mineral Wells Municipal Ap,722597,32.78,-98.07,76067
1128,LA,G4803650,Shreveport Regional Arpt,722480,32.45,-93.82,71109
1129,TX,G4803670,Fort Worth Nas,722595,32.77,-97.45,76108
1130,NM,G4803690,Clovis Muni   Awos,722689,34.43,-103.08,88135
1131,TX,G4803710,Wink Winkler County Ap,722656,31.78,-103.2,79789
1132,TX,G4803730,Lufkin Angelina Co,722446,31.23,-94.75,75941
1133,TX,G4803750,Amarillo International Ap  Can,723630,34.99,-101.9,79015
1134,TX,G4803770,Marfa Ap,722640,30.37,-104.02,79843
1135,TX,G4803790,Greenville Majors,722588,33.07,-96.07,75402
1136,TX,G4803810,Amarillo International Ap  Can,723630,34.99,-101.9,79015
1137,TX,G4803830,San Angelo Mathis Field,722630,31.35,-100.5,76904
1138,TX,G4803850,Hondo Municipal Ap,722533,29.37,-99.17,78861
1139,TX,G4803870,Cox Fld,722587,33.63,-95.45,75416
1140,TX,G4803890,Wink Winkler County Ap,722656,31.78,-103.2,79789
1141,TX,G4803910,Rockport Aransas Co,722524,28.08,-97.05,78382
1142,TX,G4803930,Amarillo International Ap  Can,723630,34.99,-101.9,79015
1143,TX,G4803950,College Station-Easterwood AP,747460,30.583,-96.367,77862
1144,TX,G4803970,Greenville Majors,722588,33.07,-96.07,75402
1145,TX,G4803990,Abilene-Dyess AFB,720965,32.433,-99.85,79563
1146,TX,G4804010,Longview Gregg County Ap  Over,722470,32.29,-94.98,75684
1147,TX,G4804030,Lufkin Angelina Co,722446,31.23,-94.75,75941
1148,TX,G4804050,Nacogdoches  Awos,722499,31.58,-94.72,75964
1149,TX,G4804070,Houston Bush Intercontinental,722430,30.0,-95.37,77073
1150,TX,G4804090,Corpus Christi Intl Arpt  Ut,722510,27.88,-97.63,78426
1151,TX,G4804110,Mineral Wells Municipal Ap,722597,32.78,-98.07,76067
1152,TX,G4804130,San Angelo Mathis Field,722630,31.35,-100.5,76904
1153,TX,G4804150,Lubbock International Ap,722670,33.67,-101.82,79350
1154,TX,G4804170,Abilene Regional Ap  Ut,722660,32.47,-99.71,79699
1155,TX,G4804190,Nacogdoches  Awos,722499,31.58,-94.72,75964
1156,TX,G4804210,Dalhart Municipal Ap,722636,36.02,-102.55,79022
1157,TX,G4804230,Tyler Pounds Fld,722448,32.35,-95.4,75704
1158,TX,G4804250,Fort Worth Nas,722595,32.77,-97.45,76108
1159,TX,G4804270,Mcallen Miller Intl Ap  Edinbu,722506,26.31,-98.17,78541
1160,TX,G4804290,Mineral Wells Municipal Ap,722597,32.78,-98.07,76067
1161,TX,G4804310,San Angelo Mathis Field,722630,31.35,-100.5,76904
1162,TX,G4804350,San Angelo Mathis Field,722630,31.35,-100.5,76904
1163,TX,G4804370,Amarillo International Ap  Can,723630,34.99,-101.9,79015
1164,TX,G4804390,Fort Worth Meacham Intl AP,747390,32.817,-97.367,76106
1165,TX,G4804410,Abilene Regional Ap  Ut,722660,32.47,-99.71,79699
1166,TX,G4804430,Marfa Ap,722640,30.37,-104.02,79843
1167,TX,G4804450,Lubbock International Ap,722670,33.67,-101.82,79350
1168,TX,G4804470,Wichita Falls Municipal Arpt,723510,33.98,-98.5,76311
1169,TX,G4804490,Cox Fld,722587,33.63,-95.45,75416
1170,TX,G4804510,San Angelo Mathis Field,722630,31.35,-100.5,76904
1171,TX,G4804530,Camp Mabry,722544,30.32,-97.77,78731
1172,TX,G4804550,Lufkin Angelina Co,722446,31.23,-94.75,75941
1173,TX,G4804570,Lufkin Angelina Co,722446,31.23,-94.75,75941
1174,TX,G4804590,Longview Gregg County Ap  Over,722470,32.29,-94.98,75684
1175,TX,G4804610,Midland International Ap,722650,31.95,-102.18,79712
1176,TX,G4804630,Hondo Municipal Ap,722533,29.37,-99.17,78861
1177,TX,G4804650,Del Rio  Ut,722610,29.38,-100.91,78840
1178,TX,G4804670,Tyler Pounds Fld,722448,32.35,-95.4,75704
1179,TX,G4804690,Victoria Regional Ap,722550,28.87,-96.93,
1180,TX,G4804710,Houston D W  Hooks,722429,30.07,-95.55,77379
1181,TX,G4804730,Houston D W  Hooks,722429,30.07,-95.55,77379
1182,TX,G4804750,Wink Winkler County Ap,722656,31.78,-103.2,79789
1183,TX,G4804770,College Station Easterwood Fl,722445,30.58,-96.37,77862
1184,TX,G4804790,Laredo Intl Ap  Ut,722520,27.57,-99.49,78045
1185,TX,G4804810,Palacios Municipal Ap,722555,28.72,-96.25,77465
1186,TX,G4804830,Amarillo International Ap  Can,723630,34.99,-101.9,79015
1187,TX,G4804850,Wichita Falls Municipal Arpt,723510,33.98,-98.5,76311
1188,TX,G4804870,Childress Municipal Ap,723604,34.43,-100.28,79201
1189,TX,G4804890,Harlingen Rio Grande Valley I,722505,26.23,-97.65,78550
1190,TX,G4804910,Georgetown  Awos,722547,30.68,-97.68,78628
1191,TX,G4804930,Randolph Afb,722536,29.53,-98.28,78150
1192,TX,G4804950,Wink Winkler County Ap,722656,31.78,-103.2,79789
1193,TX,G4804970,Fort Worth Alliance,722594,32.98,-97.32,76177
1194,TX,G4804990,Tyler Pounds Fld,722448,32.35,-95.4,75704
1195,TX,G4805010,Lubbock International Ap,722670,33.67,-101.82,79350
1196,TX,G4805030,Mineral Wells Municipal Ap,722597,32.78,-98.07,76067
1197,TX,G4805050,Laredo Intl Ap  Ut,722520,27.57,-99.49,78045
1198,TX,G4805070,Cotulla Faa Ap,722526,28.45,-99.22,78014
1199,UT,G4900010,Cedar City Municipal Ap,724755,37.7,-113.1,84720
1200,ID,G4900030,Malad City,725786,42.15,-112.28,
1201,ID,G4900050,Malad City,725786,42.15,-112.28,
1202,UT,G4900070,Vernal,725705,40.43,-109.52,84078
1203,WY,G4900090,Rock Springs Arpt  Green River,725744,41.46,-109.44,
1204,UT,G4900110,Ogden Hill Afb,725755,41.12,-111.97,84041
1205,UT,G4900130,Vernal,725705,40.43,-109.52,84078
1206,UT,G4900150,Vernal,725705,40.43,-109.52,84078
1207,UT,G4900170,Bryce Cnyn Faa Ap,724756,37.7,-112.15,64000
1208,UT,G4900190,Moab Canyonlands  Uo,724776,38.58,-109.54,84532
1209,UT,G4900210,Cedar City Municipal Ap,724755,37.7,-113.1,84720
1210,UT,G4900230,Provo Muni  Awos,725724,40.22,-111.72,84601
1211,UT,G4900250,Bryce Cnyn Faa Ap,724756,37.7,-112.15,64000
1212,UT,G4900270,Delta,724795,39.33,-112.58,84650
1213,UT,G4900290,Ogden Hill Afb,725755,41.12,-111.97,84041
1214,UT,G4900310,Bryce Cnyn Faa Ap,724756,37.7,-112.15,64000
1215,WY,G4900330,Evanston Burns Fld,725775,41.28,-111.03,82930
1216,UT,G4900350,Salt Lake City IntL Arpt  Isis,725720,40.77,-111.97,84122
1217,UT,G4900370,Blanding,724723,37.62,-109.48,84511
1218,UT,G4900390,Provo Muni  Awos,725724,40.22,-111.72,84601
1219,UT,G4900410,Delta,724795,39.33,-112.58,84650
1220,WY,G4900430,Evanston Burns Fld,725775,41.28,-111.03,82930
1221,UT,G4900450,Salt Lake City IntL Arpt  Isis,725720,40.77,-111.97,84122
1222,UT,G4900470,Vernal,725705,40.43,-109.52,84078
1223,UT,G4900490,Provo Muni  Awos,725724,40.22,-111.72,84601
1224,WY,G4900510,Evanston Burns Fld,725775,41.28,-111.03,82930
1225,UT,G4900530,Saint George  Awos,724754,37.08,-113.6,84770
1226,UT,G4900550,Hanksville,724735,38.37,-110.72,84374
1227,UT,G4900570,Ogden Hinkley Airport,725750,41.2,-112.02,84401
1228,VT,G5000010,Burlington International Ap,726170,44.47,-73.15,05403
1229,VT,G5000030,Rutland State,725165,43.52,-72.95,05759
1230,VT,G5000050,Montpelier Ap,726145,44.2,-72.57,05602
1231,VT,G5000070,Burlington International Ap,726170,44.47,-73.15,05403
1232,NH,G5000090,Berlin Municipal,726160,44.58,-71.18,03588
1233,VT,G5000110,Burlington International Ap,726170,44.47,-73.15,05403
1234,VT,G5000130,Burlington International Ap,726170,44.47,-73.15,05403
1235,VT,G5000150,Montpelier Ap,726145,44.2,-72.57,05602
1236,VT,G5000170,Montpelier Ap,726145,44.2,-72.57,05602
1237,VT,G5000190,Montpelier Ap,726145,44.2,-72.57,05602
1238,VT,G5000210,Rutland State,725165,43.52,-72.95,05759
1239,VT,G5000230,Montpelier Ap,726145,44.2,-72.57,05602
1240,NH,G5000250,Dillant Hopkins,726165,42.9,-72.27,03446
1241,VT,G5000270,Springfield Hartnes,726115,43.35,-72.52,05151
1242,VA,G5100010,Melfa Accomack Arpt,724026,37.65,-75.77,23410
1243,VA,G5100030,Charlottesville Faa,724016,38.13,-78.45,22911
1244,VA,G5100050,Hot Springs Ingalls,724115,37.95,-79.83,24445
1245,VA,G5100070,Farmville,724017,37.35,-78.43,23901
1246,VA,G5100090,Lynchburg Regional Arpt,724100,37.33,-79.2,24502
1247,VA,G5100110,Lynchburg Regional Arpt,724100,37.33,-79.2,24502
1248,VA,G5100130,Washington Dc Reagan Ap,724050,38.87,-77.03,20242
1249,VA,G5100150,Staunton Shenandoah,724105,38.27,-78.9,24486
1250,VA,G5100170,Hot Springs Ingalls,724115,37.95,-79.83,24445
1251,VA,G5100190,Lynchburg Regional Arpt,724100,37.33,-79.2,24502
1252,WV,G5100210,Bluefield Mercer Co  Nrel,724125,37.27,-81.24,24701
1253,VA,G5100230,Roanoke Regional Ap,724110,37.32,-79.97,24019
1254,VA,G5100250,Dinwiddie Co,724014,37.18,-77.52,23803
1255,VA,G5100270,Wise Lonesome Pine,724117,36.98,-82.53,24293
1256,VA,G5100290,Farmville,724017,37.35,-78.43,23901
1257,VA,G5100310,Lynchburg Regional Arpt,724100,37.33,-79.2,24502
1258,VA,G5100330,Shannon Arpt,724033,38.27,-77.45,22408
1259,VA,G5100350,Hillsville,724107,36.77,-80.82,24381
1260,VA,G5100370,Farmville,724017,37.35,-78.43,23901
1261,VA,G5100410,Dinwiddie Co,724014,37.18,-77.52,23803
1262,VA,G5100430,Winchester Rgnl,724053,39.15,-78.15,22602
1263,VA,G5100450,Roanoke Regional Ap,724110,37.32,-79.97,24019
1264,VA,G5100470,Manassas Muni Awos,724036,38.72,-77.52,20136
1265,VA,G5100490,Farmville,724017,37.35,-78.43,23901
1266,VA,G5100510,Wise Lonesome Pine,724117,36.98,-82.53,24293
1267,VA,G5100530,Dinwiddie Co,724014,37.18,-77.52,23803
1268,VA,G5100570,Richmond International Ap,724010,37.52,-77.32,23250
1269,VA,G5100590,Davison Aaf,724037,38.72,-77.18,2200
1270,VA,G5100610,Manassas Muni Awos,724036,38.72,-77.52,20136
1271,VA,G5100630,Virginia Tech Arpt,724113,37.22,-80.42,24061
1272,VA,G5100650,Charlottesville Faa,724016,38.13,-78.45,22911
1273,VA,G5100670,Roanoke Regional Ap,724110,37.32,-79.97,24019
1274,VA,G5100690,Winchester Rgnl,724053,39.15,-78.15,22602
1275,VA,G5100710,Pulaski,724116,37.13,-80.68,24084
1276,VA,G5100730,Newport News,723086,37.13,-76.5,23602
1277,VA,G5100750,Richmond International Ap,724010,37.52,-77.32,23250
1278,VA,G5100770,Hillsville,724107,36.77,-80.82,24381
1279,VA,G5100790,Charlottesville Faa,724016,38.13,-78.45,22911
1280,VA,G5100810,Dinwiddie Co,724014,37.18,-77.52,23803
1281,VA,G5100830,Danville Faa Ap,724106,36.57,-79.33,24586
1282,VA,G5100850,Richmond International Ap,724010,37.52,-77.32,23250
1283,VA,G5100870,Richmond International Ap,724010,37.52,-77.32,23250
1284,VA,G5100890,Martinsville,745985,36.63,-80.02,24112
1285,VA,G5100910,Hot Springs Ingalls,724115,37.95,-79.83,24445
1286,VA,G5100930,Newport News,723086,37.13,-76.5,23602
1287,VA,G5100950,Newport News,723086,37.13,-76.5,23602
1288,VA,G5100970,Richmond International Ap,724010,37.52,-77.32,23250
1289,VA,G5100990,Quantico Mcas,724035,38.5,-77.3,22134
1290,VA,G5101010,Richmond International Ap,724010,37.52,-77.32,23250
1291,VA,G5101030,Newport News,723086,37.13,-76.5,23602
1292,VA,G5101050,Wise Lonesome Pine,724117,36.98,-82.53,24293
1293,VA,G5101070,Leesburg Godfrey,724055,39.08,-77.57,20175
1294,VA,G5101090,Charlottesville Faa,724016,38.13,-78.45,22911
1295,VA,G5101110,Farmville,724017,37.35,-78.43,23901
1296,VA,G5101130,Charlottesville Faa,724016,38.13,-78.45,22911
1297,VA,G5101150,Newport News,723086,37.13,-76.5,23602
1298,VA,G5101170,Farmville,724017,37.35,-78.43,23901
1299,VA,G5101190,Newport News,723086,37.13,-76.5,23602
1300,VA,G5101210,Virginia Tech Arpt,724113,37.22,-80.42,24061
1301,VA,G5101250,Staunton Shenandoah,724105,38.27,-78.9,24486
1302,VA,G5101270,Richmond International Ap,724010,37.52,-77.32,23250
1303,VA,G5101310,Melfa Accomack Arpt,724026,37.65,-75.77,23410
1304,MD,G5101330,Patuxent River Nas,724040,38.3,-76.42,20670
1305,VA,G5101350,Farmville,724017,37.35,-78.43,23901
1306,VA,G5101370,Charlottesville Faa,724016,38.13,-78.45,22911
1307,VA,G5101390,Charlottesville Faa,724016,38.13,-78.45,22911
1308,VA,G5101410,Martinsville,745985,36.63,-80.02,24112
1309,VA,G5101430,Danville Faa Ap,724106,36.57,-79.33,24586
1310,VA,G5101450,Dinwiddie Co,724014,37.18,-77.52,23803
1311,VA,G5101470,Farmville,724017,37.35,-78.43,23901
1312,VA,G5101490,Dinwiddie Co,724014,37.18,-77.52,23803
1313,VA,G5101530,Manassas Muni Awos,724036,38.72,-77.52,20136
1314,VA,G5101550,Pulaski,724116,37.13,-80.68,24084
1315,VA,G5101570,Winchester Rgnl,724053,39.15,-78.15,22602
1316,MD,G5101590,Patuxent River Nas,724040,38.3,-76.42,20670
1317,VA,G5101610,Roanoke Regional Ap,724110,37.32,-79.97,24019
1318,VA,G5101630,Hot Springs Ingalls,724115,37.95,-79.83,24445
1319,VA,G5101650,Staunton Shenandoah,724105,38.27,-78.9,24486
1320,VA,G5101670,Abington,724058,36.68,-82.03,24211
1321,TN,G5101690,Bristol Tri City Airport,723183,36.47,-82.4,38137
1322,VA,G5101710,Winchester Rgnl,724053,39.15,-78.15,22602
1323,VA,G5101730,Marion   Wytheville,724056,36.9,-81.35,24368
1324,VA,G5101750,Franklin Naas,723083,36.7,-76.9,23315
1325,VA,G5101770,Shannon Arpt,724033,38.27,-77.45,22408
1326,VA,G5101790,Shannon Arpt,724033,38.27,-77.45,22408
1327,VA,G5101810,Newport News,723086,37.13,-76.5,23602
1328,VA,G5101830,Dinwiddie Co,724014,37.18,-77.52,23803
1329,VA,G5101850,Marion   Wytheville,724056,36.9,-81.35,24368
1330,VA,G5101870,Winchester Rgnl,724053,39.15,-78.15,22602
1331,VA,G5101910,Abington,724058,36.68,-82.03,24211
1332,MD,G5101930,Patuxent River Nas,724040,38.3,-76.42,20670
1333,VA,G5101950,Wise Lonesome Pine,724117,36.98,-82.53,24293
1334,VA,G5101970,Marion   Wytheville,724056,36.9,-81.35,24368
1335,VA,G5101990,Newport News,723086,37.13,-76.5,23602
1336,VA,G5105950,Dinwiddie Co,724014,37.18,-77.52,23803
1337,VA,G5106830,Manassas Muni Awos,724036,38.72,-77.52,20136
1338,VA,G5106850,Manassas Muni Awos,724036,38.72,-77.52,20136
1339,VA,G5107350,Langley Afb,745980,37.08,-76.35,23665
1340,VA,G5107750,Roanoke Regional Ap,724110,37.32,-79.97,24019
1341,WA,G5300010,Moses Lake Grant County Ap,727827,47.2,-119.32,
1342,ID,G5300030,Lewiston Nez Perce Cnty Ap,727830,46.37,-117.02,83501
1343,WA,G5300050,Pasco,727845,46.27,-119.12,99301
1344,WA,G5300070,Wenatchee Pangborn,727825,47.4,-120.2,98802
1345,WA,G5300090,William R Fairchild,727885,48.12,-123.5,
1346,OR,G5300110,Portland International Ap,726980,45.6,-122.62,97211
1347,WA,G5300130,Walla Walla City County Ap,727846,46.1,-118.28,
1348,WA,G5300150,Kelso Wb Ap,727924,46.13,-122.9,98626
1349,WA,G5300170,Wenatchee Pangborn,727825,47.4,-120.2,98802
1350,WA,G5300190,Fairchild Afb,727855,47.63,-117.65,99011
1351,WA,G5300210,Pasco,727845,46.27,-119.12,99301
1352,WA,G5300230,Pullman Moscow Rgnl,727857,46.75,-117.12,99164
1353,WA,G5300250,Moses Lake Grant County Ap,727827,47.2,-119.32,
1354,WA,G5300270,Hoquiam Ap,727923,46.98,-123.93,98550
1355,WA,G5300290,Oak Harbor-NAS Whidbey Island-Ault Field,720749,48.35,-122.667,97277
1356,WA,G5300310,Whidbey Island Nas,690230,48.35,-122.67,98278
1357,WA,G5300330,Renton Muni,727934,47.48,-122.22,98057
1358,WA,G5300350,Bremerton National,727928,47.48,-122.75,
1359,WA,G5300370,Yakima Air Terminal,727810,46.57,-120.55,98903
1360,WA,G5300390,The Dalles Municipal Arpt,726988,45.62,-121.15,98617
1361,WA,G5300410,Toledo Winlock Mem,727926,46.48,-122.8,98542
1362,WA,G5300430,Fairchild Afb,727855,47.63,-117.65,99011
1363,WA,G5300450,Bremerton National,727928,47.48,-122.75,
1364,WA,G5300470,Ephrata Ap Fcwos,727826,47.3,-119.52,98823
1365,OR,G5300490,Astoria Regional Airport,727910,46.15,-123.88,97146
1366,WA,G5300510,Felts Fld,727856,47.68,-117.32,99212
1367,WA,G5300530,Tacoma Mcchord Afb,742060,47.15,-122.48,98249
1368,WA,G5300550,Whidbey Island Nas,690230,48.35,-122.67,98278
1369,WA,G5300570,Oak Harbor-NAS Whidbey Island-Ault Field,720749,48.35,-122.667,97277
1370,WA,G5300590,The Dalles Municipal Arpt,726988,45.62,-121.15,98617
1371,WA,G5300610,Snohomish Co,727937,47.9,-122.28,98204
1372,WA,G5300630,Felts Fld,727856,47.68,-117.32,99212
1373,WA,G5300650,Fairchild Afb,727855,47.63,-117.65,99011
1374,WA,G5300670,Olympia Airport,727920,46.97,-122.9,98501
1375,OR,G5300690,Astoria Regional Airport,727910,46.15,-123.88,97146
1376,WA,G5300710,Walla Walla City County Ap,727846,46.1,-118.28,
1377,WA,G5300730,Bellingham Intl Ap,727976,48.8,-122.53,98226
1378,WA,G5300750,Pullman Moscow Rgnl,727857,46.75,-117.12,99164
1379,WA,G5300770,Yakima Air Terminal,727810,46.57,-120.55,98903
1380,WV,G5400010,Elkins Elkins Randolph Co Arp,724170,38.88,-79.85,26253
1381,WV,G5400030,Martinsburg Eastern Wv Reg Ap,724177,39.4,-77.98,25415
1382,WV,G5400050,Charleston Yeager Arpt,724140,38.38,-81.58,25311
1383,WV,G5400070,Charleston Yeager Arpt,724140,38.38,-81.58,25311
1384,WV,G5400090,Wheeling Ohio County Ap,724275,40.18,-80.65,26075
1385,WV,G5400110,Huntington Tri State Arpt,724250,38.38,-82.55,25530
1386,WV,G5400130,Parkersburg Wood County Ap,724273,39.35,-81.43,26184
1387,WV,G5400150,Charleston Yeager Arpt,724140,38.38,-81.58,25311
1388,WV,G5400170,Harrison Marion Rgn,724175,39.28,-80.23,26330
1389,WV,G5400190,Beckley Raleigh Co Mem Ap,724120,37.8,-81.12,25813
1390,WV,G5400210,Parkersburg Wood County Ap,724273,39.35,-81.43,26184
1391,WV,G5400230,Elkins Elkins Randolph Co Arp,724170,38.88,-79.85,26253
1392,WV,G5400250,Lewisburg Greenbrie,724127,37.87,-80.4,24957
1393,VA,G5400270,Winchester Rgnl,724053,39.15,-78.15,22602
1394,WV,G5400290,Wheeling Ohio County Ap,724275,40.18,-80.65,26075
1395,WV,G5400310,Elkins Elkins Randolph Co Arp,724170,38.88,-79.85,26253
1396,WV,G5400330,Harrison Marion Rgn,724175,39.28,-80.23,26330
1397,WV,G5400350,Charleston Yeager Arpt,724140,38.38,-81.58,25311
1398,WV,G5400370,Martinsburg Eastern Wv Reg Ap,724177,39.4,-77.98,25415
1399,WV,G5400390,Charleston Yeager Arpt,724140,38.38,-81.58,25311
1400,WV,G5400410,Harrison Marion Rgn,724175,39.28,-80.23,26330
1401,WV,G5400430,Huntington Tri State Arpt,724250,38.38,-82.55,25530
1402,WV,G5400450,Charleston Yeager Arpt,724140,38.38,-81.58,25311
1403,WV,G5400470,Bluefield Mercer Co  Nrel,724125,37.27,-81.24,24701
1404,WV,G5400490,Harrison Marion Rgn,724175,39.28,-80.23,26330
1405,WV,G5400510,Wheeling Ohio County Ap,724275,40.18,-80.65,26075
1406,WV,G5400530,Charleston Yeager Arpt,724140,38.38,-81.58,25311
1407,WV,G5400550,Bluefield Mercer Co  Nrel,724125,37.27,-81.24,24701
1408,VA,G5400570,Winchester Rgnl,724053,39.15,-78.15,22602
1409,WV,G5400590,Huntington Tri State Arpt,724250,38.38,-82.55,25530
1410,WV,G5400610,Morgantown Hart Field,724176,39.65,-79.92,26508
1411,WV,G5400630,Lewisburg Greenbrie,724127,37.87,-80.4,24957
1412,WV,G5400650,Martinsburg Eastern Wv Reg Ap,724177,39.4,-77.98,25415
1413,WV,G5400670,Charleston Yeager Arpt,724140,38.38,-81.58,25311
1414,WV,G5400690,Wheeling Ohio County Ap,724275,40.18,-80.65,26075
1415,WV,G5400710,Elkins Elkins Randolph Co Arp,724170,38.88,-79.85,26253
1416,WV,G5400730,Parkersburg Wood County Ap,724273,39.35,-81.43,26184
1417,VA,G5400750,Hot Springs Ingalls,724115,37.95,-79.83,24445
1418,WV,G5400770,Morgantown Hart Field,724176,39.65,-79.92,26508
1419,WV,G5400790,Charleston Yeager Arpt,724140,38.38,-81.58,25311
1420,WV,G5400810,Beckley Raleigh Co Mem Ap,724120,37.8,-81.12,25813
1421,WV,G5400830,Elkins Elkins Randolph Co Arp,724170,38.88,-79.85,26253
1422,WV,G5400850,Parkersburg Wood County Ap,724273,39.35,-81.43,26184
1423,WV,G5400870,Charleston Yeager Arpt,724140,38.38,-81.58,25311
1424,WV,G5400890,Beckley Raleigh Co Mem Ap,724120,37.8,-81.12,25813
1425,WV,G5400910,Harrison Marion Rgn,724175,39.28,-80.23,26330
1426,WV,G5400930,Elkins Elkins Randolph Co Arp,724170,38.88,-79.85,26253
1427,WV,G5400950,Parkersburg Wood County Ap,724273,39.35,-81.43,26184
1428,WV,G5400970,Harrison Marion Rgn,724175,39.28,-80.23,26330
1429,WV,G5400990,Huntington Tri State Arpt,724250,38.38,-82.55,25530
1430,VA,G5401010,Hot Springs Ingalls,724115,37.95,-79.83,24445
1431,WV,G5401030,Wheeling Ohio County Ap,724275,40.18,-80.65,26075
1432,WV,G5401050,Parkersburg Wood County Ap,724273,39.35,-81.43,26184
1433,WV,G5401070,Parkersburg Wood County Ap,724273,39.35,-81.43,26184
1434,WV,G5401090,Bluefield Mercer Co  Nrel,724125,37.27,-81.24,24701
1435,WI,G5500010,Marshfield Muni,726574,44.63,-90.18,54449
1436,MI,G5500030,Ironwood  Awos,727445,46.53,-90.13,49938
1437,WI,G5500050,Rice Lake Municipal,726467,45.48,-91.72,54868
1438,MN,G5500070,Silver Bay,727556,47.2,-91.4,
1439,WI,G5500090,Green Bay Austin Straubel Int,726450,44.48,-88.13,54313
1440,MN,G5500110,Winona Muni  Awos,726588,44.08,-91.7,55959
1441,MN,G5500130,Crane Lake  Awos,727473,46.27,-92.57,55712
1442,WI,G5500150,Appleton Outagamie,726457,44.25,-88.52,
1443,WI,G5500170,Eau Claire County Ap,726435,44.87,-91.48,54703
1444,WI,G5500190,Marshfield Muni,726574,44.63,-90.18,54449
1445,WI,G5500210,Madison Dane Co Regional Arpt,726410,43.13,-89.33,53704
1446,IA,G5500230,Decorah,725476,43.28,-91.73,
1447,WI,G5500250,Madison Dane Co Regional Arpt,726410,43.13,-89.33,53704
1448,WI,G5500270,Watertown,726464,43.17,-88.72,53094
1449,WI,G5500290,Sturgeon Bay,726458,44.85,-87.42,54235
1450,MN,G5500310,Duluth International Arpt,727450,46.83,-92.22,55811
1451,WI,G5500330,Eau Claire County Ap,726435,44.87,-91.48,54703
1452,WI,G5500350,Eau Claire County Ap,726435,44.87,-91.48,54703
1453,MI,G5500370,Iron Mountain Ford,727437,45.82,-88.12,49802
1454,WI,G5500390,Wittman Rgnl,726456,43.98,-88.55,54902
1455,WI,G5500410,Rhinelander Oneida,727415,45.63,-89.47,54501
1456,WI,G5500430,Lone Rock Faa Ap,726416,43.2,-90.18,53588
1457,WI,G5500450,Madison Dane Co Regional Arpt,726410,43.13,-89.33,53704
1458,WI,G5500470,Wittman Rgnl,726456,43.98,-88.55,54902
1459,WI,G5500490,Lone Rock Faa Ap,726416,43.2,-90.18,53588
1460,MI,G5500510,Ironwood  Awos,727445,46.53,-90.13,49938
1461,WI,G5500530,La Crosse Municipal Arpt,726430,43.87,-91.25,54603
1462,WI,G5500550,Watertown,726464,43.17,-88.72,53094
1463,WI,G5500570,Lone Rock Faa Ap,726416,43.2,-90.18,53588
1464,WI,G5500590,Milwaukee Mitchell Intl Ap,726400,42.95,-87.9,53207
1465,WI,G5500610,Sturgeon Bay,726458,44.85,-87.42,54235
1466,WI,G5500630,La Crosse Municipal Arpt,726430,43.87,-91.25,54603
1467,WI,G5500650,Lone Rock Faa Ap,726416,43.2,-90.18,53588
1468,WI,G5500670,Rhinelander Oneida,727415,45.63,-89.47,54501
1469,WI,G5500690,Rhinelander Oneida,727415,45.63,-89.47,54501
1470,WI,G5500710,Manitowac Muni Awos,726455,44.13,-87.68,54220
1471,WI,G5500730,Wausau Municipal Arpt,726463,44.92,-89.63,54401
1472,MI,G5500750,Menominee  Awos,726487,45.13,-87.63,49858
1473,WI,G5500770,Madison Dane Co Regional Arpt,726410,43.13,-89.33,53704
1474,WI,G5500790,Milwaukee Mitchell Intl Ap,726400,42.95,-87.9,53207
1475,WI,G5500810,La Crosse Municipal Arpt,726430,43.87,-91.25,54603
1476,WI,G5500830,Green Bay Austin Straubel Int,726450,44.48,-88.13,54313
1477,WI,G5500850,Rhinelander Oneida,727415,45.63,-89.47,54501
1478,WI,G5500870,Appleton Outagamie,726457,44.25,-88.52,
1479,WI,G5500890,Milwaukee Mitchell Intl Ap,726400,42.95,-87.9,53207
1480,MN,G5500910,Red Wing,726564,44.58,-92.48,
1481,MN,G5500930,Red Wing,726564,44.58,-92.48,
1482,MN,G5500950,St Paul Downtown Ap,726584,44.93,-93.05,55106
1483,WI,G5500970,Mosinee Central Wi,726465,44.78,-89.67,54455
1484,WI,G5500990,Phillips Price Co,726468,45.7,-90.4,54555
1485,WI,G5501010,Milwaukee Mitchell Intl Ap,726400,42.95,-87.9,53207
1486,WI,G5501030,Lone Rock Faa Ap,726416,43.2,-90.18,53588
1487,WI,G5501050,Janesville Rock Co,726415,42.62,-89.03,53546
1488,WI,G5501070,Rice Lake Municipal,726467,45.48,-91.72,54868
1489,MN,G5501090,Red Wing,726564,44.58,-92.48,
1490,WI,G5501110,Lone Rock Faa Ap,726416,43.2,-90.18,53588
1491,WI,G5501130,Phillips Price Co,726468,45.7,-90.4,54555
1492,WI,G5501150,Appleton Outagamie,726457,44.25,-88.52,
1493,WI,G5501170,Manitowac Muni Awos,726455,44.13,-87.68,54220
1494,WI,G5501190,Phillips Price Co,726468,45.7,-90.4,54555
1495,MN,G5501210,Winona Muni  Awos,726588,44.08,-91.7,55959
1496,WI,G5501230,La Crosse Municipal Arpt,726430,43.87,-91.25,54603
1497,WI,G5501250,Minocqua Woodruff,726404,45.93,-89.73,54568
1498,WI,G5501270,Janesville Rock Co,726415,42.62,-89.03,53546
1499,MN,G5501290,Crane Lake  Awos,727473,46.27,-92.57,55712
1500,WI,G5501310,Milwaukee Mitchell Intl Ap,726400,42.95,-87.9,53207
1501,WI,G5501330,Milwaukee Mitchell Intl Ap,726400,42.95,-87.9,53207
1502,WI,G5501350,Appleton Outagamie,726457,44.25,-88.52,
1503,WI,G5501370,Wittman Rgnl,726456,43.98,-88.55,54902
1504,WI,G5501390,Wittman Rgnl,726456,43.98,-88.55,54902
1505,WI,G5501410,Marshfield Muni,726574,44.63,-90.18,54449
1506,WY,G5600010,Laramie General Brees Field,725645,41.32,-105.68,82070
1507,WY,G5600030,Worland Municipal,726665,43.97,-107.95,82401
1508,WY,G5600050,Gillette Gillette C,726650,44.35,-105.53,
1509,WY,G5600070,Rawlins Municipal Ap,725745,41.8,-107.2,
1510,WY,G5600090,Casper Natrona Co Intl Ap,725690,42.9,-106.47,82602
1511,WY,G5600110,Gillette Gillette C,726650,44.35,-105.53,
1512,WY,G5600130,Riverton Municipl Ap,725765,43.05,-108.45,82501
1513,CO,G5600150,Greeley Weld  Awos,724768,40.43,-104.63,
1514,WY,G5600170,Worland Municipal,726665,43.97,-107.95,82401
1515,WY,G5600190,Sheridan County Arpt,726660,44.77,-106.97,82801
1516,WY,G5600210,Cheyenne Municipal Arpt,725640,41.15,-104.8,82001
1517,WY,G5600230,Jackson Hole,725776,43.6,-110.73,
1518,WY,G5600250,Casper Natrona Co Intl Ap,725690,42.9,-106.47,82602
1519,NE,G5600270,Scottsbluff W B Heilig Field,725660,41.87,-103.6,
1520,WY,G5600290,Cody Muni  Awos,726700,44.52,-109.02,
1521,CO,G5600310,Fort Collins  Awos,724769,40.45,-105.02,80538
1522,WY,G5600330,Sheridan County Arpt,726660,44.77,-106.97,82801
1523,WY,G5600350,Jackson Hole,725776,43.6,-110.73,
1524,WY,G5600370,Rock Springs Arpt  Green River,725744,41.46,-109.44,
1525,WY,G5600390,Jackson Hole,725776,43.6,-110.73,
1526,WY,G5600410,Evanston Burns Fld,725775,41.28,-111.03,82930
1527,WY,G5600430,Worland Municipal,726665,43.97,-107.95,82401
1528,SD,G5600450,Ellsworth Afb,726625,44.15,-103.1,57706
