,State,Station_Number,Station_Name,Station_WMO,Latitude,Longitude,ZIP Codes
0,MI,G2601070,Cadillac Wexford Co Ap,726384,44.28,-85.42,49601
1,MI,G2601090,Menominee  Awos,726487,45.13,-87.63,49858
2,MI,G2601110,Saginaw Tri City Intl Ap,726379,43.53,-84.08,
3,MI,G2601130,Cadillac Wexford Co Ap,726384,44.28,-85.42,49601
4,MI,G2601150,Detroit Willow Run Ap,725376,42.23,-83.53,48111
5,MI,G2601170,Grand Rapids Kent County Int,726350,42.88,-85.52,49512
6,MI,G2601190,Alpena County Regional Ap,726390,45.07,-83.58,49744
7,MI,G2601210,Muskegon County Arpt,726360,43.17,-86.23,49441
8,MI,G2601230,Cadillac Wexford Co Ap,726384,44.28,-85.42,49601
9,MI,G2601250,Oakland Co Intl,726375,42.67,-83.42,48386
10,MI,G2601270,Manistee  Awos,726385,44.27,-86.25,49660
11,MI,G2601290,Houghton Lake Roscommon Co Ar,726380,44.37,-84.68,
12,MI,G2601310,Ironwood  Awos,727445,46.53,-90.13,49938
13,MI,G2601330,Cadillac Wexford Co Ap,726384,44.28,-85.42,49601
14,MI,G2601350,Houghton Lake Roscommon Co Ar,726380,44.37,-84.68,
15,MI,G2601370,Pellston Emmet County Ap,727347,45.57,-84.78,49769
16,MI,G2601390,Muskegon County Arpt,726360,43.17,-86.23,49441
17,MI,G2601410,Alpena County Regional Ap,726390,45.07,-83.58,49744
18,MI,G2601430,Houghton Lake Roscommon Co Ar,726380,44.37,-84.68,
19,MI,G2601450,Saginaw Tri City Intl Ap,726379,43.53,-84.08,
20,MI,G2601470,St Clair County Int,725384,42.92,-82.53,48074
21,MI,G2601490,Kalamazoo Battle Cr,726357,42.23,-85.55,49002
22,MI,G2601510,Oscoda Wurtsmith Afb,726395,44.45,-83.4,48750
23,MI,G2601530,Chippewa Co Intl,727344,46.25,-84.47,49788
24,MI,G2601550,Howell,725378,42.63,-83.98,
25,MI,G2601570,Flint Bishop Intl Arpt,726370,42.97,-83.75,48507
26,MI,G2601590,Benton Harbor Ross,726355,42.13,-86.43,49022
27,MI,G2601610,Ann Arbor Municipal,725374,42.22,-83.75,48108
28,MI,G2601630,Detroit Metropolitan Arpt,725370,42.22,-83.35,48174
29,MI,G2601650,Cadillac Wexford Co Ap,726384,44.28,-85.42,49601
30,MN,G2700010,Aitkin Ndb Awos,727504,46.55,-93.68,56431
31,MN,G2700030,Minneapolis Crystal,726575,45.07,-93.35,55429
32,MN,G2700050,Detroit Lakes Awos,727457,46.83,-95.88,
33,MN,G2700070,Bemidji Municipal,727550,47.5,-94.93,56601
34,MN,G2700090,St Cloud Regional Arpt,726550,45.55,-94.05,56304
35,MN,G2700110,Wheaton Ndb  Awos,727533,45.7,-96.5,
36,MN,G2700130,Mankato Awos,726585,44.22,-93.92,56001
37,MN,G2700150,New Ulm Muni  Awos,726567,44.32,-94.5,56073
38,MN,G2700170,Cloquet  Awos,726558,46.7,-92.5,55720
39,MN,G2700190,Flying Cloud,726579,44.82,-93.45,55347
40,MN,G2700210,Brainerd Wieland,726555,46.4,-94.13,56401
41,MN,G2700230,Benson Muni,727507,45.32,-95.65,
42,MN,G2700250,Cambridge Muni,727503,45.57,-93.27,55008
43,ND,G2700270,Fargo Hector International Ap,727530,46.93,-96.82,58105
44,MN,G2700290,Fosston Awos,727505,47.58,-95.77,56556
45,MN,G2700310,Silver Bay,727556,47.2,-91.4,
46,MN,G2700330,Worthington  Awos,726587,43.65,-95.58,56119
47,MN,G2700350,Brainerd Wieland,726555,46.4,-94.13,56401
48,MN,G2700370,South St Paul Muni,726603,44.85,-93.15,55121
49,MN,G2700390,Rochester International Arpt,726440,43.9,-92.5,
50,MN,G2700410,Alexandria Municipal Ap,726557,45.88,-95.4,56308
51,MN,G2700430,Fairmont Muni Awos,726586,43.65,-94.42,56039
52,MN,G2700450,Rochester International Arpt,726440,43.9,-92.5,
53,MN,G2700470,Albert Lea  Awos,726589,43.68,-93.37,56007
54,MN,G2700490,Red Wing,726564,44.58,-92.48,
55,MN,G2700510,Fergus Falls Awos,726560,46.28,-96.15,56537
56,MN,G2700530,Minneapolis Crystal,726575,45.07,-93.35,55429
57,WI,G2700550,La Crosse Municipal Arpt,726430,43.87,-91.25,54603
58,MN,G2700570,Park Rapids Municipal Ap,727453,46.9,-95.07,
59,MN,G2700590,Cambridge Muni,727503,45.57,-93.27,55008
60,MN,G2700610,Grand Rapids Awos,727458,47.22,-93.52,55744
61,IA,G2700630,Estherville Muni,726499,43.4,-94.75,51334
62,MN,G2700650,Mora Muni  Awos,727475,45.88,-93.27,55051
63,MN,G2700670,Willmar,726576,45.12,-95.08,56201
64,MN,G2700690,Hallock,727478,48.78,-96.95,56728
65,MN,G2700710,International Falls Intl Ap,727470,48.57,-93.4,56669
66,MN,G2700730,Benson Muni,727507,45.32,-95.65,
67,MN,G2700750,Silver Bay,727556,47.2,-91.4,
68,MN,G2700770,Baudette International Ap,727476,48.72,-94.6,
69,MN,G2700790,Mankato Awos,726585,44.22,-93.92,56001
70,MN,G2700810,Pipestone  Awos,726566,43.98,-96.32,56164
71,MN,G2700830,Marshall Ryan Awos,726559,44.45,-95.82,56258
72,MN,G2700850,Hutchinson  Awos,726569,44.87,-94.38,55350
73,MN,G2700870,Fosston Awos,727505,47.58,-95.77,56556
74,MN,G2700890,Thief River Awos,727555,48.07,-96.18,56701
75,MN,G2700910,Fairmont Muni Awos,726586,43.65,-94.42,56039
76,MN,G2700930,Litchfield Muni,726583,45.1,-94.5,55355
77,MN,G2700950,Mora Muni  Awos,727475,45.88,-93.27,55051
78,MN,G2700970,Little Falls  Awos,726578,45.95,-94.35,56345
79,MN,G2700990,Austin Muni,727566,43.67,-92.93,55912
80,MN,G2701010,Worthington  Awos,726587,43.65,-95.58,56119
81,MN,G2701030,Mankato Awos,726585,44.22,-93.92,56001
82,MN,G2701050,Worthington  Awos,726587,43.65,-95.58,56119
83,ND,G2701070,Fargo Hector International Ap,727530,46.93,-96.82,58105
84,MN,G2701090,Rochester International Arpt,726440,43.9,-92.5,
85,MN,G2701110,Fergus Falls Awos,726560,46.28,-96.15,56537
86,MN,G2701130,Thief River Awos,727555,48.07,-96.18,56701
87,MN,G2701150,Crane Lake  Awos,727473,46.27,-92.57,55712
88,MN,G2701170,Pipestone  Awos,726566,43.98,-96.32,56164
89,MN,G2701190,Crookston Muni Fld,727452,47.85,-96.62,56723
90,MN,G2701210,Glenwood  Asos,726547,45.65,-95.32,
91,MN,G2701230,St Paul Downtown Ap,726584,44.93,-93.05,55106
92,MN,G2701250,Thief River Awos,727555,48.07,-96.18,56701
93,MN,G2701270,Redwood Falls Muni,726556,44.55,-95.08,56283
94,MN,G2701290,Redwood Falls Muni,726556,44.55,-95.08,56283
95,MN,G2701310,Faribault Muni Awos,726563,44.33,-93.32,55021
96,MN,G2701330,Pipestone  Awos,726566,43.98,-96.32,56164
97,MN,G2701350,Roseau Muni  Awos,727477,48.85,-95.7,56751
98,MN,G2701370,Duluth International Arpt,727450,46.83,-92.22,55811
99,MN,G2701390,Flying Cloud,726579,44.82,-93.45,55347
100,MN,G2701410,Mora Muni  Awos,727475,45.88,-93.27,55051
101,MN,G2701430,Hutchinson  Awos,726569,44.87,-94.38,55350
102,MN,G2701450,St Cloud Regional Arpt,726550,45.55,-94.05,56304
103,MN,G2701470,Owatonna  Awos,726568,44.12,-93.25,55060
104,MN,G2701490,Morris Muni  Awos,726565,45.57,-95.97,56207
105,MN,G2701510,Benson Muni,727507,45.32,-95.65,
106,MN,G2701530,Alexandria Municipal Ap,726557,45.88,-95.4,56308
107,MN,G2701550,Wheaton Ndb  Awos,727533,45.7,-96.5,
108,MN,G2701570,Red Wing,726564,44.58,-92.48,
109,MN,G2701590,Park Rapids Municipal Ap,727453,46.9,-95.07,
110,MN,G2701610,Owatonna  Awos,726568,44.12,-93.25,55060
111,MN,G2701630,St Paul Downtown Ap,726584,44.93,-93.05,55106
112,MN,G2701650,New Ulm Muni  Awos,726567,44.32,-94.5,56073
113,MN,G2701670,Wheaton Ndb  Awos,727533,45.7,-96.5,
114,MN,G2701690,Winona Muni  Awos,726588,44.08,-91.7,55959
115,MN,G2701710,St Cloud Regional Arpt,726550,45.55,-94.05,56304
116,MN,G2701730,Marshall Ryan Awos,726559,44.45,-95.82,56258
117,MS,G2800010,Natchez Hardy Awos,722357,31.62,-91.3,39190
118,MS,G2800030,Tupelo C D Lemons Arpt,723320,34.27,-88.77,38801
119,MS,G2800050,Mccomb Pike County Ap,722358,31.23,-90.47,39648
120,MS,G2800070,Greenwood Leflore Arpt,722359,33.5,-90.08,
121,MS,G2800090,Tupelo C D Lemons Arpt,723320,34.27,-88.77,38801
122,MS,G2800110,Greenville Municipal,722356,33.48,-90.98,38782
123,MS,G2800130,Tupelo C D Lemons Arpt,723320,34.27,-88.77,38801
124,MS,G2800150,Greenwood Leflore Arpt,722359,33.5,-90.08,
125,MS,G2800170,Tupelo C D Lemons Arpt,723320,34.27,-88.77,38801
126,MS,G2800190,Golden Tri Awos,723307,33.45,-88.58,
127,MS,G2800210,Natchez Hardy Awos,722357,31.62,-91.3,39190
128,MS,G2800230,Meridian Key Field,722340,32.33,-88.75,39307
129,MS,G2800250,Golden Tri Awos,723307,33.45,-88.58,
130,MS,G2800270,Greenville Municipal,722356,33.48,-90.98,38782
131,MS,G2800290,Jackson International Ap,722350,32.32,-90.08,39232
132,MS,G2800310,Hattiesburg Laurel,722348,31.47,-89.33,39459
133,TN,G2800330,Memphis International Ap,723340,35.07,-89.98,38131
134,MS,G2800350,Hattiesburg Laurel,722348,31.47,-89.33,39459
135,MS,G2800370,Natchez Hardy Awos,722357,31.62,-91.3,39190
136,AL,G2800390,Mobile Regional Ap,722230,30.68,-88.25,36608
137,MS,G2800410,Hattiesburg Laurel,722348,31.47,-89.33,39459
138,MS,G2800430,Greenwood Leflore Arpt,722359,33.5,-90.08,
139,MS,G2800450,Gulfport Biloxi Int,747685,30.4,-89.07,
140,MS,G2800470,Gulfport-Biloxi Intl AP,747570,30.4,-89.067,39502
141,MS,G2800490,Jackson International Ap,722350,32.32,-90.08,39232
142,MS,G2800510,Greenwood Leflore Arpt,722359,33.5,-90.08,
143,MS,G2800530,Greenwood-Leflore AP,747580,33.5,-90.083,
144,MS,G2800550,Greenville Municipal,722356,33.48,-90.98,38782
145,MS,G2800570,Tupelo C D Lemons Arpt,723320,34.27,-88.77,38801
146,MS,G2800590,Keesler Afb,747686,30.42,-88.92,39534
147,MS,G2800610,Hattiesburg Laurel,722348,31.47,-89.33,39459
148,MS,G2800630,Natchez Hardy Awos,722357,31.62,-91.3,39190
149,MS,G2800650,Hattiesburg Laurel,722348,31.47,-89.33,39459
150,MS,G2800670,Hattiesburg Laurel,722348,31.47,-89.33,39459
151,MS,G2800690,Meridian Naas,722345,32.55,-88.57,39309
152,MS,G2800710,Tupelo C D Lemons Arpt,723320,34.27,-88.77,38801
153,MS,G2800730,Hattiesburg Laurel,722348,31.47,-89.33,39459
154,MS,G2800750,Meridian Key Field,722340,32.33,-88.75,39307
155,MS,G2800770,Mccomb Pike County Ap,722358,31.23,-90.47,39648
156,MS,G2800790,Jackson International Ap,722350,32.32,-90.08,39232
157,MS,G2800810,Tupelo C D Lemons Arpt,723320,34.27,-88.77,38801
158,MS,G2800830,Greenwood-Leflore AP,747580,33.5,-90.083,
159,MS,G2800850,Mccomb Pike County Ap,722358,31.23,-90.47,39648
160,MS,G2800870,Columbus Afb,723306,33.65,-88.45,
161,MS,G2800890,Jackson International Ap,722350,32.32,-90.08,39232
162,MS,G2800910,Gulfport Biloxi Int,747685,30.4,-89.07,
163,TN,G2800930,Memphis International Ap,723340,35.07,-89.98,38131
164,MS,G2800950,Columbus Afb,723306,33.65,-88.45,
165,MS,G2800970,Greenwood Leflore Arpt,722359,33.5,-90.08,
166,MS,G2800990,Meridian Key Field,722340,32.33,-88.75,39307
167,MS,G2801010,Meridian Key Field,722340,32.33,-88.75,39307
168,MS,G2801030,Golden Tri Awos,723307,33.45,-88.58,
169,MS,G2801050,Golden Tri Awos,723307,33.45,-88.58,
170,TN,G2801070,Memphis International Ap,723340,35.07,-89.98,38131
171,MS,G2801090,Gulfport Biloxi Int,747685,30.4,-89.07,
172,MS,G2801110,Hattiesburg Laurel,722348,31.47,-89.33,39459
173,MS,G2801130,Mccomb Pike County Ap,722358,31.23,-90.47,39648
174,MS,G2801150,Tupelo C D Lemons Arpt,723320,34.27,-88.77,38801
175,MS,G2801170,Tupelo C D Lemons Arpt,723320,34.27,-88.77,38801
176,MS,G2801190,Greenwood-Leflore AP,747580,33.5,-90.083,
177,MS,G2801210,Jackson International Ap,722350,32.32,-90.08,39232
178,MS,G2801230,Jackson International Ap,722350,32.32,-90.08,39232
179,MS,G2801250,Greenville Municipal,722356,33.48,-90.98,38782
180,MS,G2801270,Jackson International Ap,722350,32.32,-90.08,39232
181,MS,G2801290,Hattiesburg Laurel,722348,31.47,-89.33,39459
182,MS,G2801310,Hattiesburg Laurel,722348,31.47,-89.33,39459
183,MS,G2801330,Greenville Municipal,722356,33.48,-90.98,38782
184,MS,G2801350,Greenwood-Leflore AP,747580,33.5,-90.083,
185,TN,G2801370,Memphis International Ap,723340,35.07,-89.98,38131
186,MS,G2801390,Tupelo C D Lemons Arpt,723320,34.27,-88.77,38801
187,AL,G2801410,Muscle Shoals Regional Ap,723235,34.75,-87.6,35661
188,TN,G2801430,Memphis International Ap,723340,35.07,-89.98,38131
189,MS,G2801450,Tupelo C D Lemons Arpt,723320,34.27,-88.77,38801
190,MS,G2801470,Mccomb Pike County Ap,722358,31.23,-90.47,39648
191,MS,G2801490,Jackson International Ap,722350,32.32,-90.08,39232
192,MS,G2801510,Greenville Municipal,722356,33.48,-90.98,38782
193,MS,G2801530,Meridian Key Field,722340,32.33,-88.75,39307
194,MS,G2801550,Golden Tri Awos,723307,33.45,-88.58,
195,LA,G2801570,Baton Rouge Metro AP,722320,30.533,-91.15,70811
196,MS,G2801590,Golden Tri Awos,723307,33.45,-88.58,
197,MS,G2801610,Greenwood Leflore Arpt,722359,33.5,-90.08,
198,MS,G2801630,Jackson International Ap,722350,32.32,-90.08,39232
199,MO,G2900010,Kirksville Regional Ap,724455,40.1,-92.55,
200,MO,G2900030,St Joseph Rosecrans Memorial,724490,39.77,-94.9,66024
201,IA,G2900050,Shenandoah Muni,725467,40.75,-95.42,
202,MO,G2900070,Columbia Regional Airport,724450,38.82,-92.22,65201
203,AR,G2900090,Rogers  Awos,723449,36.37,-94.1,72756
204,MO,G2900110,Joplin Municipal Ap,723495,37.15,-94.5,64870
205,KS,G2900130,Olathe Johnson Co,724468,38.85,-94.73,66221
206,MO,G2900150,Whiteman Afb,724467,38.72,-93.55,65305
207,MO,G2900170,Cape Girardeau Municipal Ap,723489,37.23,-89.57,63780
208,MO,G2900190,Columbia Regional Airport,724450,38.82,-92.22,65201
209,MO,G2900210,St Joseph Rosecrans Memorial,724490,39.77,-94.9,66024
210,MO,G2900230,Poplar Bluff Amos,723300,36.77,-90.47,63901
211,MO,G2900250,St Joseph Rosecrans Memorial,724490,39.77,-94.9,66024
212,MO,G2900270,Columbia Regional Airport,724450,38.82,-92.22,65201
213,MO,G2900290,Kaiser Mem  Awos,724459,38.1,-92.55,
214,MO,G2900310,Cape Girardeau Rgnl AP,723290,37.233,-89.567,63780
215,MO,G2900330,Whiteman Afb,724467,38.72,-93.55,65305
216,MO,G2900350,Poplar Bluff Amos,723300,36.77,-90.47,63901
217,KS,G2900370,Olathe Johnson Co,724468,38.85,-94.73,66221
218,MO,G2900390,Springfield Regional Arpt,724400,37.23,-93.38,
219,MO,G2900410,Columbia Regional Airport,724450,38.82,-92.22,65201
220,MO,G2900430,Springfield Regional Arpt,724400,37.23,-93.38,
221,IA,G2900450,Keokuk Muni,725456,40.47,-91.43,52632
222,MO,G2900470,Kansas City Downtown Ap,724463,39.12,-94.6,64105
223,MO,G2900490,Kansas City IntL Arpt,724460,39.3,-94.72,64153
224,MO,G2900510,Jefferson City Mem,724458,38.58,-92.15,65102
225,MO,G2900530,Columbia Regional Airport,724450,38.82,-92.22,65201
226,MO,G2900550,Rolla Natl AP,724420,38.133,-91.767,65580
227,MO,G2900570,Springfield Regional Arpt,724400,37.23,-93.38,
228,MO,G2900590,Springfield Regional Arpt,724400,37.23,-93.38,
229,MO,G2900610,St Joseph Rosecrans Memorial,724490,39.77,-94.9,66024
230,MO,G2900630,St Joseph Rosecrans Memorial,724490,39.77,-94.9,66024
231,MO,G2900650,Vichy Rolla Natl Arpt,724456,38.13,-91.77,65580
232,AR,G2900670,Flippin  Awos,723447,36.3,-92.47,72635
233,MO,G2900690,Poplar Bluff Amos,723300,36.77,-90.47,63901
234,MO,G2900710,St Louis Spirit Of St Louis A,724345,38.65,-90.65,63005
235,MO,G2900730,Rolla Natl AP,724420,38.133,-91.767,65580
236,MO,G2900750,St Joseph Rosecrans Memorial,724490,39.77,-94.9,66024
237,MO,G2900770,Springfield Regional Arpt,724400,37.23,-93.38,
238,IA,G2900790,Chariton,725469,41.03,-93.37,
239,IA,G2900810,Creston,725474,41.02,-94.37,50801
240,MO,G2900830,Whiteman Afb,724467,38.72,-93.55,65305
241,MO,G2900850,Springfield Regional Arpt,724400,37.23,-93.38,
242,NE,G2900870,Falls City Brenner,725533,40.08,-95.6,68355
243,MO,G2900890,Columbia Regional Airport,724450,38.82,-92.22,65201
244,AR,G2900910,Flippin  Awos,723447,36.3,-92.47,72635
245,MO,G2900930,Farmington,724454,37.77,-90.4,
246,MO,G2900950,Kansas City Downtown Ap,724463,39.12,-94.6,64105
247,MO,G2900970,Joplin Municipal Ap,723495,37.15,-94.5,64870
248,MO,G2900990,St Louis Spirit Of St Louis A,724345,38.65,-90.65,63005
249,MO,G2901010,Whiteman Afb,724467,38.72,-93.55,65305
250,MO,G2901030,Kirksville Regional Ap,724455,40.1,-92.55,
251,MO,G2901050,Kaiser Mem  Awos,724459,38.1,-92.55,
252,MO,G2901070,Whiteman Afb,724467,38.72,-93.55,65305
253,MO,G2901090,Springfield Regional Arpt,724400,37.23,-93.38,
254,IA,G2901110,Keokuk Muni,725456,40.47,-91.43,52632
255,MO,G2901130,St Louis Spirit Of St Louis A,724345,38.65,-90.65,63005
256,MO,G2901150,Kirksville Regional Ap,724455,40.1,-92.55,
257,MO,G2901170,Kirksville Regional Ap,724455,40.1,-92.55,
258,AR,G2901190,Fort Smith Regional Ap,723440,35.33,-94.37,72903
259,MO,G2901210,Kirksville Regional Ap,724455,40.1,-92.55,
260,MO,G2901230,Farmington,724454,37.77,-90.4,
261,MO,G2901250,Vichy Rolla Natl Arpt,724456,38.13,-91.77,65580
262,IL,G2901270,Quincy Muni Baldwin Fld,724396,39.93,-91.2,62338
263,IA,G2901290,Chariton,725469,41.03,-93.37,
264,MO,G2901310,Kaiser Mem  Awos,724459,38.1,-92.55,
265,MO,G2901330,Cape Girardeau Municipal Ap,723489,37.23,-89.57,63780
266,MO,G2901350,Columbia Regional Airport,724450,38.82,-92.22,65201
267,MO,G2901370,Columbia Regional Airport,724450,38.82,-92.22,65201
268,MO,G2901390,Columbia Regional Airport,724450,38.82,-92.22,65201
269,MO,G2901410,Kaiser Mem  Awos,724459,38.1,-92.55,
270,MO,G2901430,Cape Girardeau Municipal Ap,723489,37.23,-89.57,63780
271,MO,G2901450,Joplin Municipal Ap,723495,37.15,-94.5,64870
272,IA,G2901470,Clarinda,725479,40.72,-95.03,51632
273,MO,G2901490,Poplar Bluff Amos,723300,36.77,-90.47,63901
274,MO,G2901510,Jefferson City Mem,724458,38.58,-92.15,65102
275,AR,G2901530,Flippin  Awos,723447,36.3,-92.47,72635
276,MO,G2901550,Poplar Bluff Amos,723300,36.77,-90.47,63901
277,MO,G2901570,Farmington,724454,37.77,-90.4,
278,MO,G2901590,Whiteman Afb,724467,38.72,-93.55,65305
279,MO,G2901610,Vichy Rolla Natl Arpt,724456,38.13,-91.77,65580
280,IL,G2901630,Quincy Muni Baldwin Fld,724396,39.93,-91.2,62338
281,MO,G2901650,Kansas City IntL Arpt,724460,39.3,-94.72,64153
282,MO,G2901670,Springfield Regional Arpt,724400,37.23,-93.38,
283,MO,G2901690,Ft Lnrd Wd Aaf,724457,37.75,-92.15,65473
284,MO,G2901710,Kirksville Regional Ap,724455,40.1,-92.55,
285,IL,G2901730,Quincy Muni Baldwin Fld,724396,39.93,-91.2,62338
286,MO,G2901750,Columbia Regional Airport,724450,38.82,-92.22,65201
287,MO,G2901770,Kansas City Downtown Ap,724463,39.12,-94.6,64105
288,MO,G2901790,Farmington,724454,37.77,-90.4,
289,MO,G2901810,Poplar Bluff Amos,723300,36.77,-90.47,63901
290,MO,G2901830,St Louis Spirit Of St Louis A,724345,38.65,-90.65,63005
291,MO,G2901850,Whiteman Afb,724467,38.72,-93.55,65305
292,MO,G2901860,Farmington,724454,37.77,-90.4,
293,MO,G2901870,Farmington,724454,37.77,-90.4,
294,MO,G2901890,St Louis Lambert IntL Arpt,724340,38.75,-90.37,63145
295,MO,G2901950,Whiteman Afb,724467,38.72,-93.55,65305
296,MO,G2901970,Kirksville Regional Ap,724455,40.1,-92.55,
297,MO,G2901990,Kirksville Regional Ap,724455,40.1,-92.55,
298,MO,G2902010,Cape Girardeau Municipal Ap,723489,37.23,-89.57,63780
299,MO,G2902030,Ft Lnrd Wd Aaf,724457,37.75,-92.15,65473
300,MO,G2902050,Columbia Regional Airport,724450,38.82,-92.22,65201
301,MO,G2902070,Poplar Bluff Amos,723300,36.77,-90.47,63901
302,MO,G2902090,Springfield Regional Arpt,724400,37.23,-93.38,
303,MO,G2902110,Kirksville Regional Ap,724455,40.1,-92.55,
304,AR,G2902130,Harrison Faa Ap,723446,36.27,-93.15,72601
305,MO,G2902150,Ft Lnrd Wd Aaf,724457,37.75,-92.15,65473
306,MO,G2902170,Joplin Municipal Ap,723495,37.15,-94.5,64870
307,MO,G2902190,St Louis Spirit Of St Louis A,724345,38.65,-90.65,63005
308,MO,G2902210,Farmington,724454,37.77,-90.4,
309,MO,G2902230,Poplar Bluff Amos,723300,36.77,-90.47,63901
310,MO,G2902250,Springfield Regional Arpt,724400,37.23,-93.38,
311,IA,G2902270,Creston,725474,41.02,-94.37,50801
312,MO,G2902290,Ft Lnrd Wd Aaf,724457,37.75,-92.15,65473
313,IL,G2905100,Cahokia St  Louis,725314,38.57,-90.15,62206
314,MT,G3000010,Butte Bert Mooney Arpt,726785,45.95,-112.5,59701
315,WY,G3000030,Sheridan County Arpt,726660,44.77,-106.97,82801
316,MT,G3000050,Havre City County Ap,727770,48.55,-109.77,
317,MT,G3000070,Helena Regional Airport,727720,46.6,-111.97,59601
318,MT,G3000090,Billings Logan IntL Arpt,726770,45.8,-108.55,59102
319,MT,G3000110,Glendive Awos,726676,47.13,-104.8,59330
320,MT,G3000130,Great Falls Intl Arpt,727750,47.47,-111.38,59404
321,MT,G3000150,Havre City County Ap,727770,48.55,-109.77,
322,MT,G3000170,Miles City Municipal Arpt,742300,46.43,-105.88,
323,MT,G3000190,Wolf Point Intl  Fort Peck   S,727686,48.31,-105.1,
324,MT,G3000210,Glendive Awos,726676,47.13,-104.8,59330
325,MT,G3000230,Butte Bert Mooney Arpt,726785,45.95,-112.5,59701
326,MT,G3000250,Glendive Awos,726676,47.13,-104.8,59330
327,MT,G3000270,Lewistown Municipal Arpt,726776,47.05,-109.45,59457
328,MT,G3000290,Kalispell Glacier Pk IntL Ar,727790,48.32,-114.25,
329,MT,G3000310,Bozeman Gallatin Field,726797,45.8,-111.15,59714
330,MT,G3000330,Glasgow Intl Arpt,727680,48.22,-106.62,
331,MT,G3000350,Cut Bank Muni Ap,727796,48.6,-112.37,59427
332,MT,G3000370,Billings Logan IntL Arpt,726770,45.8,-108.55,59102
333,MT,G3000390,Missoula International Ap,727730,46.92,-114.1,
334,MT,G3000410,Havre City County Ap,727770,48.55,-109.77,
335,MT,G3000430,Helena Regional Airport,727720,46.6,-111.97,59601
336,MT,G3000450,Lewistown Municipal Arpt,726776,47.05,-109.45,59457
337,MT,G3000470,Missoula International Ap,727730,46.92,-114.1,
338,MT,G3000490,Helena Regional Airport,727720,46.6,-111.97,59601
339,MT,G3000510,Great Falls Intl Arpt,727750,47.47,-111.38,59404
340,MT,G3000530,Kalispell Glacier Pk IntL Ar,727790,48.32,-114.25,
341,MT,G3000550,Wolf Point Intl  Fort Peck   S,727686,48.31,-105.1,
342,MT,G3000570,Butte Bert Mooney Arpt,726785,45.95,-112.5,59701
343,MT,G3000590,Bozeman Gallatin Field,726797,45.8,-111.15,59714
344,MT,G3000610,Missoula International Ap,727730,46.92,-114.1,
345,MT,G3000630,Missoula International Ap,727730,46.92,-114.1,
346,MT,G3000650,Billings Logan IntL Arpt,726770,45.8,-108.55,59102
347,MT,G3000670,Livingston Mission Field,726798,45.7,-110.45,
348,MT,G3000690,Lewistown Municipal Arpt,726776,47.05,-109.45,59457
349,MT,G3000710,Glasgow Intl Arpt,727680,48.22,-106.62,
350,MT,G3000730,Cut Bank Intl AP,727690,48.6,-112.367,59427
351,MT,G3000750,Miles City Municipal Arpt,742300,46.43,-105.88,
352,MT,G3000770,Butte Bert Mooney Arpt,726785,45.95,-112.5,59701
353,MT,G3000790,Glendive Awos,726676,47.13,-104.8,59330
354,MT,G3000810,Missoula International Ap,727730,46.92,-114.1,
355,MT,G3000830,Sidney Richland,727687,47.7,-104.2,59270
356,MT,G3000850,Wolf Point Intl  Fort Peck   S,727686,48.31,-105.1,
357,MT,G3000870,Miles City Municipal Arpt,742300,46.43,-105.88,
358,MT,G3000890,Kalispell Glacier Pk IntL Ar,727790,48.32,-114.25,
359,ND,G3000910,Williston Sloulin Intl Ap,727670,48.2,-103.65,58801
360,MT,G3000930,Butte Bert Mooney Arpt,726785,45.95,-112.5,59701
361,MT,G3000950,Billings Logan IntL Arpt,726770,45.8,-108.55,59102
362,MT,G3000970,Livingston Mission Field,726798,45.7,-110.45,
363,MT,G3000990,Great Falls Intl Arpt,727750,47.47,-111.38,59404
364,MT,G3001010,Cut Bank Intl AP,727690,48.6,-112.367,59427
365,MT,G3001030,Miles City Municipal Arpt,742300,46.43,-105.88,
366,MT,G3001050,Glasgow Intl Arpt,727680,48.22,-106.62,
367,MT,G3001070,Lewistown Municipal Arpt,726776,47.05,-109.45,59457
368,ND,G3001090,Dickinson Municipal Ap,727645,46.8,-102.8,
369,MT,G3001110,Billings Logan IntL Arpt,726770,45.8,-108.55,59102
370,NE,G3100010,Hastings Municipal,725525,40.6,-98.43,68902
371,NE,G3100030,Norfolk Karl Stefan Mem Arpt,725560,41.98,-97.43,68701
372,NE,G3100050,Imperial Faa Ap,725626,40.52,-101.62,69033
373,NE,G3100070,Scottsbluff W B Heilig Field,725660,41.87,-103.6,
374,NE,G3100090,Broken Bow Muni,725555,41.43,-99.65,68822
375,NE,G3100110,Norfolk Karl Stefan Mem Arpt,725560,41.98,-97.43,68701
376,NE,G3100130,Alliance Municipal,725635,42.05,-102.8,
377,NE,G3100150,O Neill Baker Field,725566,42.47,-98.68,
378,NE,G3100170,Ainsworth Municipal,725556,42.58,-100.0,
379,NE,G3100190,Kearney Muni  Awos,725526,40.73,-99.0,68847
380,NE,G3100210,Tekamah  Asos,725527,41.77,-96.17,68061
381,NE,G3100230,Columbus Muni,725565,41.45,-97.33,68601
382,NE,G3100250,Bellevue Offutt Afb,725540,41.12,-95.92,68123
383,SD,G3100270,Chan Gurney Muni,726525,42.92,-97.38,
384,NE,G3100290,Imperial Faa Ap,725626,40.52,-101.62,69033
385,NE,G3100310,Valentine Miller Field,725670,42.87,-100.55,69201
386,NE,G3100330,Sidney Municipal Ap,725610,41.1,-102.98,69162
387,NE,G3100350,Hastings Municipal,725525,40.6,-98.43,68902
388,NE,G3100370,Columbus Muni,725565,41.45,-97.33,68601
389,NE,G3100390,Fremont Muni Arpt,725564,41.45,-96.52,68025
390,NE,G3100410,Broken Bow Muni,725555,41.43,-99.65,68822
391,IA,G3100430,Sioux City Sioux Gateway Ap,725570,42.38,-96.38,51054
392,NE,G3100450,Chadron Municipal Ap,725636,42.83,-103.08,
393,NE,G3100470,Broken Bow Muni,725555,41.43,-99.65,68822
394,NE,G3100490,Sidney Municipal Ap,725610,41.1,-102.98,69162
395,IA,G3100510,Sioux City Sioux Gateway Ap,725570,42.38,-96.38,51054
396,NE,G3100530,Fremont Muni Arpt,725564,41.45,-96.52,68025
397,NE,G3100550,Omaha Wsfo,725530,41.37,-96.02,68152
398,NE,G3100570,Imperial Faa Ap,725626,40.52,-101.62,69033
399,NE,G3100590,Hastings Municipal,725525,40.6,-98.43,68902
400,NE,G3100610,Brewster Field Arpt,725628,40.45,-99.33,68949
401,NE,G3100630,Mccook Municipal,725625,40.2,-100.58,69001
402,NE,G3100650,Brewster Field Arpt,725628,40.45,-99.33,68949
403,NE,G3100670,Beatrice Municipal,725515,40.3,-96.75,
404,NE,G3100690,Sidney Municipal Ap,725610,41.1,-102.98,69162
405,NE,G3100710,Ord Sharp Field,725524,41.62,-98.95,68862
406,NE,G3100730,Brewster Field Arpt,725628,40.45,-99.33,68949
407,NE,G3100750,Alliance Municipal,725635,42.05,-102.8,
408,NE,G3100770,Ord Sharp Field,725524,41.62,-98.95,68862
409,NE,G3100790,Grand Island Central Ne Regio,725520,40.97,-98.32,68824
410,NE,G3100810,Grand Island Central Ne Regio,725520,40.97,-98.32,68824
411,NE,G3100830,Brewster Field Arpt,725628,40.45,-99.33,68949
412,NE,G3100850,Imperial Faa Ap,725626,40.52,-101.62,69033
413,NE,G3100870,Mccook Municipal,725625,40.2,-100.58,69001
414,NE,G3100890,O Neill Baker Field,725566,42.47,-98.68,
415,NE,G3100910,North Platte Regional Ap,725620,41.12,-100.67,69101
416,NE,G3100930,Grand Island Central Ne Regio,725520,40.97,-98.32,68824
417,NE,G3100950,Beatrice Municipal,725515,40.3,-96.75,
418,NE,G3100970,Beatrice Municipal,725515,40.3,-96.75,
419,NE,G3100990,Kearney Muni  Awos,725526,40.73,-99.0,68847
420,NE,G3101010,Imperial Faa Ap,725626,40.52,-101.62,69033
421,NE,G3101030,Ainsworth Municipal,725556,42.58,-100.0,
422,NE,G3101050,Scottsbluff W B Heilig Field,725660,41.87,-103.6,
423,SD,G3101070,Chan Gurney Muni,726525,42.92,-97.38,
424,NE,G3101090,Lincoln Municipal Arpt,725510,40.83,-96.77,68588
425,NE,G3101110,North Platte Regional Ap,725620,41.12,-100.67,69101
426,NE,G3101130,North Platte Regional Ap,725620,41.12,-100.67,69101
427,NE,G3101150,Broken Bow Muni,725555,41.43,-99.65,68822
428,NE,G3101170,North Platte Regional Ap,725620,41.12,-100.67,69101
429,NE,G3101190,Norfolk Karl Stefan Mem Arpt,725560,41.98,-97.43,68701
430,NE,G3101210,Grand Island Central Ne Regio,725520,40.97,-98.32,68824
431,NE,G3101230,Scottsbluff W B Heilig Field,725660,41.87,-103.6,
432,NE,G3101250,Columbus Muni,725565,41.45,-97.33,68601
433,NE,G3101270,Falls City Brenner,725533,40.08,-95.6,68355
434,NE,G3101290,Hastings Municipal,725525,40.6,-98.43,68902
435,NE,G3101310,Bellevue Offutt Afb,725540,41.12,-95.92,68123
436,NE,G3101330,Falls City Brenner,725533,40.08,-95.6,68355
437,NE,G3101350,Imperial Faa Ap,725626,40.52,-101.62,69033
438,NE,G3101370,Brewster Field Arpt,725628,40.45,-99.33,68949
439,NE,G3101390,Norfolk Karl Stefan Mem Arpt,725560,41.98,-97.43,68701
440,NE,G3101410,Columbus Muni,725565,41.45,-97.33,68601
441,NE,G3101430,Columbus Muni,725565,41.45,-97.33,68601
442,NE,G3101450,Mccook Municipal,725625,40.2,-100.58,69001
443,NE,G3101470,Falls City Brenner,725533,40.08,-95.6,68355
444,NE,G3101490,Ainsworth Municipal,725556,42.58,-100.0,
445,NE,G3101510,Lincoln Municipal Arpt,725510,40.83,-96.77,68588
446,NE,G3101530,Bellevue Offutt Afb,725540,41.12,-95.92,68123
447,NE,G3101550,Fremont Muni Arpt,725564,41.45,-96.52,68025
448,NE,G3101570,Scottsbluff W B Heilig Field,725660,41.87,-103.6,
449,NE,G3101590,Lincoln Municipal Arpt,725510,40.83,-96.77,68588
450,NE,G3101610,Chadron Municipal Ap,725636,42.83,-103.08,
451,NE,G3101630,Ord Sharp Field,725524,41.62,-98.95,68862
452,NE,G3101650,Scottsbluff W B Heilig Field,725660,41.87,-103.6,
453,NE,G3101670,Norfolk Karl Stefan Mem Arpt,725560,41.98,-97.43,68701
454,KS,G3101690,Concordia Blosser Muni Ap,724580,39.55,-97.65,66901
455,NE,G3101710,Ainsworth Municipal,725556,42.58,-100.0,
456,IA,G3101730,Sioux City Sioux Gateway Ap,725570,42.38,-96.38,51054
457,NE,G3101750,Ord Sharp Field,725524,41.62,-98.95,68862
458,NE,G3101770,Omaha Wsfo,725530,41.37,-96.02,68152
459,NE,G3101790,Norfolk Karl Stefan Mem Arpt,725560,41.98,-97.43,68701
460,NE,G3101810,Hastings Municipal,725525,40.6,-98.43,68902
461,NE,G3101830,Ord Sharp Field,725524,41.62,-98.95,68862
462,NE,G3101850,Columbus Muni,725565,41.45,-97.33,68601
463,NV,G3200010,Fallon Naas,724885,39.42,-118.72,
464,NV,G3200030,Las Vegas Mccarran Intl Ap,723860,36.08,-115.15,89154
465,CA,G3200050,Truckee Tahoe,725846,39.32,-120.13,
466,NV,G3200070,Elko Municipal Arpt,725825,40.83,-115.8,89890
467,NV,G3200090,Tonopah Airport,724855,38.07,-117.08,
468,NV,G3200110,Elko Municipal Arpt,725825,40.83,-115.8,89890
469,NV,G3200130,Winnemucca Municipal Arpt,725830,40.9,-117.8,88944
470,NV,G3200150,Winnemucca Municipal Arpt,725830,40.9,-117.8,88944
471,UT,G3200170,Cedar City Municipal Ap,724755,37.7,-113.1,84720
472,NV,G3200190,Reno Tahoe International Ap,724880,39.48,-119.77,89502
473,NV,G3200210,Fallon Naas,724885,39.42,-118.72,
474,NV,G3200230,Mercury Desert Rock Ap  Surfra,723870,36.63,-116.02,89023
475,NV,G3200270,Lovelock Derby Field,725805,40.07,-118.55,
476,NV,G3200290,Reno Tahoe International Ap,724880,39.48,-119.77,89502
477,NV,G3200310,Reno Tahoe International Ap,724880,39.48,-119.77,89502
478,NV,G3200330,Ely Yelland Field,724860,39.3,-114.85,89301
479,NV,G3205100,Reno Tahoe International Ap,724880,39.48,-119.77,89502
480,NH,G3300010,Laconia Muni  Awos,726155,43.57,-71.42,03249
481,NH,G3300030,Laconia Muni  Awos,726155,43.57,-71.42,03249
482,NH,G3300050,Dillant Hopkins,726165,42.9,-72.27,03446
483,NH,G3300070,Berlin Municipal,726160,44.58,-71.18,03588
484,NH,G3300090,Lebanon Municipal,726116,43.63,-72.3,03784
485,NH,G3300110,Manchester Airport,743945,42.93,-71.43,03103
486,NH,G3300130,Concord Municipal Arpt,726050,43.2,-71.5,03305
487,MA,G3300150,Lawrence Muni,744904,42.72,-71.12,01842
488,NH,G3300170,Pease Intl Tradepor,726055,43.08,-70.82,03801
489,VT,G3300190,Springfield Hartnes,726115,43.35,-72.52,05151
490,NJ,G3400010,Atlantic City Intl Ap,724070,39.45,-74.57,08240
491,NJ,G3400030,Teterboro Airport,725025,40.85,-74.07,07608
492,PA,G3400050,Philadelphia Ne Philadelphia,724085,40.08,-75.02,19114
493,PA,G3400070,Philadelphia International Ap,724080,39.87,-75.23,19113
494,NJ,G3400090,Cape May Co,745966,39.0,-74.92,08204
495,NJ,G3400110,Millville Municipal Ap,724075,39.37,-75.08,08332
496,NJ,G3400130,Newark International Arpt,725020,40.72,-74.18,07104
497,PA,G3400150,Philadelphia International Ap,724080,39.87,-75.23,19113
498,NY,G3400170,New York Central Prk Obs Belv,725033,40.78,-73.97,10024
499,NJ,G3400190,Trenton Mercer County Ap,724095,40.28,-74.82,08628
500,NJ,G3400210,Trenton Mercer County Ap,724095,40.28,-74.82,08628
501,NJ,G3400230,Newark International Arpt,725020,40.72,-74.18,07104
502,NJ,G3400250,Belmar Asc,724084,40.18,-74.07,07719
503,NJ,G3400270,Teterboro Airport,725025,40.85,-74.07,07608
504,NJ,G3400290,Belmar Asc,724084,40.18,-74.07,07719
505,NJ,G3400310,Caldwell Essex Co,724094,40.88,-74.28,07004
506,DE,G3400330,Wilmington New Castle Cnty Ap,724089,39.67,-75.6,19720
507,NJ,G3400350,Trenton Mercer County Ap,724095,40.28,-74.82,08628
508,NJ,G3400370,Teterboro Airport,725025,40.85,-74.07,07608
509,NJ,G3400390,Newark International Arpt,725020,40.72,-74.18,07104
510,PA,G3400410,Allentown Lehigh Valley Intl,725170,40.65,-75.45,18032
511,NM,G3500010,Albuquerque Intl Arpt  Isis,723650,35.04,-106.62,87106
512,AZ,G3500030,Show Low Municipal,723747,34.27,-110.0,85901
513,NM,G3500050,Roswell Industrial Air Park,722680,33.3,-104.53,88203
514,NM,G3500060,Albuquerque Intl Arpt  Isis,723650,35.04,-106.62,87106
515,NM,G3500070,Taos Muni Apt Awos,723663,36.45,-105.67,87529
516,NM,G3500090,Clovis Cannon Afb,722686,34.38,-103.32,88103
517,NM,G3500110,Clovis Cannon Afb,722686,34.38,-103.32,88103
518,NM,G3500130,Las Cruces Intl,722695,32.28,-106.92,
519,NM,G3500150,Carlsbad Cavern City Air Term,722687,32.33,-104.27,
520,NM,G3500170,Truth Or Consequences Muni Ap,722710,33.23,-107.27,
521,NM,G3500190,Las Vegas Municipal Arpt,723677,35.65,-105.15,
522,NM,G3500210,Tucumcari Faa Ap,723676,35.18,-103.6,
523,NM,G3500230,Deming Muni,722725,32.25,-107.72,88030
524,TX,G3500250,Wink Winkler County Ap,722656,31.78,-103.2,79789
525,NM,G3500270,Sierra Blanca Rgnl,722683,33.47,-105.53,
526,NM,G3500280,Sata Fe County Municipal Ap,723656,35.62,-106.08,87507
527,NM,G3500290,Deming Muni,722725,32.25,-107.72,88030
528,NM,G3500310,Gallup Sen Clarke Fld,723627,35.52,-108.78,87301
529,NM,G3500330,Las Vegas Municipal Arpt,723677,35.65,-105.15,
530,NM,G3500350,Holloman Afb,747320,32.85,-106.1,
531,NM,G3500370,Tucumcari Faa Ap,723676,35.18,-103.6,
532,NM,G3500390,Taos Muni Apt Awos,723663,36.45,-105.67,87529
533,NM,G3500410,Clovis Cannon Afb,722686,34.38,-103.32,88103
534,NM,G3500430,Albuquerque Intl Arpt  Isis,723650,35.04,-106.62,87106
535,NM,G3500450,Farmington Four Corners Regl,723658,36.75,-108.23,
536,NM,G3500470,Las Vegas Municipal Arpt,723677,35.65,-105.15,
537,NM,G3500490,Sata Fe County Municipal Ap,723656,35.62,-106.08,87507
538,NM,G3500510,Truth Or Consequences Muni Ap,722710,33.23,-107.27,
539,NM,G3500530,Albuquerque Intl Arpt  Isis,723650,35.04,-106.62,87106
540,NM,G3500550,Taos Muni Apt Awos,723663,36.45,-105.67,87529
541,NM,G3500570,Sata Fe County Municipal Ap,723656,35.62,-106.08,87507
542,NM,G3500590,Clayton Municipal Airpark,723600,36.45,-103.15,
543,NM,G3500610,Albuquerque Intl Arpt  Isis,723650,35.04,-106.62,87106
544,NY,G3600010,Albany County Ap,725180,42.75,-73.8,12205
545,PA,G3600030,Bradford Regional Ap,725266,41.8,-78.63,
546,NY,G3600050,New York Laguardia Arpt,725030,40.78,-73.88,11371
547,NY,G3600070,Binghamton Edwin A Link Field,725150,42.2,-75.98,13905
548,PA,G3600090,Bradford Regional Ap,725266,41.8,-78.63,
549,NY,G3600110,Syracuse Hancock IntL Arpt,725190,43.12,-76.1,13212
550,NY,G3600130,Jamestown  Awos,725235,42.15,-79.27,14701
551,NY,G3600150,Elmira Corning Regional Ap,725156,42.17,-76.9,14845
552,NY,G3600170,Binghamton Edwin A Link Field,725150,42.2,-75.98,13905
553,VT,G3600190,Burlington International Ap,726170,44.47,-73.15,05403
554,NY,G3600210,Albany County Ap,725180,42.75,-73.8,12205
555,NY,G3600230,Binghamton Edwin A Link Field,725150,42.2,-75.98,13905
556,NY,G3600250,Monticello Awos,725145,41.7,-74.8,12762
557,NY,G3600270,Poughkeepsie Dutchess Co Ap,725036,41.63,-73.88,12590
558,NY,G3600290,Buffalo Niagara Intl Ap,725280,42.93,-78.73,14225
559,NY,G3600310,Adirondack Rgnl,726228,44.38,-74.2,12945
560,NY,G3600330,Adirondack Rgnl,726228,44.38,-74.2,12945
561,NY,G3600350,Albany County Ap,725180,42.75,-73.8,12205
562,NY,G3600370,Rochester Greater Rochester I,725290,43.12,-77.68,14624
563,NY,G3600390,Albany County Ap,725180,42.75,-73.8,12205
564,NY,G3600410,Adirondack Rgnl,726228,44.38,-74.2,12945
565,NY,G3600430,Utica Oneida County Ap,725197,43.15,-75.38,13424
566,NY,G3600450,Watertown Ap,726227,44.0,-76.02,13634
567,NY,G3600470,New York-Central Park Observatory-Belevedere Castle,725053,40.7793,-73.9691,
568,NY,G3600490,Fort Drum Wheeler S,743700,44.05,-75.72,13643
569,NY,G3600510,Rochester Greater Rochester I,725290,43.12,-77.68,14624
570,NY,G3600530,Utica Oneida County Ap,725197,43.15,-75.38,13424
571,NY,G3600550,Rochester Greater Rochester I,725290,43.12,-77.68,14624
572,NY,G3600570,Albany County Ap,725180,42.75,-73.8,12205
573,NY,G3600590,Republic,744864,40.72,-73.42,11735
574,NY,G3600610,New York-Central Park Observatory-Belevedere Castle,725053,40.7793,-73.9691,
575,NY,G3600630,Niagara Falls Af,725287,43.1,-78.95,14304
576,NY,G3600650,Utica Oneida County Ap,725197,43.15,-75.38,13424
577,NY,G3600670,Syracuse Hancock IntL Arpt,725190,43.12,-76.1,13212
578,NY,G3600690,Rochester Greater Rochester I,725290,43.12,-77.68,14624
579,NY,G3600710,Stewart Field,725038,41.5,-74.1,12475
580,NY,G3600730,Rochester Greater Rochester I,725290,43.12,-77.68,14624
581,NY,G3600750,Syracuse Hancock IntL Arpt,725190,43.12,-76.1,13212
582,NY,G3600770,Utica Oneida County Ap,725197,43.15,-75.38,13424
583,CT,G3600790,Danbury Municipal,725086,41.37,-73.48,06813
584,NY,G3600810,New York Laguardia Arpt,725030,40.78,-73.88,11371
585,NY,G3600830,Albany County Ap,725180,42.75,-73.8,12205
586,NJ,G3600850,Newark International Arpt,725020,40.72,-74.18,07104
587,NY,G3600870,White Plains Westchester Co A,725037,41.07,-73.72,10577
588,NY,G3600890,Massena Ap,726223,44.93,-74.85,13662
589,NY,G3600910,Albany County Ap,725180,42.75,-73.8,12205
590,NY,G3600930,Albany County Ap,725180,42.75,-73.8,12205
591,NY,G3600950,Albany County Ap,725180,42.75,-73.8,12205
592,NY,G3600970,Elmira Corning Regional Ap,725156,42.17,-76.9,14845
593,NY,G3600990,Elmira Corning Regional Ap,725156,42.17,-76.9,14845
594,NY,G3601010,Elmira Corning Regional Ap,725156,42.17,-76.9,14845
595,NY,G3601030,Islip-Long Island MacArthur AP,725050,40.79,-73.1,11779
596,NY,G3601050,Monticello Awos,725145,41.7,-74.8,12762
597,NY,G3601070,Binghamton Edwin A Link Field,725150,42.2,-75.98,13905
598,NY,G3601090,Binghamton Edwin A Link Field,725150,42.2,-75.98,13905
599,NY,G3601110,Poughkeepsie Dutchess Co Ap,725036,41.63,-73.88,12590
600,NY,G3601130,Glens Falls Ap,725185,43.35,-73.62,12804
601,NY,G3601150,Glens Falls-Bennett Meml AP,725220,43.35,-73.617,12804
602,NY,G3601170,Rochester Greater Rochester I,725290,43.12,-77.68,14624
603,NY,G3601190,White Plains Westchester Co A,725037,41.07,-73.72,10577
604,NY,G3601210,Buffalo Niagara Intl Ap,725280,42.93,-78.73,14225
605,NY,G3601230,Elmira Corning Regional Ap,725156,42.17,-76.9,14845
606,VA,G3700010,Danville Faa Ap,724106,36.57,-79.33,24586
607,NC,G3700030,Hickory Regional Ap,723145,35.73,-81.38,28601
608,WV,G3700050,Beckley Raleigh Co Mem Ap,724120,37.8,-81.12,25813
609,NC,G3700070,Southern Pines Awos,723143,35.23,-79.4,28327
610,WV,G3700090,Beckley Raleigh Co Mem Ap,724120,37.8,-81.12,25813
611,TN,G3700110,Bristol-Tri-Cities Rgnl AP,723350,36.467,-82.4,
612,NC,G3700130,Pitt Greenville Arp,723065,35.63,-77.4,27834
613,VA,G3700150,Franklin Naas,723083,36.7,-76.9,23315
614,NC,G3700170,Fayetteville Rgnl G,723035,34.98,-78.88,28306
615,NC,G3700190,Wilmington International Arpt,723013,34.27,-77.9,28405
616,NC,G3700210,Asheville Regional Arpt,723150,35.43,-82.53,28704
617,NC,G3700230,Hickory Rgnl AP,723010,35.733,-81.383,28601
618,NC,G3700250,Charlotte Douglas Intl Arpt,723140,35.22,-80.95,28208
619,NC,G3700270,Hickory Rgnl AP,723010,35.733,-81.383,28601
620,NC,G3700290,Elizabeth City Coast Guard Ai,746943,36.3,-76.25,27909
621,NC,G3700310,Cherry Point Mcas,723090,34.9,-76.88,28532
622,VA,G3700330,Danville Faa Ap,724106,36.57,-79.33,24586
623,NC,G3700350,Hickory Regional Ap,723145,35.73,-81.38,28601
624,NC,G3700370,Raleigh Durham International,723060,35.87,-78.78,27617
625,TN,G3700390,Knoxville Mcghee Tyson Ap,723260,35.82,-83.98,37701
626,NC,G3700410,Elizabeth City Coast Guard Ai,746943,36.3,-76.25,27909
627,TN,G3700430,Knoxville Mcghee Tyson Ap,723260,35.82,-83.98,37701
628,NC,G3700450,Hickory Regional Ap,723145,35.73,-81.38,28601
629,SC,G3700470,North Myrtle Beach Grand Stra,747915,33.82,-78.72,29598
630,NC,G3700490,New Bern Craven Co Regl Ap,723095,35.07,-77.05,28562
631,NC,G3700510,Fort Bragg Simmons Aaf,746930,35.13,-78.93,28311
632,NC,G3700530,Elizabeth City Rgnl AP-CGAS Elizabeth City,723070,36.26,-76.179,27909
633,NC,G3700550,Dare Co Rgnl,723046,35.92,-75.7,27954
634,NC,G3700570,Charlotte Douglas Intl Arpt,723140,35.22,-80.95,28208
635,NC,G3700590,Charlotte Douglas Intl Arpt,723140,35.22,-80.95,28208
636,NC,G3700610,Jacksonville  Awos,723069,34.83,-77.62,
637,NC,G3700630,Raleigh Durham International,723060,35.87,-78.78,27617
638,NC,G3700650,Pitt Greenville Arp,723065,35.63,-77.4,27834
639,NC,G3700670,Winston Salem Reynolds Ap,723193,36.13,-80.22,27105
640,NC,G3700690,Raleigh Durham International,723060,35.87,-78.78,27617
641,NC,G3700710,Charlotte Douglas Intl Arpt,723140,35.22,-80.95,28208
642,VA,G3700730,Franklin Naas,723083,36.7,-76.9,23315
643,TN,G3700750,Knoxville Mcghee Tyson Ap,723260,35.82,-83.98,37701
644,NC,G3700770,Raleigh Durham International,723060,35.87,-78.78,27617
645,NC,G3700790,Kinston Stallings Afb,723067,35.32,-77.63,28503
646,NC,G3700810,Greensboro Piedmont Triad Int,723170,36.1,-79.95,27410
647,NC,G3700830,Rocky Mount Wilson,723068,35.85,-77.9,27822
648,NC,G3700850,Raleigh Durham International,723060,35.87,-78.78,27617
649,NC,G3700870,Asheville Regional Arpt,723150,35.43,-82.53,28704
650,NC,G3700890,Asheville Regional Arpt,723150,35.43,-82.53,28704
651,VA,G3700910,Franklin Naas,723083,36.7,-76.9,23315
652,NC,G3700930,Fayetteville Pope Afb,723030,35.17,-79.02,28308
653,NC,G3700950,Cape Hatteras Nws Bldg,723040,35.27,-75.55,27920
654,NC,G3700970,Hickory Regional Ap,723145,35.73,-81.38,28601
655,NC,G3700990,Asheville Regional Arpt,723150,35.43,-82.53,28704
656,NC,G3701010,Goldsboro Seymour Johnson Afb,723066,35.35,-77.97,27531
657,NC,G3701030,New Bern Craven Co Regl Ap,723095,35.07,-77.05,28562
658,NC,G3701050,Raleigh Durham International,723060,35.87,-78.78,27617
659,NC,G3701070,Kinston Stallings Afb,723067,35.32,-77.63,28503
660,NC,G3701090,Hickory Regional Ap,723145,35.73,-81.38,28601
661,NC,G3701110,Asheville Regional Arpt,723150,35.43,-82.53,28704
662,NC,G3701130,Asheville Regional Arpt,723150,35.43,-82.53,28704
663,NC,G3701150,Asheville Regional Arpt,723150,35.43,-82.53,28704
664,NC,G3701170,Pitt Greenville Arp,723065,35.63,-77.4,27834
665,NC,G3701190,Charlotte Douglas Intl Arpt,723140,35.22,-80.95,28208
666,TN,G3701210,Bristol-Tri-Cities Rgnl AP,723350,36.467,-82.4,
667,NC,G3701230,Southern Pines Awos,723143,35.23,-79.4,28327
668,NC,G3701250,Southern Pines Awos,723143,35.23,-79.4,28327
669,NC,G3701270,Rocky Mount Wilson,723068,35.85,-77.9,27822
670,NC,G3701290,Wilmington International Arpt,723013,34.27,-77.9,28405
671,VA,G3701310,Franklin Naas,723083,36.7,-76.9,23315
672,NC,G3701330,New River Mcaf,723096,34.7,-77.38,28547
673,NC,G3701350,Raleigh Durham International,723060,35.87,-78.78,27617
674,NC,G3701370,Cherry Point Mcas,723090,34.9,-76.88,28532
675,NC,G3701390,Elizabeth City Coast Guard Ai,746943,36.3,-76.25,27909
676,NC,G3701410,Wilmington International Arpt,723013,34.27,-77.9,28405
677,NC,G3701430,Elizabeth City Coast Guard Ai,746943,36.3,-76.25,27909
678,VA,G3701450,Danville Faa Ap,724106,36.57,-79.33,24586
679,NC,G3701470,Pitt Greenville Arp,723065,35.63,-77.4,27834
680,NC,G3701490,Asheville Regional Arpt,723150,35.43,-82.53,28704
681,NC,G3701510,Southern Pines Awos,723143,35.23,-79.4,28327
682,NC,G3701530,Southern Pines Awos,723143,35.23,-79.4,28327
683,NC,G3701550,Fayetteville Rgnl G,723035,34.98,-78.88,28306
684,VA,G3701570,Martinsville,745985,36.63,-80.02,24112
685,NC,G3701590,Charlotte Douglas Intl Arpt,723140,35.22,-80.95,28208
686,NC,G3701610,Asheville Regional Arpt,723150,35.43,-82.53,28704
687,NC,G3701630,Fayetteville Rgnl G,723035,34.98,-78.88,28306
688,NC,G3701650,Southern Pines Awos,723143,35.23,-79.4,28327
689,NC,G3701670,Charlotte Douglas Intl Arpt,723140,35.22,-80.95,28208
690,NC,G3701690,Winston Salem Reynolds Ap,723193,36.13,-80.22,27105
691,VA,G3701710,Hillsville,724107,36.77,-80.82,24381
692,TN,G3701730,Knoxville Mcghee Tyson Ap,723260,35.82,-83.98,37701
693,NC,G3701750,Asheville Regional Arpt,723150,35.43,-82.53,28704
694,NC,G3701770,Elizabeth City Rgnl AP-CGAS Elizabeth City,723070,36.26,-76.179,27909
695,NC,G3701790,Charlotte Douglas Intl Arpt,723140,35.22,-80.95,28208
696,NC,G3701810,Raleigh Durham International,723060,35.87,-78.78,27617
697,NC,G3701830,Raleigh Durham International,723060,35.87,-78.78,27617
698,NC,G3701850,Rocky Mount Wilson,723068,35.85,-77.9,27822
699,NC,G3701870,Elizabeth City Coast Guard Ai,746943,36.3,-76.25,27909
700,WV,G3701890,Beckley Raleigh Co Mem Ap,724120,37.8,-81.12,25813
701,NC,G3701910,Goldsboro Seymour Johnson Afb,723066,35.35,-77.97,27531
702,NC,G3701930,Hickory Rgnl AP,723010,35.733,-81.383,28601
703,NC,G3701950,Rocky Mount Wilson,723068,35.85,-77.9,27822
704,NC,G3701970,Winston Salem Reynolds Ap,723193,36.13,-80.22,27105
705,NC,G3701990,Asheville Regional Arpt,723150,35.43,-82.53,28704
706,ND,G3800010,Dickinson Municipal Ap,727645,46.8,-102.8,
707,ND,G3800030,Jamestown Municipal Arpt,727535,46.92,-98.68,58401
708,ND,G3800050,Devils Lake Awos,727573,48.12,-98.92,
709,ND,G3800070,Dickinson Municipal Ap,727645,46.8,-102.8,
710,ND,G3800090,Minot Afb,727675,48.42,-101.35,58705
711,ND,G3800110,Dickinson Municipal Ap,727645,46.8,-102.8,
712,ND,G3800130,Minot Afb,727675,48.42,-101.35,58705
713,ND,G3800150,Bismarck Municipal Arpt  Isis,727640,46.77,-100.77,58506
714,ND,G3800170,Fargo Hector International Ap,727530,46.93,-96.82,58105
715,ND,G3800190,Devils Lake Awos,727573,48.12,-98.92,
716,SD,G3800210,Aberdeen Regional Arpt,726590,45.45,-98.42,
717,ND,G3800230,Williston Sloulin Intl Ap,727670,48.2,-103.65,58801
718,ND,G3800250,Dickinson Municipal Ap,727645,46.8,-102.8,
719,ND,G3800270,Devils Lake Awos,727573,48.12,-98.92,
720,ND,G3800290,Bismarck Municipal Arpt  Isis,727640,46.77,-100.77,58506
721,ND,G3800310,Jamestown Municipal Arpt,727535,46.92,-98.68,58401
722,ND,G3800330,Dickinson Municipal Ap,727645,46.8,-102.8,
723,ND,G3800350,Grand Forks International Ap,727576,47.95,-97.18,
724,ND,G3800370,Bismarck Municipal Arpt  Isis,727640,46.77,-100.77,58506
725,ND,G3800390,Jamestown Municipal Arpt,727535,46.92,-98.68,58401
726,ND,G3800410,Dickinson Municipal Ap,727645,46.8,-102.8,
727,ND,G3800430,Bismarck Municipal Arpt  Isis,727640,46.77,-100.77,58506
728,SD,G3800450,Aberdeen Regional Arpt,726590,45.45,-98.42,
729,ND,G3800470,Bismarck Municipal Arpt  Isis,727640,46.77,-100.77,58506
730,ND,G3800490,Minot Faa Ap,727676,48.27,-101.28,58703
731,SD,G3800510,Mobridge,726685,45.53,-100.43,57601
732,ND,G3800530,Dickinson Municipal Ap,727645,46.8,-102.8,
733,ND,G3800550,Minot Faa Ap,727676,48.27,-101.28,58703
734,ND,G3800570,Bismarck Municipal Arpt  Isis,727640,46.77,-100.77,58506
735,ND,G3800590,Bismarck Municipal Arpt  Isis,727640,46.77,-100.77,58506
736,ND,G3800610,Minot Afb,727675,48.42,-101.35,58705
737,ND,G3800630,Devils Lake Awos,727573,48.12,-98.92,
738,ND,G3800650,Bismarck Municipal Arpt  Isis,727640,46.77,-100.77,58506
739,MN,G3800670,Hallock,727478,48.78,-96.95,56728
740,ND,G3800690,Devils Lake Awos,727573,48.12,-98.92,
741,ND,G3800710,Devils Lake Awos,727573,48.12,-98.92,
742,SD,G3800730,Aberdeen Regional Arpt,726590,45.45,-98.42,
743,ND,G3800750,Minot Afb,727675,48.42,-101.35,58705
744,MN,G3800770,Wheaton Ndb  Awos,727533,45.7,-96.5,
745,ND,G3800790,Devils Lake Awos,727573,48.12,-98.92,
746,SD,G3800810,Aberdeen Regional Arpt,726590,45.45,-98.42,
747,ND,G3800830,Minot Faa Ap,727676,48.27,-101.28,58703
748,ND,G3800850,Bismarck Municipal Arpt  Isis,727640,46.77,-100.77,58506
749,ND,G3800870,Dickinson Municipal Ap,727645,46.8,-102.8,
750,ND,G3800890,Dickinson Municipal Ap,727645,46.8,-102.8,
751,ND,G3800910,Grand Forks Af,727575,47.97,-97.4,
752,ND,G3800930,Jamestown Municipal Arpt,727535,46.92,-98.68,58401
753,ND,G3800950,Devils Lake Awos,727573,48.12,-98.92,
754,ND,G3800970,Grand Forks Intl AP,727570,47.95,-97.183,
755,ND,G3800990,Grand Forks Af,727575,47.97,-97.4,
756,ND,G3801010,Minot Faa Ap,727676,48.27,-101.28,58703
757,ND,G3801030,Devils Lake Awos,727573,48.12,-98.92,
758,ND,G3801050,Williston Sloulin Intl Ap,727670,48.2,-103.65,58801
759,OH,G3900010,Cincinnati Municipal Ap Lunki,724297,39.1,-84.42,45226
760,OH,G3900030,Findlay Airport,725366,41.02,-83.67,45840
761,OH,G3900050,Mansfield Lahm Rgnl AP,724200,40.817,-82.517,44903
762,OH,G3900070,Youngstown Regional Airport,725250,41.25,-80.67,
763,OH,G3900090,Zanesville Municipal Ap,724286,39.95,-81.9,43701
764,OH,G3900110,Dayton International Airport,724290,39.9,-84.22,45377
765,WV,G3900130,Wheeling Ohio County Ap,724275,40.18,-80.65,26075
766,OH,G3900150,Cincinnati Municipal Ap Lunki,724297,39.1,-84.42,45226
767,OH,G3900170,Dayton International Airport,724290,39.9,-84.22,45377
768,OH,G3900190,Akron Akron Canton Reg Ap,725210,40.92,-81.43,44720
769,OH,G3900210,Dayton Wright Patterson Afb,745700,39.83,-84.05,45433
770,OH,G3900230,Dayton Wright Patterson Afb,745700,39.83,-84.05,45433
771,OH,G3900250,Cincinnati Municipal Ap Lunki,724297,39.1,-84.42,45226
772,OH,G3900270,Dayton Wright Patterson Afb,745700,39.83,-84.05,45433
773,OH,G3900290,Youngstown Regional Airport,725250,41.25,-80.67,
774,OH,G3900310,Zanesville Municipal Ap,724286,39.95,-81.9,43701
775,OH,G3900330,Mansfield Lahm Municipal Arpt,725246,40.82,-82.52,44903
776,OH,G3900350,Burke Lakefront,725245,41.52,-81.68,44114
777,OH,G3900370,Dayton International Airport,724290,39.9,-84.22,45377
778,OH,G3900390,Toledo Express Airport,725360,41.58,-83.8,43542
779,OH,G3900410,Ohio State Universi,724288,40.07,-83.07,43235
780,OH,G3900430,Mansfield Lahm Municipal Arpt,725246,40.82,-82.52,44903
781,OH,G3900450,Columbus Port Columbus Intl A,724280,39.98,-82.88,43213
782,OH,G3900470,Ohio State Universi,724288,40.07,-83.07,43235
783,OH,G3900490,Ohio State Universi,724288,40.07,-83.07,43235
784,OH,G3900510,Toledo Express Airport,725360,41.58,-83.8,43542
785,WV,G3900530,Huntington Tri State Arpt,724250,38.38,-82.55,25530
786,OH,G3900550,Burke Lakefront,725245,41.52,-81.68,44114
787,OH,G3900570,Dayton Wright Patterson Afb,745700,39.83,-84.05,45433
788,OH,G3900590,Zanesville Municipal Ap,724286,39.95,-81.9,43701
789,OH,G3900610,Cincinnati Municipal Ap Lunki,724297,39.1,-84.42,45226
790,OH,G3900630,Findlay Airport,725366,41.02,-83.67,45840
791,OH,G3900650,Findlay Airport,725366,41.02,-83.67,45840
792,WV,G3900670,Wheeling Ohio County Ap,724275,40.18,-80.65,26075
793,OH,G3900690,Toledo Express Airport,725360,41.58,-83.8,43542
794,OH,G3900710,Dayton Wright Patterson Afb,745700,39.83,-84.05,45433
795,OH,G3900730,Columbus Port Columbus Intl A,724280,39.98,-82.88,43213
796,OH,G3900750,Akron Akron Canton Reg Ap,725210,40.92,-81.43,44720
797,OH,G3900770,Mansfield Lahm Municipal Arpt,725246,40.82,-82.52,44903
798,OH,G3900790,Columbus Port Columbus Intl A,724280,39.98,-82.88,43213
799,WV,G3900810,Wheeling Ohio County Ap,724275,40.18,-80.65,26075
800,OH,G3900830,Mansfield Lahm Rgnl AP,724200,40.817,-82.517,44903
801,OH,G3900850,Burke Lakefront,725245,41.52,-81.68,44114
802,WV,G3900870,Huntington Tri State Arpt,724250,38.38,-82.55,25530
803,OH,G3900890,Columbus Port Columbus Intl A,724280,39.98,-82.88,43213
804,OH,G3900910,Dayton Wright Patterson Afb,745700,39.83,-84.05,45433
805,OH,G3900930,Cleveland Hopkins Intl Ap,725240,41.4,-81.85,44135
806,OH,G3900950,Toledo Express Airport,725360,41.58,-83.8,43542
807,OH,G3900970,Ohio State Universi,724288,40.07,-83.07,43235
808,OH,G3900990,Youngstown Regional Airport,725250,41.25,-80.67,
809,OH,G3901010,Ohio State Universi,724288,40.07,-83.07,43235
810,OH,G3901030,Cleveland Hopkins Intl Ap,725240,41.4,-81.85,44135
811,WV,G3901050,Parkersburg Wood County Ap,724273,39.35,-81.43,26184
812,OH,G3901070,Dayton International Airport,724290,39.9,-84.22,45377
813,OH,G3901090,Dayton International Airport,724290,39.9,-84.22,45377
814,WV,G3901110,Parkersburg Wood County Ap,724273,39.35,-81.43,26184
815,OH,G3901130,Dayton International Airport,724290,39.9,-84.22,45377
816,OH,G3901150,Zanesville Municipal Ap,724286,39.95,-81.9,43701
817,OH,G3901170,Mansfield Lahm Rgnl AP,724200,40.817,-82.517,44903
818,OH,G3901190,Zanesville Municipal Ap,724286,39.95,-81.9,43701
819,OH,G3901210,Zanesville Municipal Ap,724286,39.95,-81.9,43701
820,OH,G3901230,Toledo Express Airport,725360,41.58,-83.8,43542
821,IN,G3901250,Fort Wayne Intl Ap,725330,41.0,-85.2,46809
822,OH,G3901270,Zanesville Municipal Ap,724286,39.95,-81.9,43701
823,OH,G3901290,Columbus Port Columbus Intl A,724280,39.98,-82.88,43213
824,OH,G3901310,Columbus Port Columbus Intl A,724280,39.98,-82.88,43213
825,OH,G3901330,Akron Akron Canton Reg Ap,725210,40.92,-81.43,44720
826,OH,G3901350,Dayton International Airport,724290,39.9,-84.22,45377
827,OH,G3901370,Findlay Airport,725366,41.02,-83.67,45840
828,OH,G3901390,Mansfield Lahm Rgnl AP,724200,40.817,-82.517,44903
829,OH,G3901410,Columbus Port Columbus Intl A,724280,39.98,-82.88,43213
830,OH,G3901430,Findlay Airport,725366,41.02,-83.67,45840
831,WV,G3901450,Huntington Tri State Arpt,724250,38.38,-82.55,25530
832,OH,G3901470,Findlay Airport,725366,41.02,-83.67,45840
833,OH,G3901490,Dayton International Airport,724290,39.9,-84.22,45377
834,OH,G3901510,Akron Akron Canton Reg Ap,725210,40.92,-81.43,44720
835,OH,G3901530,Akron Akron Canton Reg Ap,725210,40.92,-81.43,44720
836,OH,G3901550,Youngstown Regional Airport,725250,41.25,-80.67,
837,OH,G3901570,Akron Akron Canton Reg Ap,725210,40.92,-81.43,44720
838,OH,G3901590,Ohio State Universi,724288,40.07,-83.07,43235
839,IN,G3901610,Fort Wayne Intl Ap,725330,41.0,-85.2,46809
840,OH,G3901630,Columbus Port Columbus Intl A,724280,39.98,-82.88,43213
841,OH,G3901650,Dayton Wright Patterson Afb,745700,39.83,-84.05,45433
842,WV,G3901670,Parkersburg Wood County Ap,724273,39.35,-81.43,26184
843,OH,G3901690,Akron Akron Canton Reg Ap,725210,40.92,-81.43,44720
844,MI,G3901710,Jackson Reynolds Field,725395,42.27,-84.47,49202
845,OH,G3901730,Toledo Express Airport,725360,41.58,-83.8,43542
846,OH,G3901750,Findlay Airport,725366,41.02,-83.67,45840
847,AR,G4000010,Fort Smith Regional Ap,723440,35.33,-94.37,72903
848,OK,G4000030,Vance Afb,723535,36.33,-97.92,73705
849,OK,G4000050,Mcalester Municipal Ap,723566,34.9,-95.78,74501
850,KS,G4000070,Liberal Muni,724516,37.03,-100.97,
851,OK,G4000090,Clinton Sherman,723526,35.33,-99.2,73624
852,OK,G4000110,Vance Afb,723535,36.33,-97.92,73705
853,TX,G4000130,Greenville Majors,722588,33.07,-96.07,75402
854,OK,G4000150,Fort Sill Post Field Af,723550,34.65,-98.4,73507
855,OK,G4000170,Oklahoma City Wiley,723544,35.53,-97.65,73123
856,TX,G4000190,Fort Worth Alliance,722594,32.98,-97.32,76177
857,AR,G4000210,Fort Smith Regional Ap,723440,35.33,-94.37,72903
858,TX,G4000230,Cox Fld,722587,33.63,-95.45,75416
859,KS,G4000250,Liberal Muni,724516,37.03,-100.97,
860,OK,G4000270,Oklahoma City Tinker Afb,723540,35.42,-97.38,73110
861,OK,G4000290,Mcalester Municipal Ap,723566,34.9,-95.78,74501
862,OK,G4000310,Fort Sill Post Field Af,723550,34.65,-98.4,73507
863,OK,G4000330,Lawton Municipal,723575,34.57,-98.42,
864,OK,G4000350,Tulsa International Airport,723560,36.2,-95.88,
865,OK,G4000370,Tulsa International Airport,723560,36.2,-95.88,
866,OK,G4000390,Clinton Sherman,723526,35.33,-99.2,73624
867,OK,G4000410,Tulsa International Airport,723560,36.2,-95.88,
868,OK,G4000430,Clinton Sherman,723526,35.33,-99.2,73624
869,OK,G4000450,Gage Airport,723527,36.3,-99.77,73843
870,OK,G4000470,Vance Afb,723535,36.33,-97.92,73705
871,OK,G4000490,Oklahoma City Tinker Afb,723540,35.42,-97.38,73110
872,OK,G4000510,Oklahoma City Will Rogers Wor,723530,35.38,-97.6,73159
873,OK,G4000530,Ponca City Municipal Ap  Sgp,723546,36.61,-97.49,74640
874,OK,G4000550,Altus Afb,723520,34.65,-99.27,
875,TX,G4000570,Childress Municipal Ap,723604,34.43,-100.28,79201
876,OK,G4000590,Gage-Shattuck AP,746410,36.3,-99.767,73843
877,OK,G4000610,Mcalester Municipal Ap,723566,34.9,-95.78,74501
878,OK,G4000630,Mcalester Municipal Ap,723566,34.9,-95.78,74501
879,OK,G4000650,Altus Afb,723520,34.65,-99.27,
880,TX,G4000670,Wichita Falls Municipal Arpt,723510,33.98,-98.5,76311
881,OK,G4000690,Mcalester Municipal Ap,723566,34.9,-95.78,74501
882,OK,G4000710,Ponca City Rgnl AP,724530,36.729,-97.1,74601
883,OK,G4000730,Vance Afb,723535,36.33,-97.92,73705
884,OK,G4000750,Hobart Municipal Ap,723525,35.0,-99.05,
885,OK,G4000770,Mcalester Municipal Ap,723566,34.9,-95.78,74501
886,AR,G4000790,Fort Smith Regional Ap,723440,35.33,-94.37,72903
887,OK,G4000810,Stillwater Rgnl,723545,36.15,-97.08,74075
888,OK,G4000830,Oklahoma City Wiley,723544,35.53,-97.65,73123
889,TX,G4000850,Fort Worth Alliance,722594,32.98,-97.32,76177
890,OK,G4000870,Oklahoma City Will Rogers Wor,723530,35.38,-97.6,73159
891,TX,G4000890,Cox Fld,722587,33.63,-95.45,75416
892,OK,G4000910,Mcalester Municipal Ap,723566,34.9,-95.78,74501
893,OK,G4000930,Vance Afb,723535,36.33,-97.92,73705
894,TX,G4000950,Dallas Addison Arpt,722598,32.97,-96.83,75001
895,OK,G4000970,Tulsa International Airport,723560,36.2,-95.88,
896,OK,G4000990,Oklahoma City Tinker Afb,723540,35.42,-97.38,73110
897,OK,G4001010,Tulsa International Airport,723560,36.2,-95.88,
898,OK,G4001030,Stillwater Rgnl,723545,36.15,-97.08,74075
899,OK,G4001050,Bartlesville Philli,723565,36.77,-96.02,74003
900,OK,G4001070,Mcalester Municipal Ap,723566,34.9,-95.78,74501
901,OK,G4001090,Oklahoma City Wiley,723544,35.53,-97.65,73123
902,OK,G4001110,Tulsa International Airport,723560,36.2,-95.88,
903,OK,G4001130,Bartlesville Philli,723565,36.77,-96.02,74003
904,OK,G4001150,Bartlesville Philli,723565,36.77,-96.02,74003
905,OK,G4001170,Stillwater Rgnl,723545,36.15,-97.08,74075
906,OK,G4001190,Stillwater Rgnl,723545,36.15,-97.08,74075
907,OK,G4001210,Mcalester Municipal Ap,723566,34.9,-95.78,74501
908,OK,G4001230,Mcalester Municipal Ap,723566,34.9,-95.78,74501
909,OK,G4001250,Oklahoma City Tinker Afb,723540,35.42,-97.38,73110
910,OK,G4001270,Mcalester Municipal Ap,723566,34.9,-95.78,74501
911,OK,G4001290,Clinton Sherman,723526,35.33,-99.2,73624
912,OK,G4001310,Tulsa International Airport,723560,36.2,-95.88,
913,OK,G4001330,Oklahoma City Tinker Afb,723540,35.42,-97.38,73110
914,AR,G4001350,Fort Smith Regional Ap,723440,35.33,-94.37,72903
915,OK,G4001370,Fort Sill Post Field Af,723550,34.65,-98.4,73507
916,TX,G4001390,Dalhart Municipal Ap,722636,36.02,-102.55,79022
917,OK,G4001410,Altus Afb,723520,34.65,-99.27,
918,OK,G4001430,Tulsa International Airport,723560,36.2,-95.88,
919,OK,G4001450,Tulsa International Airport,723560,36.2,-95.88,
920,OK,G4001470,Bartlesville Philli,723565,36.77,-96.02,74003
921,OK,G4001490,Clinton Sherman,723526,35.33,-99.2,73624
922,OK,G4001510,Vance Afb,723535,36.33,-97.92,73705
923,OK,G4001530,Gage-Shattuck AP,746410,36.3,-99.767,73843
924,OR,G4100010,Baker Municipal Ap,726886,44.83,-117.82,97814
925,OR,G4100030,Corvallis Muni,726945,44.48,-123.28,
926,OR,G4100050,Aurora State,726959,45.25,-122.77,97002
927,OR,G4100070,Astoria Regional Airport,727910,46.15,-123.88,97146
928,WA,G4100090,Kelso Wb Ap,727924,46.13,-122.9,98626
929,OR,G4100110,North Bend Muni Airport,726917,43.42,-124.25,97459
930,OR,G4100130,Redmond Muni AP-Roberts Field,726920,44.25,-121.167,97756
931,CA,G4100150,Crescent City Faa Ai,725946,41.78,-124.23,
932,OR,G4100170,Redmond Roberts Field,726835,44.25,-121.17,
933,OR,G4100190,Roseburg Regional Ap,726904,43.23,-123.35,97470
934,WA,G4100210,The Dalles Municipal Arpt,726988,45.62,-121.15,98617
935,OR,G4100230,Burns Municipal Arpt  Uo,726830,43.52,-119.02,
936,OR,G4100250,Burns Municipal Arpt  Uo,726830,43.52,-119.02,
937,WA,G4100270,The Dalles Municipal Arpt,726988,45.62,-121.15,98617
938,OR,G4100290,Medford Rogue Valley Intl Ap,725970,42.19,-122.7,97520
939,OR,G4100310,Redmond Roberts Field,726835,44.25,-121.17,
940,OR,G4100330,Sexton Summit,725975,42.6,-123.37,
941,OR,G4100350,Klamath Falls Intl Ap  Uo,725895,42.22,-121.74,97603
942,OR,G4100370,Lakeview  Awos,725976,42.17,-120.4,97630
943,OR,G4100390,Eugene Mahlon Sweet Arpt  Uo,726930,44.05,-123.07,97403
944,OR,G4100410,Corvallis Muni,726945,44.48,-123.28,
945,OR,G4100430,Corvallis Muni,726945,44.48,-123.28,
946,ID,G4100450,Caldwell  Awos,726813,43.63,-116.63,83651
947,OR,G4100470,Salem Mcnary Field,726940,44.9,-123.0,97302
948,WA,G4100490,Pasco,727845,46.27,-119.12,99301
949,OR,G4100510,Portland International Ap,726980,45.6,-122.62,97211
950,OR,G4100530,Salem Mcnary Field,726940,44.9,-123.0,97302
951,WA,G4100550,The Dalles Municipal Arpt,726988,45.62,-121.15,98617
952,OR,G4100570,Astoria Regional Airport,727910,46.15,-123.88,97146
953,OR,G4100590,Pendleton E Or Regional Ap,726880,45.7,-118.83,
954,OR,G4100610,La Grande Muni Ap,726884,45.28,-118.0,
955,OR,G4100630,La Grande Muni Ap,726884,45.28,-118.0,
956,WA,G4100650,The Dalles Municipal Arpt,726988,45.62,-121.15,98617
957,OR,G4100670,Portland Hillsboro,726986,45.53,-122.95,97124
958,OR,G4100690,Redmond Muni AP-Roberts Field,726920,44.25,-121.167,97756
959,OR,G4100710,Portland Hillsboro,726986,45.53,-122.95,97124
960,PA,G4200010,Harrisburg Capital City Arpt,725118,40.22,-76.85,17070
961,PA,G4200030,Pittsburgh Allegheny Co Ap,725205,40.35,-79.92,15122
962,PA,G4200050,Butler Co   Awos,725124,40.78,-79.95,16002
963,PA,G4200070,Pittsburgh International Ap,725200,40.5,-80.23,15231
964,PA,G4200090,Altoona Blair Co Arpt,725126,40.3,-78.32,16662
965,PA,G4200110,Reading Spaatz Field,725103,40.37,-75.97,19601
966,PA,G4200130,Altoona Blair Co Arpt,725126,40.3,-78.32,16662
967,NY,G4200150,Elmira Corning Regional Ap,725156,42.17,-76.9,14845
968,PA,G4200170,Willow Grove Nas,724086,40.2,-75.15,18976
969,PA,G4200190,Butler Co   Awos,725124,40.78,-79.95,16002
970,PA,G4200210,Johnstown Cambria County Ap,725127,40.32,-78.83,15904
971,PA,G4200230,Bradford Regional Ap,725266,41.8,-78.63,
972,PA,G4200250,Allentown Lehigh Valley Intl,725170,40.65,-75.45,18032
973,PA,G4200270,State College  Penn State   Su,725128,40.72,-77.93,16865
974,DE,G4200290,Wilmington New Castle Cnty Ap,724089,39.67,-75.6,19720
975,PA,G4200310,Franklin,725267,41.38,-79.87,
976,PA,G4200330,Bradford Regional Ap,725266,41.8,-78.63,
977,PA,G4200350,Williamsport Regional Ap,725140,41.25,-76.92,17754
978,PA,G4200370,Williamsport Regional Ap,725140,41.25,-76.92,17754
979,PA,G4200390,Franklin,725267,41.38,-79.87,
980,PA,G4200410,Harrisburg Capital City Arpt,725118,40.22,-76.85,17070
981,PA,G4200430,Harrisburg Capital City Arpt,725118,40.22,-76.85,17070
982,PA,G4200450,Philadelphia International Ap,724080,39.87,-75.23,19113
983,PA,G4200470,Bradford Regional Ap,725266,41.8,-78.63,
984,PA,G4200490,Erie International Ap,725260,42.08,-80.18,16505
985,WV,G4200510,Morgantown Hart Field,724176,39.65,-79.92,26508
986,PA,G4200530,Dubois Faa Ap,725125,41.18,-78.9,15851
987,MD,G4200550,Hagerstown Rgnl Ric,724066,39.7,-77.73,21767
988,MD,G4200570,Hagerstown Rgnl Ric,724066,39.7,-77.73,21767
989,WV,G4200590,Morgantown Hart Field,724176,39.65,-79.92,26508
990,PA,G4200610,State College  Penn State   Su,725128,40.72,-77.93,16865
991,PA,G4200630,Johnstown Cambria County Ap,725127,40.32,-78.83,15904
992,PA,G4200650,Dubois Faa Ap,725125,41.18,-78.9,15851
993,PA,G4200670,State College  Penn State   Su,725128,40.72,-77.93,16865
994,PA,G4200690,Wilkes Barre Scranton Intl Ap,725130,41.33,-75.73,18641
995,PA,G4200710,Lancaster,725116,40.12,-76.3,17543
996,OH,G4200730,Youngstown Regional Airport,725250,41.25,-80.67,
997,PA,G4200750,Lancaster,725116,40.12,-76.3,17543
998,PA,G4200770,Allentown Lehigh Valley Intl,725170,40.65,-75.45,18032
999,PA,G4200790,Wilkes Barre Scranton Intl Ap,725130,41.33,-75.73,18641
1000,PA,G4200810,Williamsport Regional Ap,725140,41.25,-76.92,17754
1001,PA,G4200830,Bradford Regional Ap,725266,41.8,-78.63,
1002,OH,G4200850,Youngstown Regional Airport,725250,41.25,-80.67,
1003,PA,G4200870,State College  Penn State   Su,725128,40.72,-77.93,16865
1004,PA,G4200890,Allentown Lehigh Valley Intl,725170,40.65,-75.45,18032
1005,PA,G4200910,Willow Grove Nas,724086,40.2,-75.15,18976
1006,PA,G4200930,Williamsport Regional Ap,725140,41.25,-76.92,17754
1007,PA,G4200950,Allentown Lehigh Valley Intl,725170,40.65,-75.45,18032
1008,PA,G4200970,Williamsport Regional Ap,725140,41.25,-76.92,17754
1009,PA,G4200990,Harrisburg Capital City Arpt,725118,40.22,-76.85,17070
1010,PA,G4201010,Philadelphia Ne Philadelphia,724085,40.08,-75.02,19114
1011,PA,G4201030,Wilkes Barre Scranton Intl Ap,725130,41.33,-75.73,18641
1012,PA,G4201050,Bradford Regional Ap,725266,41.8,-78.63,
1013,PA,G4201070,Reading Spaatz Field,725103,40.37,-75.97,19601
1014,PA,G4201090,Williamsport Regional Ap,725140,41.25,-76.92,17754
1015,PA,G4201110,Johnstown Cambria County Ap,725127,40.32,-78.83,15904
1016,PA,G4201130,Williamsport Regional Ap,725140,41.25,-76.92,17754
1017,NY,G4201150,Binghamton Edwin A Link Field,725150,42.2,-75.98,13905
1018,NY,G4201170,Elmira Corning Regional Ap,725156,42.17,-76.9,14845
1019,PA,G4201190,Williamsport Regional Ap,725140,41.25,-76.92,17754
1020,PA,G4201210,Franklin,725267,41.38,-79.87,
1021,NY,G4201230,Jamestown  Awos,725235,42.15,-79.27,14701
1022,PA,G4201250,Washington  Awos,725117,40.13,-80.28,15301
1023,PA,G4201270,Wilkes Barre Scranton Intl Ap,725130,41.33,-75.73,18641
1024,PA,G4201290,Pittsburgh Allegheny Co Ap,725205,40.35,-79.92,15122
1025,PA,G4201310,Wilkes Barre Scranton Intl Ap,725130,41.33,-75.73,18641
1026,PA,G4201330,Harrisburg Capital City Arpt,725118,40.22,-76.85,17070
1027,RI,G4400010,Providence T F Green State Ar,725070,41.72,-71.43,02886
1028,RI,G4400030,Providence T F Green State Ar,725070,41.72,-71.43,02886
1029,RI,G4400050,Providence T F Green State Ar,725070,41.72,-71.43,02886
1030,RI,G4400070,Pawtucket  Awos,725054,41.92,-71.5,02917
1031,RI,G4400090,Block Island State Arpt,725058,41.17,-71.58,02807
1032,SC,G4500010,Anderson Rgnl AP,723190,34.5,-82.717,29626
1033,GA,G4500030,Augusta Bush Field,722180,33.37,-81.97,
1034,SC,G4500050,Beaufort Mcas,722085,32.48,-80.72,29904
1035,SC,G4500070,Anderson Rgnl AP,723190,34.5,-82.717,29626
1036,SC,G4500090,Columbia Metro Arpt,723100,33.95,-81.12,29170
1037,GA,G4500110,Augusta Bush Field,722180,33.37,-81.97,
1038,SC,G4500130,Beaufort Mcas,722085,32.48,-80.72,29904
1039,SC,G4500150,Charleston Intl Arpt,722080,32.9,-80.03,29406
1040,SC,G4500170,Columbia Metro Arpt,723100,33.95,-81.12,29170
1041,SC,G4500190,Charleston Intl Arpt,722080,32.9,-80.03,29406
1042,NC,G4500210,Hickory Regional Ap,723145,35.73,-81.38,28601
1043,NC,G4500230,Charlotte Douglas Intl Arpt,723140,35.22,-80.95,28208
1044,SC,G4500250,Florence Regional Ap,723106,34.18,-79.73,29506
1045,SC,G4500270,Sumter Shaw Afb,747900,33.97,-80.47,29152
1046,SC,G4500290,Beaufort Mcas,722085,32.48,-80.72,29904
1047,SC,G4500310,Florence Regional Ap,723106,34.18,-79.73,29506
1048,SC,G4500330,Florence Regional Ap,723106,34.18,-79.73,29506
1049,SC,G4500350,Charleston Intl Arpt,722080,32.9,-80.03,29406
1050,GA,G4500370,Augusta Bush Field,722180,33.37,-81.97,
1051,SC,G4500390,Columbia Metro Arpt,723100,33.95,-81.12,29170
1052,SC,G4500410,Florence Regional Ap,723106,34.18,-79.73,29506
1053,SC,G4500430,Myrtle Beach Afb,747910,33.68,-78.93,29577
1054,SC,G4500450,Greenville Downtown Ap,723119,34.85,-82.35,29607
1055,SC,G4500470,Anderson Rgnl AP,723190,34.5,-82.717,29626
1056,SC,G4500490,Beaufort Mcas,722085,32.48,-80.72,29904
1057,SC,G4500510,Myrtle Beach Afb,747910,33.68,-78.93,29577
1058,SC,G4500530,Beaufort Mcas,722085,32.48,-80.72,29904
1059,SC,G4500550,Sumter Shaw Afb,747900,33.97,-80.47,29152
1060,NC,G4500570,Charlotte Douglas Intl Arpt,723140,35.22,-80.95,28208
1061,SC,G4500590,Greer GreenvL Spartanbrg Ap,723120,34.9,-82.22,29651
1062,SC,G4500610,Sumter Shaw Afb,747900,33.97,-80.47,29152
1063,SC,G4500630,Columbia Metro Arpt,723100,33.95,-81.12,29170
1064,GA,G4500650,Augusta Bush Field,722180,33.37,-81.97,
1065,SC,G4500670,Florence Regional Ap,723106,34.18,-79.73,29506
1066,SC,G4500690,Florence Regional Ap,723106,34.18,-79.73,29506
1067,SC,G4500710,Columbia Metro Arpt,723100,33.95,-81.12,29170
1068,SC,G4500730,Anderson County Ap,723125,34.5,-82.72,29626
1069,SC,G4500750,Columbia Metro Arpt,723100,33.95,-81.12,29170
1070,SC,G4500770,Anderson Rgnl AP,723190,34.5,-82.717,29626
1071,SC,G4500790,Columbia Metro Arpt,723100,33.95,-81.12,29170
1072,SC,G4500810,Columbia Metro Arpt,723100,33.95,-81.12,29170
1073,SC,G4500830,Greer GreenvL Spartanbrg Ap,723120,34.9,-82.22,29651
1074,SC,G4500850,Sumter Shaw Afb,747900,33.97,-80.47,29152
1075,SC,G4500870,Greer GreenvL Spartanbrg Ap,723120,34.9,-82.22,29651
1076,SC,G4500890,Florence Regional Ap,723106,34.18,-79.73,29506
1077,NC,G4500910,Charlotte Douglas Intl Arpt,723140,35.22,-80.95,28208
1078,SD,G4600030,Mitchell  Awos,726545,43.77,-98.03,
1079,SD,G4600050,Huron Regional Arpt,726540,44.4,-98.22,57350
1080,NE,G4600070,Valentine Miller Field,725670,42.87,-100.55,69201
1081,SD,G4600090,Chan Gurney Muni,726525,42.92,-97.38,
1082,SD,G4600110,Brookings  Awos,726515,44.3,-96.82,57006
1083,SD,G4600130,Aberdeen Regional Arpt,726590,45.45,-98.42,
1084,SD,G4600150,Mitchell  Awos,726545,43.77,-98.03,
1085,SD,G4600170,Pierre Municipal Ap,726686,44.38,-100.28,57501
1086,SD,G4600190,Ellsworth Afb,726625,44.15,-103.1,57706
1087,SD,G4600210,Mobridge,726685,45.53,-100.43,57601
1088,SD,G4600230,Mitchell  Awos,726545,43.77,-98.03,
1089,SD,G4600250,Watertown Municipal Ap,726546,44.93,-97.15,57201
1090,SD,G4600270,Chan Gurney Muni,726525,42.92,-97.38,
1091,SD,G4600290,Watertown Municipal Ap,726546,44.93,-97.15,57201
1092,SD,G4600310,Mobridge,726685,45.53,-100.43,57601
1093,SD,G4600330,Rapid City Regional Arpt,726620,44.05,-103.05,
1094,SD,G4600350,Mitchell  Awos,726545,43.77,-98.03,
1095,SD,G4600370,Watertown Municipal Ap,726546,44.93,-97.15,57201
1096,SD,G4600390,Brookings  Awos,726515,44.3,-96.82,57006
1097,SD,G4600410,Mobridge,726685,45.53,-100.43,57601
1098,SD,G4600430,Mitchell  Awos,726545,43.77,-98.03,
1099,SD,G4600450,Aberdeen Regional Arpt,726590,45.45,-98.42,
1100,SD,G4600470,Rapid City Regional Arpt,726620,44.05,-103.05,
1101,SD,G4600490,Aberdeen Regional Arpt,726590,45.45,-98.42,
1102,MN,G4600510,Wheaton Ndb  Awos,727533,45.7,-96.5,
1103,NE,G4600530,O Neill Baker Field,725566,42.47,-98.68,
1104,SD,G4600550,Pierre Municipal Ap,726686,44.38,-100.28,57501
1105,SD,G4600570,Watertown Municipal Ap,726546,44.93,-97.15,57201
1106,SD,G4600590,Huron Regional Arpt,726540,44.4,-98.22,57350
1107,SD,G4600610,Mitchell  Awos,726545,43.77,-98.03,
1108,ND,G4600630,Dickinson Municipal Ap,727645,46.8,-102.8,
1109,SD,G4600650,Pierre Municipal Ap,726686,44.38,-100.28,57501
1110,SD,G4600670,Mitchell  Awos,726545,43.77,-98.03,
1111,SD,G4600690,Pierre Municipal Ap,726686,44.38,-100.28,57501
1112,SD,G4600710,Rapid City Regional Arpt,726620,44.05,-103.05,
1113,SD,G4600730,Huron Regional Arpt,726540,44.4,-98.22,57350
1114,SD,G4600750,Pierre Municipal Ap,726686,44.38,-100.28,57501
1115,SD,G4600770,Brookings  Awos,726515,44.3,-96.82,57006
1116,SD,G4600790,Brookings  Awos,726515,44.3,-96.82,57006
1117,SD,G4600810,Ellsworth Afb,726625,44.15,-103.1,57706
1118,SD,G4600830,Sioux Falls Foss Field,726510,43.58,-96.75,
1119,SD,G4600850,Pierre Municipal Ap,726686,44.38,-100.28,57501
1120,SD,G4600870,Sioux Falls Foss Field,726510,43.58,-96.75,
1121,SD,G4600890,Aberdeen Regional Arpt,726590,45.45,-98.42,
1122,SD,G4600910,Aberdeen Regional Arpt,726590,45.45,-98.42,
1123,SD,G4600930,Ellsworth Afb,726625,44.15,-103.1,57706
1124,NE,G4600950,Valentine Miller Field,725670,42.87,-100.55,69201
1125,SD,G4600970,Mitchell  Awos,726545,43.77,-98.03,
1126,SD,G4600990,Sioux Falls Foss Field,726510,43.58,-96.75,
1127,SD,G4601010,Brookings  Awos,726515,44.3,-96.82,57006
1128,SD,G4601020,Rapid City Regional Arpt,726620,44.05,-103.05,
1129,SD,G4601030,Ellsworth Afb,726625,44.15,-103.1,57706
1130,ND,G4601050,Dickinson Municipal Ap,727645,46.8,-102.8,
1131,SD,G4601070,Mobridge,726685,45.53,-100.43,57601
1132,MN,G4601090,Wheaton Ndb  Awos,727533,45.7,-96.5,
1133,SD,G4601110,Mitchell  Awos,726545,43.77,-98.03,
1134,SD,G4601150,Aberdeen Regional Arpt,726590,45.45,-98.42,
1135,SD,G4601170,Pierre Municipal Ap,726686,44.38,-100.28,57501
1136,SD,G4601190,Pierre Municipal Ap,726686,44.38,-100.28,57501
1137,NE,G4601210,Valentine Miller Field,725670,42.87,-100.55,69201
1138,NE,G4601230,Ainsworth Municipal,725556,42.58,-100.0,
1139,SD,G4601250,Sioux Falls Foss Field,726510,43.58,-96.75,
1140,IA,G4601270,Le Mars,725484,42.78,-96.2,51057
1141,SD,G4601290,Mobridge,726685,45.53,-100.43,57601
1142,SD,G4601350,Chan Gurney Muni,726525,42.92,-97.38,
1143,SD,G4601370,Mobridge,726685,45.53,-100.43,57601
1144,TN,G4700010,Knoxville Mcghee Tyson Ap,723260,35.82,-83.98,37701
1145,TN,G4700030,Nashville International Ap,723270,36.12,-86.68,37214
1146,KY,G4700050,Fort Campbell Aaf,746710,36.67,-87.48,42223
1147,TN,G4700070,Crossville Meml AP-Whitson Field,723250,35.95,-85.083,38555
1148,TN,G4700090,Knoxville Mcghee Tyson Ap,723260,35.82,-83.98,37701
1149,TN,G4700110,Chattanooga Lovell Field Ap,723240,35.03,-85.2,37421
1150,TN,G4700130,Knoxville Mcghee Tyson Ap,723260,35.82,-83.98,37701
1151,TN,G4700150,Nashville International Ap,723270,36.12,-86.68,37214
1152,KY,G4700170,Paducah Barkley Regional Ap,724350,37.05,-88.77,42086
1153,TN,G4700190,Bristol-Tri-Cities Rgnl AP,723350,36.467,-82.4,
1154,TN,G4700210,Nashville International Ap,723270,36.12,-86.68,37214
1155,TN,G4700230,Jackson Mckellar Sipes Regl A,723346,35.6,-88.92,38391
1156,KY,G4700250,London Corbin Ap,724243,37.08,-84.08,40744
1157,TN,G4700270,Crossville Meml AP-Whitson Field,723250,35.95,-85.083,38555
1158,TN,G4700290,Knoxville Mcghee Tyson Ap,723260,35.82,-83.98,37701
1159,TN,G4700310,Nashville International Ap,723270,36.12,-86.68,37214
1160,TN,G4700330,Jackson Mckellar Sipes Regl A,723346,35.6,-88.92,38391
1161,TN,G4700350,Crossville Memorial Ap,723265,35.95,-85.08,38555
1162,TN,G4700370,Nashville International Ap,723270,36.12,-86.68,37214
1163,TN,G4700390,Jackson Mckellar Sipes Regl A,723346,35.6,-88.92,38391
1164,TN,G4700410,Crossville Meml AP-Whitson Field,723250,35.95,-85.083,38555
1165,KY,G4700430,Fort Campbell Aaf,746710,36.67,-87.48,42223
1166,TN,G4700450,Dyersburg Municipal Ap,723347,36.02,-89.4,38024
1167,TN,G4700470,Memphis International Ap,723340,35.07,-89.98,38131
1168,TN,G4700490,Crossville Memorial Ap,723265,35.95,-85.08,38555
1169,TN,G4700510,Chattanooga Lovell Field Ap,723240,35.03,-85.2,37421
1170,TN,G4700530,Jackson Mckellar Sipes Regl A,723346,35.6,-88.92,38391
1171,TN,G4700550,Nashville International Ap,723270,36.12,-86.68,37214
1172,TN,G4700570,Knoxville Mcghee Tyson Ap,723260,35.82,-83.98,37701
1173,TN,G4700590,Bristol-Tri-Cities Rgnl AP,723350,36.467,-82.4,
1174,TN,G4700610,Chattanooga Lovell Field Ap,723240,35.03,-85.2,37421
1175,TN,G4700630,Knoxville Mcghee Tyson Ap,723260,35.82,-83.98,37701
1176,TN,G4700650,Chattanooga Lovell Field Ap,723240,35.03,-85.2,37421
1177,TN,G4700670,Bristol Tri City Airport,723183,36.47,-82.4,38137
1178,TN,G4700690,Jackson Mckellar Sipes Regl A,723346,35.6,-88.92,38391
1179,AL,G4700710,Muscle Shoals Regional Ap,723235,34.75,-87.6,35661
1180,TN,G4700730,Bristol-Tri-Cities Rgnl AP,723350,36.467,-82.4,
1181,TN,G4700750,Jackson Mckellar Sipes Regl A,723346,35.6,-88.92,38391
1182,TN,G4700770,Jackson Mckellar Sipes Regl A,723346,35.6,-88.92,38391
1183,KY,G4700790,Paducah Barkley Regional Ap,724350,37.05,-88.77,42086
1184,TN,G4700810,Nashville International Ap,723270,36.12,-86.68,37214
1185,KY,G4700830,Fort Campbell Aaf,746710,36.67,-87.48,42223
1186,KY,G4700850,Fort Campbell Aaf,746710,36.67,-87.48,42223
1187,TN,G4700870,Crossville Meml AP-Whitson Field,723250,35.95,-85.083,38555
1188,TN,G4700890,Knoxville Mcghee Tyson Ap,723260,35.82,-83.98,37701
1189,VA,G4700910,Abington,724058,36.68,-82.03,24211
1190,TN,G4700930,Knoxville Mcghee Tyson Ap,723260,35.82,-83.98,37701
1191,TN,G4700950,Dyersburg Municipal Ap,723347,36.02,-89.4,38024
1192,TN,G4700970,Dyersburg Municipal Ap,723347,36.02,-89.4,38024
1193,TN,G4700990,Nashville International Ap,723270,36.12,-86.68,37214
1194,TN,G4701010,Nashville International Ap,723270,36.12,-86.68,37214
1195,TN,G4701030,Nashville International Ap,723270,36.12,-86.68,37214
1196,TN,G4701050,Knoxville Mcghee Tyson Ap,723260,35.82,-83.98,37701
1197,TN,G4701070,Crossville Memorial Ap,723265,35.95,-85.08,38555
1198,TN,G4701090,Jackson Mckellar Sipes Regl A,723346,35.6,-88.92,38391
1199,KY,G4701110,Bowling Green Warren Co Ap,746716,36.98,-86.43,42103
1200,TN,G4701130,Jackson Mckellar Sipes Regl A,723346,35.6,-88.92,38391
1201,TN,G4701150,Chattanooga Lovell Field Ap,723240,35.03,-85.2,37421
1202,TN,G4701170,Nashville International Ap,723270,36.12,-86.68,37214
1203,TN,G4701190,Nashville International Ap,723270,36.12,-86.68,37214
1204,TN,G4701210,Crossville Memorial Ap,723265,35.95,-85.08,38555
1205,TN,G4701230,Knoxville Mcghee Tyson Ap,723260,35.82,-83.98,37701
1206,KY,G4701250,Fort Campbell Aaf,746710,36.67,-87.48,42223
1207,TN,G4701270,Nashville International Ap,723270,36.12,-86.68,37214
1208,TN,G4701290,Crossville Memorial Ap,723265,35.95,-85.08,38555
1209,KY,G4701310,Paducah Barkley Regional Ap,724350,37.05,-88.77,42086
1210,TN,G4701330,Crossville Meml AP-Whitson Field,723250,35.95,-85.083,38555
1211,KY,G4701350,Fort Campbell Aaf,746710,36.67,-87.48,42223
1212,TN,G4701370,Crossville Meml AP-Whitson Field,723250,35.95,-85.083,38555
1213,TN,G4701390,Chattanooga Lovell Field Ap,723240,35.03,-85.2,37421
1214,TN,G4701410,Crossville Meml AP-Whitson Field,723250,35.95,-85.083,38555
1215,TN,G4701430,Crossville Memorial Ap,723265,35.95,-85.08,38555
1216,TN,G4701450,Knoxville Mcghee Tyson Ap,723260,35.82,-83.98,37701
1217,TN,G4701470,Nashville International Ap,723270,36.12,-86.68,37214
1218,TN,G4701490,Nashville International Ap,723270,36.12,-86.68,37214
1219,KY,G4701510,London Corbin Ap,724243,37.08,-84.08,40744
1220,TN,G4701530,Chattanooga Lovell Field Ap,723240,35.03,-85.2,37421
1221,TN,G4701550,Knoxville Mcghee Tyson Ap,723260,35.82,-83.98,37701
1222,TN,G4701570,Memphis International Ap,723340,35.07,-89.98,38131
1223,TN,G4701590,Nashville International Ap,723270,36.12,-86.68,37214
1224,KY,G4701610,Fort Campbell Aaf,746710,36.67,-87.48,42223
1225,TN,G4701630,Bristol Tri City Airport,723183,36.47,-82.4,38137
1226,TN,G4701650,Nashville International Ap,723270,36.12,-86.68,37214
1227,TN,G4701670,Memphis International Ap,723340,35.07,-89.98,38131
1228,TN,G4701690,Nashville International Ap,723270,36.12,-86.68,37214
1229,TN,G4701710,Bristol-Tri-Cities Rgnl AP,723350,36.467,-82.4,
1230,TN,G4701730,Knoxville Mcghee Tyson Ap,723260,35.82,-83.98,37701
1231,TN,G4701750,Crossville Meml AP-Whitson Field,723250,35.95,-85.083,38555
1232,TN,G4701770,Crossville Meml AP-Whitson Field,723250,35.95,-85.083,38555
1233,TN,G4701790,Bristol-Tri-Cities Rgnl AP,723350,36.467,-82.4,
1234,AL,G4701810,Muscle Shoals Regional Ap,723235,34.75,-87.6,35661
1235,KY,G4701830,Paducah Barkley Regional Ap,724350,37.05,-88.77,42086
1236,TN,G4701850,Crossville Meml AP-Whitson Field,723250,35.95,-85.083,38555
1237,TN,G4701870,Nashville International Ap,723270,36.12,-86.68,37214
1238,TN,G4701890,Nashville International Ap,723270,36.12,-86.68,37214
1239,TX,G4800010,Lufkin Angelina Co,722446,31.23,-94.75,75941
1240,TX,G4800030,Midland International Ap,722650,31.95,-102.18,79712
1241,TX,G4800050,Lufkin Angelina Co,722446,31.23,-94.75,75941
1242,TX,G4800070,Rockport Aransas Co,722524,28.08,-97.05,78382
1243,TX,G4800090,Wichita Falls Municipal Arpt,723510,33.98,-98.5,76311
1244,TX,G4800110,Amarillo International Ap  Can,723630,34.99,-101.9,79015
1245,TX,G4800130,San Antonio Stinson,722523,29.33,-98.47,78235
1246,TX,G4800150,Houston D W  Hooks,722429,30.07,-95.55,77379
1247,NM,G4800170,Clovis Muni   Awos,722689,34.43,-103.08,88135
1248,TX,G4800190,Hondo Municipal Ap,722533,29.37,-99.17,78861
1249,TX,G4800210,Austin Mueller Municipal Ap  U,722540,30.29,-97.74,78705
1250,TX,G4800230,Abilene Regional Ap  Ut,722660,32.47,-99.71,79699
1251,TX,G4800250,Corpus Christi Intl Arpt  Ut,722510,27.88,-97.63,78426
1252,TX,G4800270,Killeen Muni  Awos,722575,31.08,-97.68,76548
1253,TX,G4800290,San Antonio Intl Ap,722530,29.53,-98.47,
1254,TX,G4800310,Camp Mabry,722544,30.32,-97.77,78731
1255,TX,G4800330,Lubbock International Ap,722670,33.67,-101.82,79350
1256,TX,G4800350,Waco Regional Ap,722560,31.62,-97.23,76702
1257,AR,G4800370,Texarkana Webb Field,723418,33.45,-94.0,71854
1258,TX,G4800390,Houston-Hobby AP,722440,29.65,-95.283,77061
1259,TX,G4800410,College Station-Easterwood AP,747460,30.583,-96.367,77862
1260,TX,G4800430,Marfa Ap,722640,30.37,-104.02,79843
1261,TX,G4800450,Amarillo International Ap  Can,723630,34.99,-101.9,79015
1262,TX,G4800470,Kingsville,722516,27.5,-97.82,78316
1263,TX,G4800490,Mineral Wells Municipal Ap,722597,32.78,-98.07,76067
1264,TX,G4800510,College Station Easterwood Fl,722445,30.58,-96.37,77862
1265,TX,G4800530,Georgetown  Awos,722547,30.68,-97.68,78628
1266,TX,G4800550,Austin Mueller Municipal Ap  U,722540,30.29,-97.74,78705
1267,TX,G4800570,Palacios Municipal Ap,722555,28.72,-96.25,77465
1268,TX,G4800590,Abilene Regional Ap  Ut,722660,32.47,-99.71,79699
1269,TX,G4800610,Brownsville S Padre Isl Intl,722500,25.9,-97.43,
1270,TX,G4800630,Longview Gregg County Ap  Over,722470,32.29,-94.98,75684
1271,TX,G4800650,Amarillo International Ap  Can,723630,34.99,-101.9,79015
1272,AR,G4800670,Texarkana Webb Field,723418,33.45,-94.0,71854
1273,TX,G4800690,Amarillo International Ap  Can,723630,34.99,-101.9,79015
1274,TX,G4800710,Houston Ellington Afb  Clear L,722436,29.57,-95.09,77508
1275,TX,G4800730,Lufkin Angelina Co,722446,31.23,-94.75,75941
1276,TX,G4800750,Childress Municipal Ap,723604,34.43,-100.28,79201
1277,TX,G4800770,Wichita Falls Municipal Arpt,723510,33.98,-98.5,76311
1278,TX,G4800790,Lubbock International Ap,722670,33.67,-101.82,79350
1279,TX,G4800810,San Angelo Mathis Field,722630,31.35,-100.5,76904
1280,TX,G4800830,Abilene Regional Ap  Ut,722660,32.47,-99.71,79699
1281,TX,G4800850,Dallas Addison Arpt,722598,32.97,-96.83,75001
1282,TX,G4800870,Childress Muni AP,723660,34.433,-100.283,79201
1283,TX,G4800890,Victoria Regional Ap,722550,28.87,-96.93,
1284,TX,G4800910,Randolph Afb,722536,29.53,-98.28,78150
1285,TX,G4800930,Mineral Wells Municipal Ap,722597,32.78,-98.07,76067
1286,TX,G4800950,San Angelo Mathis Field,722630,31.35,-100.5,76904
1287,TX,G4800970,Fort Worth Alliance,722594,32.98,-97.32,76177
1288,TX,G4800990,Fort Hood,722570,31.13,-97.72,76541
1289,TX,G4801010,Childress Municipal Ap,723604,34.43,-100.28,79201
1290,TX,G4801030,Midland International Ap,722650,31.95,-102.18,79712
1291,TX,G4801050,San Angelo Mathis Field,722630,31.35,-100.5,76904
1292,TX,G4801070,Lubbock International Ap,722670,33.67,-101.82,79350
1293,TX,G4801090,Marfa Ap,722640,30.37,-104.02,79843
1294,TX,G4801110,Dalhart Municipal Ap,722636,36.02,-102.55,79022
1295,TX,G4801130,Dallas Love Field,722583,32.85,-96.85,75235
1296,TX,G4801150,Midland International Ap,722650,31.95,-102.18,79712
1297,TX,G4801170,Amarillo International Ap  Can,723630,34.99,-101.9,79015
1298,TX,G4801190,Cox Fld,722587,33.63,-95.45,75416
1299,TX,G4801210,Dallas Fort Worth Intl Ap,722590,32.9,-97.02,75261
1300,TX,G4801230,Victoria Regional Ap,722550,28.87,-96.93,
1301,TX,G4801250,Lubbock International Ap,722670,33.67,-101.82,79350
1302,TX,G4801270,Cotulla Faa Ap,722526,28.45,-99.22,78014
1303,TX,G4801290,Amarillo International Ap  Can,723630,34.99,-101.9,79015
1304,TX,G4801310,Alice Intl Ap,722517,27.73,-98.03,78332
1305,TX,G4801330,Mineral Wells Municipal Ap,722597,32.78,-98.07,76067
1306,TX,G4801350,Midland International Ap,722650,31.95,-102.18,79712
1307,TX,G4801370,Del Rio Laughlin Afb,722615,29.37,-100.78,78843
1308,TX,G4801390,Dallas Redbird Arpt,722599,32.68,-96.87,75237
1309,TX,G4801410,El Paso International Ap  Ut,722700,31.77,-106.5,79902
1310,TX,G4801430,Mineral Wells Municipal Ap,722597,32.78,-98.07,76067
1311,TX,G4801450,Mc Gregor  Awos,722563,31.48,-97.32,
1312,TX,G4801470,Greenville Majors,722588,33.07,-96.07,75402
1313,TX,G4801490,College Station Easterwood Fl,722445,30.58,-96.37,77862
1314,TX,G4801530,Amarillo International Ap  Can,723630,34.99,-101.9,79015
1315,TX,G4801550,Childress Municipal Ap,723604,34.43,-100.28,79201
1316,TX,G4801570,Houston-Hobby AP,722440,29.65,-95.283,77061
1317,TX,G4801590,Cox Fld,722587,33.63,-95.45,75416
1318,TX,G4801610,Waco Regional Ap,722560,31.62,-97.23,76702
1319,TX,G4801630,Cotulla Faa Ap,722526,28.45,-99.22,78014
1320,TX,G4801650,Midland International Ap,722650,31.95,-102.18,79712
1321,TX,G4801670,Houston Ellington Afb  Clear L,722436,29.57,-95.09,77508
1322,TX,G4801690,Lubbock International Ap,722670,33.67,-101.82,79350
1323,TX,G4801710,San Antonio Intl Ap,722530,29.53,-98.47,
1324,TX,G4801730,Midland International Ap,722650,31.95,-102.18,79712
1325,TX,G4801750,Victoria Regional Ap,722550,28.87,-96.93,
1326,TX,G4801770,Randolph Afb,722536,29.53,-98.28,78150
1327,TX,G4801790,Amarillo International Ap  Can,723630,34.99,-101.9,79015
1328,TX,G4801810,Dallas Addison Arpt,722598,32.97,-96.83,75001
1329,TX,G4801830,Longview Gregg County Ap  Over,722470,32.29,-94.98,75684
1330,TX,G4801850,College Station-Easterwood AP,747460,30.583,-96.367,77862
1331,TX,G4801870,Randolph Afb,722536,29.53,-98.28,78150
1332,TX,G4801890,Amarillo International Ap  Can,723630,34.99,-101.9,79015
1333,TX,G4801910,Childress Muni AP,723660,34.433,-100.283,79201
1334,TX,G4801930,Mineral Wells Municipal Ap,722597,32.78,-98.07,76067
1335,TX,G4801950,Dalhart Municipal Ap,722636,36.02,-102.55,79022
1336,TX,G4801970,Childress Municipal Ap,723604,34.43,-100.28,79201
1337,TX,G4801990,Port Arthur Jefferson County,722410,29.95,-94.02,77705
1338,TX,G4802010,Houston Bush Intercontinental,722430,30.0,-95.37,77073
1339,LA,G4802030,Shreveport Regional Arpt,722480,32.45,-93.82,71109
1340,TX,G4802050,Dalhart Muni AP,747360,36.017,-102.55,79022
1341,TX,G4802070,Abilene Regional Ap  Ut,722660,32.47,-99.71,79699
1342,TX,G4802090,Austin Mueller Municipal Ap  U,722540,30.29,-97.74,78705
1343,TX,G4802110,Childress Muni AP,723660,34.433,-100.283,79201
1344,TX,G4802130,Tyler Pounds Fld,722448,32.35,-95.4,75704
1345,TX,G4802150,Mcallen Miller Intl Ap  Edinbu,722506,26.31,-98.17,78541
1346,TX,G4802170,Waco Regional Ap,722560,31.62,-97.23,76702
1347,TX,G4802190,Lubbock International Ap,722670,33.67,-101.82,79350
1348,TX,G4802210,Mineral Wells Municipal Ap,722597,32.78,-98.07,76067
1349,TX,G4802230,Greenville Majors,722588,33.07,-96.07,75402
1350,TX,G4802250,Lufkin Angelina Co,722446,31.23,-94.75,75941
1351,TX,G4802270,Midland International Ap,722650,31.95,-102.18,79712
1352,TX,G4802290,El Paso International Ap  Ut,722700,31.77,-106.5,79902
1353,TX,G4802310,Greenville Majors,722588,33.07,-96.07,75402
1354,TX,G4802330,Amarillo International Ap  Can,723630,34.99,-101.9,79015
1355,TX,G4802350,San Angelo Mathis Field,722630,31.35,-100.5,76904
1356,TX,G4802370,Mineral Wells Municipal Ap,722597,32.78,-98.07,76067
1357,TX,G4802390,Victoria Regional Ap,722550,28.87,-96.93,
1358,TX,G4802410,Port Arthur Jefferson County,722410,29.95,-94.02,77705
1359,TX,G4802430,Marfa Ap,722640,30.37,-104.02,79843
1360,TX,G4802450,Port Arthur Jefferson County,722410,29.95,-94.02,77705
1361,TX,G4802470,Alice Intl Ap,722517,27.73,-98.03,78332
1362,TX,G4802490,Alice Intl Ap,722517,27.73,-98.03,78332
1363,TX,G4802510,Fort Worth Nas,722595,32.77,-97.45,76108
1364,TX,G4802530,Abilene Regional Ap  Ut,722660,32.47,-99.71,79699
1365,TX,G4802550,San Antonio Stinson,722523,29.33,-98.47,78235
1366,TX,G4802570,Greenville Majors,722588,33.07,-96.07,75402
1367,TX,G4802590,San Antonio Intl Ap,722530,29.53,-98.47,
1368,TX,G4802610,Kingsville,722516,27.5,-97.82,78316
1369,TX,G4802650,San Angelo Mathis Field,722630,31.35,-100.5,76904
1370,TX,G4802670,San Angelo Mathis Field,722630,31.35,-100.5,76904
1371,TX,G4802690,Childress Municipal Ap,723604,34.43,-100.28,79201
1372,TX,G4802710,Del Rio Laughlin Afb,722615,29.37,-100.78,78843
1373,TX,G4802730,Kingsville,722516,27.5,-97.82,78316
1374,TX,G4802750,Abilene Regional Ap  Ut,722660,32.47,-99.71,79699
1375,TX,G4802770,Cox Fld,722587,33.63,-95.45,75416
1376,TX,G4802790,Lubbock International Ap,722670,33.67,-101.82,79350
1377,TX,G4802810,Mineral Wells Municipal Ap,722597,32.78,-98.07,76067
1378,TX,G4802830,Cotulla Faa Ap,722526,28.45,-99.22,78014
1379,TX,G4802850,Victoria Regional Ap,722550,28.87,-96.93,
1380,TX,G4802870,College Station Easterwood Fl,722445,30.58,-96.37,77862
1381,TX,G4802890,College Station-Easterwood AP,747460,30.583,-96.367,77862
1382,TX,G4802910,Houston Bush Intercontinental,722430,30.0,-95.37,77073
1383,TX,G4802930,Waco Regional Ap,722560,31.62,-97.23,76702
1384,OK,G4802950,Gage Airport,723527,36.3,-99.77,73843
1385,TX,G4802970,Alice Intl Ap,722517,27.73,-98.03,78332
1386,TX,G4802990,Robert Gray Aaf,722576,31.07,-97.83,
1387,TX,G4803010,Wink Winkler County Ap,722656,31.78,-103.2,79789
1388,TX,G4803030,Lubbock International Ap,722670,33.67,-101.82,79350
1389,TX,G4803050,Lubbock International Ap,722670,33.67,-101.82,79350
1390,TX,G4803070,San Angelo Mathis Field,722630,31.35,-100.5,76904
1391,TX,G4803090,Waco Regional Ap,722560,31.62,-97.23,76702
1392,TX,G4803110,Alice Intl Ap,722517,27.73,-98.03,78332
1393,TX,G4803130,College Station-Easterwood AP,747460,30.583,-96.367,77862
1394,LA,G4803150,Shreveport Regional Arpt,722480,32.45,-93.82,71109
1395,TX,G4803170,Midland International Ap,722650,31.95,-102.18,79712
1396,TX,G4803190,San Angelo Mathis Field,722630,31.35,-100.5,76904
1397,TX,G4803210,Palacios Municipal Ap,722555,28.72,-96.25,77465
1398,TX,G4803230,Del Rio Laughlin Afb,722615,29.37,-100.78,78843
1399,TX,G4803250,Hondo Municipal Ap,722533,29.37,-99.17,78861
1400,TX,G4803270,San Angelo Mathis Field,722630,31.35,-100.5,76904
1401,TX,G4803290,Midland International Ap,722650,31.95,-102.18,79712
1402,TX,G4803310,Draughon Miller Cen,722577,31.15,-97.4,76504
1403,TX,G4803330,Mineral Wells Municipal Ap,722597,32.78,-98.07,76067
1404,TX,G4803350,Abilene-Dyess AFB,720965,32.433,-99.85,79563
1405,TX,G4803370,Fort Worth Alliance,722594,32.98,-97.32,76177
1406,TX,G4803390,Houston D W  Hooks,722429,30.07,-95.55,77379
1407,TX,G4803410,Dalhart Muni AP,747360,36.017,-102.55,79022
1408,AR,G4803430,Texarkana Webb Field,723418,33.45,-94.0,71854
1409,TX,G4803450,Childress Muni AP,723660,34.433,-100.283,79201
1410,TX,G4803470,Nacogdoches  Awos,722499,31.58,-94.72,75964
1411,TX,G4803490,Dallas Redbird Arpt,722599,32.68,-96.87,75237
1412,LA,G4803510,Lake Charles Wb Airp,722404,30.22,-93.17,70602
1413,TX,G4803550,Corpus Christi Nas,722515,27.68,-97.28,78418
1414,TX,G4803570,Amarillo International Ap  Can,723630,34.99,-101.9,79015
1415,TX,G4803590,Amarillo International Ap  Can,723630,34.99,-101.9,79015
1416,TX,G4803610,Port Arthur Jefferson County,722410,29.95,-94.02,77705
1417,TX,G4803630,Mineral Wells Municipal Ap,722597,32.78,-98.07,76067
1418,LA,G4803650,Shreveport Regional Arpt,722480,32.45,-93.82,71109
1419,TX,G4803670,Fort Worth Nas,722595,32.77,-97.45,76108
1420,NM,G4803690,Clovis Muni   Awos,722689,34.43,-103.08,88135
1421,TX,G4803710,Wink Winkler County Ap,722656,31.78,-103.2,79789
1422,TX,G4803730,Lufkin Angelina Co,722446,31.23,-94.75,75941
1423,TX,G4803750,Amarillo International Ap  Can,723630,34.99,-101.9,79015
1424,TX,G4803770,Marfa Ap,722640,30.37,-104.02,79843
1425,TX,G4803790,Greenville Majors,722588,33.07,-96.07,75402
1426,TX,G4803810,Amarillo International Ap  Can,723630,34.99,-101.9,79015
1427,TX,G4803830,San Angelo Mathis Field,722630,31.35,-100.5,76904
1428,TX,G4803850,Hondo Municipal Ap,722533,29.37,-99.17,78861
1429,TX,G4803870,Cox Fld,722587,33.63,-95.45,75416
1430,TX,G4803890,Wink Winkler County Ap,722656,31.78,-103.2,79789
1431,TX,G4803910,Rockport Aransas Co,722524,28.08,-97.05,78382
1432,TX,G4803930,Amarillo International Ap  Can,723630,34.99,-101.9,79015
1433,TX,G4803950,College Station-Easterwood AP,747460,30.583,-96.367,77862
1434,TX,G4803970,Greenville Majors,722588,33.07,-96.07,75402
1435,TX,G4803990,Abilene-Dyess AFB,720965,32.433,-99.85,79563
1436,TX,G4804010,Longview Gregg County Ap  Over,722470,32.29,-94.98,75684
1437,TX,G4804030,Lufkin Angelina Co,722446,31.23,-94.75,75941
1438,TX,G4804050,Nacogdoches  Awos,722499,31.58,-94.72,75964
1439,TX,G4804070,Houston Bush Intercontinental,722430,30.0,-95.37,77073
1440,TX,G4804090,Corpus Christi Intl Arpt  Ut,722510,27.88,-97.63,78426
1441,TX,G4804110,Mineral Wells Municipal Ap,722597,32.78,-98.07,76067
1442,TX,G4804130,San Angelo Mathis Field,722630,31.35,-100.5,76904
1443,TX,G4804150,Lubbock International Ap,722670,33.67,-101.82,79350
1444,TX,G4804170,Abilene Regional Ap  Ut,722660,32.47,-99.71,79699
1445,TX,G4804190,Nacogdoches  Awos,722499,31.58,-94.72,75964
1446,TX,G4804210,Dalhart Municipal Ap,722636,36.02,-102.55,79022
1447,TX,G4804230,Tyler Pounds Fld,722448,32.35,-95.4,75704
1448,TX,G4804250,Fort Worth Nas,722595,32.77,-97.45,76108
1449,TX,G4804270,Mcallen Miller Intl Ap  Edinbu,722506,26.31,-98.17,78541
1450,TX,G4804290,Mineral Wells Municipal Ap,722597,32.78,-98.07,76067
1451,TX,G4804310,San Angelo Mathis Field,722630,31.35,-100.5,76904
1452,TX,G4804350,San Angelo Mathis Field,722630,31.35,-100.5,76904
1453,TX,G4804370,Amarillo International Ap  Can,723630,34.99,-101.9,79015
1454,TX,G4804390,Fort Worth Meacham Intl AP,747390,32.817,-97.367,76106
1455,TX,G4804410,Abilene Regional Ap  Ut,722660,32.47,-99.71,79699
1456,TX,G4804430,Marfa Ap,722640,30.37,-104.02,79843
1457,TX,G4804450,Lubbock International Ap,722670,33.67,-101.82,79350
1458,TX,G4804470,Wichita Falls Municipal Arpt,723510,33.98,-98.5,76311
1459,TX,G4804490,Cox Fld,722587,33.63,-95.45,75416
1460,TX,G4804510,San Angelo Mathis Field,722630,31.35,-100.5,76904
1461,TX,G4804530,Camp Mabry,722544,30.32,-97.77,78731
1462,TX,G4804550,Lufkin Angelina Co,722446,31.23,-94.75,75941
1463,TX,G4804570,Lufkin Angelina Co,722446,31.23,-94.75,75941
1464,TX,G4804590,Longview Gregg County Ap  Over,722470,32.29,-94.98,75684
1465,TX,G4804610,Midland International Ap,722650,31.95,-102.18,79712
1466,TX,G4804630,Hondo Municipal Ap,722533,29.37,-99.17,78861
1467,TX,G4804650,Del Rio  Ut,722610,29.38,-100.91,78840
1468,TX,G4804670,Tyler Pounds Fld,722448,32.35,-95.4,75704
1469,TX,G4804690,Victoria Regional Ap,722550,28.87,-96.93,
1470,TX,G4804710,Houston D W  Hooks,722429,30.07,-95.55,77379
1471,TX,G4804730,Houston D W  Hooks,722429,30.07,-95.55,77379
1472,TX,G4804750,Wink Winkler County Ap,722656,31.78,-103.2,79789
1473,TX,G4804770,College Station Easterwood Fl,722445,30.58,-96.37,77862
1474,TX,G4804790,Laredo Intl Ap  Ut,722520,27.57,-99.49,78045
1475,TX,G4804810,Palacios Municipal Ap,722555,28.72,-96.25,77465
1476,TX,G4804830,Amarillo International Ap  Can,723630,34.99,-101.9,79015
1477,TX,G4804850,Wichita Falls Municipal Arpt,723510,33.98,-98.5,76311
1478,TX,G4804870,Childress Municipal Ap,723604,34.43,-100.28,79201
1479,TX,G4804890,Harlingen Rio Grande Valley I,722505,26.23,-97.65,78550
1480,TX,G4804910,Georgetown  Awos,722547,30.68,-97.68,78628
1481,TX,G4804930,Randolph Afb,722536,29.53,-98.28,78150
1482,TX,G4804950,Wink Winkler County Ap,722656,31.78,-103.2,79789
1483,TX,G4804970,Fort Worth Alliance,722594,32.98,-97.32,76177
1484,TX,G4804990,Tyler Pounds Fld,722448,32.35,-95.4,75704
1485,TX,G4805010,Lubbock International Ap,722670,33.67,-101.82,79350
1486,TX,G4805030,Mineral Wells Municipal Ap,722597,32.78,-98.07,76067
1487,TX,G4805050,Laredo Intl Ap  Ut,722520,27.57,-99.49,78045
1488,TX,G4805070,Cotulla Faa Ap,722526,28.45,-99.22,78014
1489,UT,G4900010,Cedar City Municipal Ap,724755,37.7,-113.1,84720
1490,ID,G4900030,Malad City,725786,42.15,-112.28,
1491,ID,G4900050,Malad City,725786,42.15,-112.28,
1492,UT,G4900070,Vernal,725705,40.43,-109.52,84078
1493,WY,G4900090,Rock Springs Arpt  Green River,725744,41.46,-109.44,
1494,UT,G4900110,Ogden Hill Afb,725755,41.12,-111.97,84041
1495,UT,G4900130,Vernal,725705,40.43,-109.52,84078
1496,UT,G4900150,Vernal,725705,40.43,-109.52,84078
1497,UT,G4900170,Bryce Cnyn Faa Ap,724756,37.7,-112.15,64000
1498,UT,G4900190,Moab Canyonlands  Uo,724776,38.58,-109.54,84532
1499,UT,G4900210,Cedar City Municipal Ap,724755,37.7,-113.1,84720
1500,UT,G4900230,Provo Muni  Awos,725724,40.22,-111.72,84601
1501,UT,G4900250,Bryce Cnyn Faa Ap,724756,37.7,-112.15,64000
1502,UT,G4900270,Delta,724795,39.33,-112.58,84650
1503,UT,G4900290,Ogden Hill Afb,725755,41.12,-111.97,84041
1504,UT,G4900310,Bryce Cnyn Faa Ap,724756,37.7,-112.15,64000
1505,WY,G4900330,Evanston Burns Fld,725775,41.28,-111.03,82930
1506,UT,G4900350,Salt Lake City IntL Arpt  Isis,725720,40.77,-111.97,84122
1507,UT,G4900370,Blanding,724723,37.62,-109.48,84511
1508,UT,G4900390,Provo Muni  Awos,725724,40.22,-111.72,84601
1509,UT,G4900410,Delta,724795,39.33,-112.58,84650
1510,WY,G4900430,Evanston Burns Fld,725775,41.28,-111.03,82930
1511,UT,G4900450,Salt Lake City IntL Arpt  Isis,725720,40.77,-111.97,84122
1512,UT,G4900470,Vernal,725705,40.43,-109.52,84078
1513,UT,G4900490,Provo Muni  Awos,725724,40.22,-111.72,84601
1514,WY,G4900510,Evanston Burns Fld,725775,41.28,-111.03,82930
1515,UT,G4900530,Saint George  Awos,724754,37.08,-113.6,84770
1516,UT,G4900550,Hanksville,724735,38.37,-110.72,84374
1517,UT,G4900570,Ogden Hinkley Airport,725750,41.2,-112.02,84401
1518,VT,G5000010,Burlington International Ap,726170,44.47,-73.15,05403
1519,VT,G5000030,Rutland State,725165,43.52,-72.95,05759
1520,VT,G5000050,Montpelier Ap,726145,44.2,-72.57,05602
1521,VT,G5000070,Burlington International Ap,726170,44.47,-73.15,05403
1522,NH,G5000090,Berlin Municipal,726160,44.58,-71.18,03588
1523,VT,G5000110,Burlington International Ap,726170,44.47,-73.15,05403
1524,VT,G5000130,Burlington International Ap,726170,44.47,-73.15,05403
1525,VT,G5000150,Montpelier Ap,726145,44.2,-72.57,05602
1526,VT,G5000170,Montpelier Ap,726145,44.2,-72.57,05602
1527,VT,G5000190,Montpelier Ap,726145,44.2,-72.57,05602
1528,VT,G5000210,Rutland State,725165,43.52,-72.95,05759
1529,VT,G5000230,Montpelier Ap,726145,44.2,-72.57,05602
1530,NH,G5000250,Dillant Hopkins,726165,42.9,-72.27,03446
1531,VT,G5000270,Springfield Hartnes,726115,43.35,-72.52,05151
1532,VA,G5100010,Melfa Accomack Arpt,724026,37.65,-75.77,23410
1533,VA,G5100030,Charlottesville Faa,724016,38.13,-78.45,22911
1534,VA,G5100050,Hot Springs Ingalls,724115,37.95,-79.83,24445
1535,VA,G5100070,Farmville,724017,37.35,-78.43,23901
1536,VA,G5100090,Lynchburg Regional Arpt,724100,37.33,-79.2,24502
1537,VA,G5100110,Lynchburg Regional Arpt,724100,37.33,-79.2,24502
1538,VA,G5100130,Washington Dc Reagan Ap,724050,38.87,-77.03,20242
1539,VA,G5100150,Staunton Shenandoah,724105,38.27,-78.9,24486
1540,VA,G5100170,Hot Springs Ingalls,724115,37.95,-79.83,24445
1541,VA,G5100190,Lynchburg Regional Arpt,724100,37.33,-79.2,24502
1542,WV,G5100210,Bluefield Mercer Co  Nrel,724125,37.27,-81.24,24701
1543,VA,G5100230,Roanoke Regional Ap,724110,37.32,-79.97,24019
1544,VA,G5100250,Dinwiddie Co,724014,37.18,-77.52,23803
1545,VA,G5100270,Wise Lonesome Pine,724117,36.98,-82.53,24293
1546,VA,G5100290,Farmville,724017,37.35,-78.43,23901
1547,VA,G5100310,Lynchburg Regional Arpt,724100,37.33,-79.2,24502
1548,VA,G5100330,Shannon Arpt,724033,38.27,-77.45,22408
1549,VA,G5100350,Hillsville,724107,36.77,-80.82,24381
1550,VA,G5100360,Richmond International Ap,724010,37.52,-77.32,23250
1551,VA,G5100370,Farmville,724017,37.35,-78.43,23901
1552,VA,G5100410,Dinwiddie Co,724014,37.18,-77.52,23803
1553,VA,G5100430,Winchester Rgnl,724053,39.15,-78.15,22602
1554,VA,G5100450,Roanoke Regional Ap,724110,37.32,-79.97,24019
1555,VA,G5100470,Manassas Muni Awos,724036,38.72,-77.52,20136
1556,VA,G5100490,Farmville,724017,37.35,-78.43,23901
1557,VA,G5100510,Wise Lonesome Pine,724117,36.98,-82.53,24293
1558,VA,G5100530,Dinwiddie Co,724014,37.18,-77.52,23803
1559,VA,G5100570,Richmond International Ap,724010,37.52,-77.32,23250
1560,VA,G5100590,Davison Aaf,724037,38.72,-77.18,2200
1561,VA,G5100610,Manassas Muni Awos,724036,38.72,-77.52,20136
1562,VA,G5100630,Virginia Tech Arpt,724113,37.22,-80.42,24061
1563,VA,G5100650,Charlottesville Faa,724016,38.13,-78.45,22911
1564,VA,G5100670,Roanoke Regional Ap,724110,37.32,-79.97,24019
1565,VA,G5100690,Winchester Rgnl,724053,39.15,-78.15,22602
1566,VA,G5100710,Pulaski,724116,37.13,-80.68,24084
1567,VA,G5100730,Newport News,723086,37.13,-76.5,23602
1568,VA,G5100750,Richmond International Ap,724010,37.52,-77.32,23250
1569,VA,G5100770,Hillsville,724107,36.77,-80.82,24381
1570,VA,G5100790,Charlottesville Faa,724016,38.13,-78.45,22911
1571,VA,G5100810,Dinwiddie Co,724014,37.18,-77.52,23803
1572,VA,G5100830,Danville Faa Ap,724106,36.57,-79.33,24586
1573,VA,G5100850,Richmond International Ap,724010,37.52,-77.32,23250
1574,VA,G5100870,Richmond International Ap,724010,37.52,-77.32,23250
1575,VA,G5100890,Martinsville,745985,36.63,-80.02,24112
1576,VA,G5100910,Hot Springs Ingalls,724115,37.95,-79.83,24445
1577,VA,G5100930,Newport News,723086,37.13,-76.5,23602
1578,VA,G5100950,Newport News,723086,37.13,-76.5,23602
1579,VA,G5100970,Richmond International Ap,724010,37.52,-77.32,23250
1580,VA,G5100990,Quantico Mcas,724035,38.5,-77.3,22134
1581,VA,G5101010,Richmond International Ap,724010,37.52,-77.32,23250
1582,VA,G5101030,Newport News,723086,37.13,-76.5,23602
1583,VA,G5101050,Wise Lonesome Pine,724117,36.98,-82.53,24293
1584,VA,G5101070,Leesburg Godfrey,724055,39.08,-77.57,20175
1585,VA,G5101090,Charlottesville Faa,724016,38.13,-78.45,22911
1586,VA,G5101110,Farmville,724017,37.35,-78.43,23901
1587,VA,G5101130,Charlottesville Faa,724016,38.13,-78.45,22911
1588,VA,G5101150,Newport News,723086,37.13,-76.5,23602
1589,VA,G5101170,Farmville,724017,37.35,-78.43,23901
1590,VA,G5101190,Newport News,723086,37.13,-76.5,23602
1591,VA,G5101210,Virginia Tech Arpt,724113,37.22,-80.42,24061
1592,VA,G5101250,Staunton Shenandoah,724105,38.27,-78.9,24486
1593,VA,G5101270,Richmond International Ap,724010,37.52,-77.32,23250
1594,VA,G5101310,Melfa Accomack Arpt,724026,37.65,-75.77,23410
1595,MD,G5101330,Patuxent River Nas,724040,38.3,-76.42,20670
1596,VA,G5101350,Farmville,724017,37.35,-78.43,23901
1597,VA,G5101370,Charlottesville Faa,724016,38.13,-78.45,22911
1598,VA,G5101390,Charlottesville Faa,724016,38.13,-78.45,22911
1599,VA,G5101410,Martinsville,745985,36.63,-80.02,24112
1600,VA,G5101430,Danville Faa Ap,724106,36.57,-79.33,24586
1601,VA,G5101450,Dinwiddie Co,724014,37.18,-77.52,23803
1602,VA,G5101470,Farmville,724017,37.35,-78.43,23901
1603,VA,G5101490,Dinwiddie Co,724014,37.18,-77.52,23803
1604,VA,G5101530,Manassas Muni Awos,724036,38.72,-77.52,20136
1605,VA,G5101550,Pulaski,724116,37.13,-80.68,24084
1606,VA,G5101570,Winchester Rgnl,724053,39.15,-78.15,22602
1607,MD,G5101590,Patuxent River Nas,724040,38.3,-76.42,20670
1608,VA,G5101610,Roanoke Regional Ap,724110,37.32,-79.97,24019
1609,VA,G5101630,Hot Springs Ingalls,724115,37.95,-79.83,24445
1610,VA,G5101650,Staunton Shenandoah,724105,38.27,-78.9,24486
1611,VA,G5101670,Abington,724058,36.68,-82.03,24211
1612,TN,G5101690,Bristol Tri City Airport,723183,36.47,-82.4,38137
1613,VA,G5101710,Winchester Rgnl,724053,39.15,-78.15,22602
1614,VA,G5101730,Marion   Wytheville,724056,36.9,-81.35,24368
1615,VA,G5101750,Franklin Naas,723083,36.7,-76.9,23315
1616,VA,G5101770,Shannon Arpt,724033,38.27,-77.45,22408
1617,VA,G5101790,Shannon Arpt,724033,38.27,-77.45,22408
1618,VA,G5101810,Newport News,723086,37.13,-76.5,23602
1619,VA,G5101830,Dinwiddie Co,724014,37.18,-77.52,23803
1620,VA,G5101850,Marion   Wytheville,724056,36.9,-81.35,24368
1621,VA,G5101870,Winchester Rgnl,724053,39.15,-78.15,22602
1622,VA,G5101910,Abington,724058,36.68,-82.03,24211
1623,MD,G5101930,Patuxent River Nas,724040,38.3,-76.42,20670
1624,VA,G5101950,Wise Lonesome Pine,724117,36.98,-82.53,24293
1625,VA,G5101970,Marion   Wytheville,724056,36.9,-81.35,24368
1626,VA,G5101990,Newport News,723086,37.13,-76.5,23602
1627,VA,G5105100,Washington Dc Reagan Ap,724050,38.87,-77.03,20242
1628,VA,G5105200,Abington,724058,36.68,-82.03,24211
1629,VA,G5105300,Lynchburg Regional Arpt,724100,37.33,-79.2,24502
1630,VA,G5105400,Charlottesville Faa,724016,38.13,-78.45,22911
1631,VA,G5105500,Norfolk International Ap,723080,36.9,-76.2,23518
1632,VA,G5105700,Dinwiddie Co,724014,37.18,-77.52,23803
1633,VA,G5105800,Hot Springs Ingalls,724115,37.95,-79.83,24445
1634,VA,G5105900,Danville Faa Ap,724106,36.57,-79.33,24586
1635,VA,G5105950,Dinwiddie Co,724014,37.18,-77.52,23803
1636,VA,G5106000,Davison Aaf,724037,38.72,-77.18,2200
1637,VA,G5106100,Washington Dc Reagan Ap,724050,38.87,-77.03,20242
1638,VA,G5106200,Franklin Naas,723083,36.7,-76.9,23315
1639,VA,G5106300,Shannon Arpt,724033,38.27,-77.45,22408
1640,VA,G5106400,Hillsville,724107,36.77,-80.82,24381
1641,VA,G5106500,Langley Afb,745980,37.08,-76.35,23665
1642,VA,G5106600,Staunton Shenandoah,724105,38.27,-78.9,24486
1643,VA,G5106700,Richmond International Ap,724010,37.52,-77.32,23250
1644,VA,G5106780,Hot Springs Ingalls,724115,37.95,-79.83,24445
1645,VA,G5106800,Lynchburg Regional Arpt,724100,37.33,-79.2,24502
1646,VA,G5106830,Manassas Muni Awos,724036,38.72,-77.52,20136
1647,VA,G5106850,Manassas Muni Awos,724036,38.72,-77.52,20136
1648,VA,G5106900,Martinsville,745985,36.63,-80.02,24112
1649,VA,G5107000,Newport News,723086,37.13,-76.5,23602
1650,VA,G5107100,Norfolk Nas,723085,36.95,-76.28,23503
1651,VA,G5107200,Wise Lonesome Pine,724117,36.98,-82.53,24293
1652,VA,G5107300,Dinwiddie Co,724014,37.18,-77.52,23803
1653,VA,G5107350,Langley Afb,745980,37.08,-76.35,23665
1654,VA,G5107400,Norfolk Nas,723085,36.95,-76.28,23503
1655,VA,G5107500,Pulaski,724116,37.13,-80.68,24084
1656,VA,G5107600,Richmond International Ap,724010,37.52,-77.32,23250
1657,VA,G5107700,Roanoke Regional Ap,724110,37.32,-79.97,24019
1658,VA,G5107750,Roanoke Regional Ap,724110,37.32,-79.97,24019
1659,VA,G5107900,Staunton Shenandoah,724105,38.27,-78.9,24486
1660,VA,G5108000,Norfolk Nas,723085,36.95,-76.28,23503
1661,VA,G5108100,Oceana Nas,723075,36.82,-76.03,23460
1662,VA,G5108200,Staunton Shenandoah,724105,38.27,-78.9,24486
1663,VA,G5108300,Newport News,723086,37.13,-76.5,23602
1664,VA,G5108400,Winchester Rgnl,724053,39.15,-78.15,22602
1665,WA,G5300010,Moses Lake Grant County Ap,727827,47.2,-119.32,
1666,ID,G5300030,Lewiston Nez Perce Cnty Ap,727830,46.37,-117.02,83501
1667,WA,G5300050,Pasco,727845,46.27,-119.12,99301
1668,WA,G5300070,Wenatchee Pangborn,727825,47.4,-120.2,98802
1669,WA,G5300090,William R Fairchild,727885,48.12,-123.5,
1670,OR,G5300110,Portland International Ap,726980,45.6,-122.62,97211
1671,WA,G5300130,Walla Walla City County Ap,727846,46.1,-118.28,
1672,WA,G5300150,Kelso Wb Ap,727924,46.13,-122.9,98626
1673,WA,G5300170,Wenatchee Pangborn,727825,47.4,-120.2,98802
1674,WA,G5300190,Fairchild Afb,727855,47.63,-117.65,99011
1675,WA,G5300210,Pasco,727845,46.27,-119.12,99301
1676,WA,G5300230,Pullman Moscow Rgnl,727857,46.75,-117.12,99164
1677,WA,G5300250,Moses Lake Grant County Ap,727827,47.2,-119.32,
1678,WA,G5300270,Hoquiam Ap,727923,46.98,-123.93,98550
1679,WA,G5300290,Oak Harbor-NAS Whidbey Island-Ault Field,720749,48.35,-122.667,97277
1680,WA,G5300310,Whidbey Island Nas,690230,48.35,-122.67,98278
1681,WA,G5300330,Renton Muni,727934,47.48,-122.22,98057
1682,WA,G5300350,Bremerton National,727928,47.48,-122.75,
1683,WA,G5300370,Yakima Air Terminal,727810,46.57,-120.55,98903
1684,WA,G5300390,The Dalles Municipal Arpt,726988,45.62,-121.15,98617
1685,WA,G5300410,Toledo Winlock Mem,727926,46.48,-122.8,98542
1686,WA,G5300430,Fairchild Afb,727855,47.63,-117.65,99011
1687,WA,G5300450,Bremerton National,727928,47.48,-122.75,
1688,WA,G5300470,Ephrata Ap Fcwos,727826,47.3,-119.52,98823
1689,OR,G5300490,Astoria Regional Airport,727910,46.15,-123.88,97146
1690,WA,G5300510,Felts Fld,727856,47.68,-117.32,99212
1691,WA,G5300530,Tacoma Mcchord Afb,742060,47.15,-122.48,98249
1692,WA,G5300550,Whidbey Island Nas,690230,48.35,-122.67,98278
1693,WA,G5300570,Oak Harbor-NAS Whidbey Island-Ault Field,720749,48.35,-122.667,97277
1694,WA,G5300590,The Dalles Municipal Arpt,726988,45.62,-121.15,98617
1695,WA,G5300610,Snohomish Co,727937,47.9,-122.28,98204
1696,WA,G5300630,Felts Fld,727856,47.68,-117.32,99212
1697,WA,G5300650,Fairchild Afb,727855,47.63,-117.65,99011
1698,WA,G5300670,Olympia Airport,727920,46.97,-122.9,98501
1699,OR,G5300690,Astoria Regional Airport,727910,46.15,-123.88,97146
1700,WA,G5300710,Walla Walla City County Ap,727846,46.1,-118.28,
1701,WA,G5300730,Bellingham Intl Ap,727976,48.8,-122.53,98226
1702,WA,G5300750,Pullman Moscow Rgnl,727857,46.75,-117.12,99164
1703,WA,G5300770,Yakima Air Terminal,727810,46.57,-120.55,98903
1704,WV,G5400010,Elkins Elkins Randolph Co Arp,724170,38.88,-79.85,26253
1705,WV,G5400030,Martinsburg Eastern Wv Reg Ap,724177,39.4,-77.98,25415
1706,WV,G5400050,Charleston Yeager Arpt,724140,38.38,-81.58,25311
1707,WV,G5400070,Charleston Yeager Arpt,724140,38.38,-81.58,25311
1708,WV,G5400090,Wheeling Ohio County Ap,724275,40.18,-80.65,26075
1709,WV,G5400110,Huntington Tri State Arpt,724250,38.38,-82.55,25530
1710,WV,G5400130,Parkersburg Wood County Ap,724273,39.35,-81.43,26184
1711,WV,G5400150,Charleston Yeager Arpt,724140,38.38,-81.58,25311
1712,WV,G5400170,Harrison Marion Rgn,724175,39.28,-80.23,26330
1713,WV,G5400190,Beckley Raleigh Co Mem Ap,724120,37.8,-81.12,25813
1714,WV,G5400210,Parkersburg Wood County Ap,724273,39.35,-81.43,26184
1715,WV,G5400230,Elkins Elkins Randolph Co Arp,724170,38.88,-79.85,26253
1716,WV,G5400250,Lewisburg Greenbrie,724127,37.87,-80.4,24957
1717,VA,G5400270,Winchester Rgnl,724053,39.15,-78.15,22602
1718,WV,G5400290,Wheeling Ohio County Ap,724275,40.18,-80.65,26075
1719,WV,G5400310,Elkins Elkins Randolph Co Arp,724170,38.88,-79.85,26253
1720,WV,G5400330,Harrison Marion Rgn,724175,39.28,-80.23,26330
1721,WV,G5400350,Charleston Yeager Arpt,724140,38.38,-81.58,25311
1722,WV,G5400370,Martinsburg Eastern Wv Reg Ap,724177,39.4,-77.98,25415
1723,WV,G5400390,Charleston Yeager Arpt,724140,38.38,-81.58,25311
1724,WV,G5400410,Harrison Marion Rgn,724175,39.28,-80.23,26330
1725,WV,G5400430,Huntington Tri State Arpt,724250,38.38,-82.55,25530
1726,WV,G5400450,Charleston Yeager Arpt,724140,38.38,-81.58,25311
1727,WV,G5400470,Bluefield Mercer Co  Nrel,724125,37.27,-81.24,24701
1728,WV,G5400490,Harrison Marion Rgn,724175,39.28,-80.23,26330
1729,WV,G5400510,Wheeling Ohio County Ap,724275,40.18,-80.65,26075
1730,WV,G5400530,Charleston Yeager Arpt,724140,38.38,-81.58,25311
1731,WV,G5400550,Bluefield Mercer Co  Nrel,724125,37.27,-81.24,24701
1732,VA,G5400570,Winchester Rgnl,724053,39.15,-78.15,22602
1733,WV,G5400590,Huntington Tri State Arpt,724250,38.38,-82.55,25530
1734,WV,G5400610,Morgantown Hart Field,724176,39.65,-79.92,26508
1735,WV,G5400630,Lewisburg Greenbrie,724127,37.87,-80.4,24957
1736,WV,G5400650,Martinsburg Eastern Wv Reg Ap,724177,39.4,-77.98,25415
1737,WV,G5400670,Charleston Yeager Arpt,724140,38.38,-81.58,25311
1738,WV,G5400690,Wheeling Ohio County Ap,724275,40.18,-80.65,26075
1739,WV,G5400710,Elkins Elkins Randolph Co Arp,724170,38.88,-79.85,26253
1740,WV,G5400730,Parkersburg Wood County Ap,724273,39.35,-81.43,26184
1741,VA,G5400750,Hot Springs Ingalls,724115,37.95,-79.83,24445
1742,WV,G5400770,Morgantown Hart Field,724176,39.65,-79.92,26508
1743,WV,G5400790,Charleston Yeager Arpt,724140,38.38,-81.58,25311
1744,WV,G5400810,Beckley Raleigh Co Mem Ap,724120,37.8,-81.12,25813
1745,WV,G5400830,Elkins Elkins Randolph Co Arp,724170,38.88,-79.85,26253
1746,WV,G5400850,Parkersburg Wood County Ap,724273,39.35,-81.43,26184
1747,WV,G5400870,Charleston Yeager Arpt,724140,38.38,-81.58,25311
1748,WV,G5400890,Beckley Raleigh Co Mem Ap,724120,37.8,-81.12,25813
1749,WV,G5400910,Harrison Marion Rgn,724175,39.28,-80.23,26330
1750,WV,G5400930,Elkins Elkins Randolph Co Arp,724170,38.88,-79.85,26253
1751,WV,G5400950,Parkersburg Wood County Ap,724273,39.35,-81.43,26184
1752,WV,G5400970,Harrison Marion Rgn,724175,39.28,-80.23,26330
1753,WV,G5400990,Huntington Tri State Arpt,724250,38.38,-82.55,25530
1754,VA,G5401010,Hot Springs Ingalls,724115,37.95,-79.83,24445
1755,WV,G5401030,Wheeling Ohio County Ap,724275,40.18,-80.65,26075
1756,WV,G5401050,Parkersburg Wood County Ap,724273,39.35,-81.43,26184
1757,WV,G5401070,Parkersburg Wood County Ap,724273,39.35,-81.43,26184
1758,WV,G5401090,Bluefield Mercer Co  Nrel,724125,37.27,-81.24,24701
1759,WI,G5500010,Marshfield Muni,726574,44.63,-90.18,54449
1760,MI,G5500030,Ironwood  Awos,727445,46.53,-90.13,49938
1761,WI,G5500050,Rice Lake Municipal,726467,45.48,-91.72,54868
1762,MN,G5500070,Silver Bay,727556,47.2,-91.4,
1763,WI,G5500090,Green Bay Austin Straubel Int,726450,44.48,-88.13,54313
1764,MN,G5500110,Winona Muni  Awos,726588,44.08,-91.7,55959
1765,MN,G5500130,Crane Lake  Awos,727473,46.27,-92.57,55712
1766,WI,G5500150,Appleton Outagamie,726457,44.25,-88.52,
1767,WI,G5500170,Eau Claire County Ap,726435,44.87,-91.48,54703
1768,WI,G5500190,Marshfield Muni,726574,44.63,-90.18,54449
1769,WI,G5500210,Madison Dane Co Regional Arpt,726410,43.13,-89.33,53704
1770,IA,G5500230,Decorah,725476,43.28,-91.73,
1771,WI,G5500250,Madison Dane Co Regional Arpt,726410,43.13,-89.33,53704
1772,WI,G5500270,Watertown,726464,43.17,-88.72,53094
1773,WI,G5500290,Sturgeon Bay,726458,44.85,-87.42,54235
1774,MN,G5500310,Duluth International Arpt,727450,46.83,-92.22,55811
1775,WI,G5500330,Eau Claire County Ap,726435,44.87,-91.48,54703
1776,WI,G5500350,Eau Claire County Ap,726435,44.87,-91.48,54703
1777,MI,G5500370,Iron Mountain Ford,727437,45.82,-88.12,49802
1778,WI,G5500390,Wittman Rgnl,726456,43.98,-88.55,54902
1779,WI,G5500410,Rhinelander Oneida,727415,45.63,-89.47,54501
1780,WI,G5500430,Lone Rock Faa Ap,726416,43.2,-90.18,53588
1781,WI,G5500450,Madison Dane Co Regional Arpt,726410,43.13,-89.33,53704
1782,WI,G5500470,Wittman Rgnl,726456,43.98,-88.55,54902
1783,WI,G5500490,Lone Rock Faa Ap,726416,43.2,-90.18,53588
1784,MI,G5500510,Ironwood  Awos,727445,46.53,-90.13,49938
1785,WI,G5500530,La Crosse Municipal Arpt,726430,43.87,-91.25,54603
1786,WI,G5500550,Watertown,726464,43.17,-88.72,53094
1787,WI,G5500570,Lone Rock Faa Ap,726416,43.2,-90.18,53588
1788,WI,G5500590,Milwaukee Mitchell Intl Ap,726400,42.95,-87.9,53207
1789,WI,G5500610,Sturgeon Bay,726458,44.85,-87.42,54235
1790,WI,G5500630,La Crosse Municipal Arpt,726430,43.87,-91.25,54603
1791,WI,G5500650,Lone Rock Faa Ap,726416,43.2,-90.18,53588
1792,WI,G5500670,Rhinelander Oneida,727415,45.63,-89.47,54501
1793,WI,G5500690,Rhinelander Oneida,727415,45.63,-89.47,54501
1794,WI,G5500710,Manitowac Muni Awos,726455,44.13,-87.68,54220
1795,WI,G5500730,Wausau Municipal Arpt,726463,44.92,-89.63,54401
1796,MI,G5500750,Menominee  Awos,726487,45.13,-87.63,49858
1797,WI,G5500770,Madison Dane Co Regional Arpt,726410,43.13,-89.33,53704
1798,WI,G5500780,Green Bay Austin Straubel Int,726450,44.48,-88.13,54313
1799,WI,G5500790,Milwaukee Mitchell Intl Ap,726400,42.95,-87.9,53207
1800,WI,G5500810,La Crosse Municipal Arpt,726430,43.87,-91.25,54603
1801,WI,G5500830,Green Bay Austin Straubel Int,726450,44.48,-88.13,54313
1802,WI,G5500850,Rhinelander Oneida,727415,45.63,-89.47,54501
1803,WI,G5500870,Appleton Outagamie,726457,44.25,-88.52,
1804,WI,G5500890,Milwaukee Mitchell Intl Ap,726400,42.95,-87.9,53207
1805,MN,G5500910,Red Wing,726564,44.58,-92.48,
1806,MN,G5500930,Red Wing,726564,44.58,-92.48,
1807,MN,G5500950,St Paul Downtown Ap,726584,44.93,-93.05,55106
1808,WI,G5500970,Mosinee Central Wi,726465,44.78,-89.67,54455
1809,WI,G5500990,Phillips Price Co,726468,45.7,-90.4,54555
1810,WI,G5501010,Milwaukee Mitchell Intl Ap,726400,42.95,-87.9,53207
1811,WI,G5501030,Lone Rock Faa Ap,726416,43.2,-90.18,53588
1812,WI,G5501050,Janesville Rock Co,726415,42.62,-89.03,53546
1813,WI,G5501070,Rice Lake Municipal,726467,45.48,-91.72,54868
1814,MN,G5501090,Red Wing,726564,44.58,-92.48,
1815,WI,G5501110,Lone Rock Faa Ap,726416,43.2,-90.18,53588
1816,WI,G5501130,Phillips Price Co,726468,45.7,-90.4,54555
1817,WI,G5501150,Appleton Outagamie,726457,44.25,-88.52,
1818,WI,G5501170,Manitowac Muni Awos,726455,44.13,-87.68,54220
1819,WI,G5501190,Phillips Price Co,726468,45.7,-90.4,54555
1820,MN,G5501210,Winona Muni  Awos,726588,44.08,-91.7,55959
1821,WI,G5501230,La Crosse Municipal Arpt,726430,43.87,-91.25,54603
1822,WI,G5501250,Minocqua Woodruff,726404,45.93,-89.73,54568
1823,WI,G5501270,Janesville Rock Co,726415,42.62,-89.03,53546
1824,MN,G5501290,Crane Lake  Awos,727473,46.27,-92.57,55712
1825,WI,G5501310,Milwaukee Mitchell Intl Ap,726400,42.95,-87.9,53207
1826,WI,G5501330,Milwaukee Mitchell Intl Ap,726400,42.95,-87.9,53207
1827,WI,G5501350,Appleton Outagamie,726457,44.25,-88.52,
1828,WI,G5501370,Wittman Rgnl,726456,43.98,-88.55,54902
1829,WI,G5501390,Wittman Rgnl,726456,43.98,-88.55,54902
1830,WI,G5501410,Marshfield Muni,726574,44.63,-90.18,54449
1831,WY,G5600010,Laramie General Brees Field,725645,41.32,-105.68,82070
1832,WY,G5600030,Worland Municipal,726665,43.97,-107.95,82401
1833,WY,G5600050,Gillette Gillette C,726650,44.35,-105.53,
1834,WY,G5600070,Rawlins Municipal Ap,725745,41.8,-107.2,
1835,WY,G5600090,Casper Natrona Co Intl Ap,725690,42.9,-106.47,82602
1836,WY,G5600110,Gillette Gillette C,726650,44.35,-105.53,
1837,WY,G5600130,Riverton Municipl Ap,725765,43.05,-108.45,82501
1838,CO,G5600150,Greeley Weld  Awos,724768,40.43,-104.63,
1839,WY,G5600170,Worland Municipal,726665,43.97,-107.95,82401
1840,WY,G5600190,Sheridan County Arpt,726660,44.77,-106.97,82801
1841,WY,G5600210,Cheyenne Municipal Arpt,725640,41.15,-104.8,82001
1842,WY,G5600230,Jackson Hole,725776,43.6,-110.73,
1843,WY,G5600250,Casper Natrona Co Intl Ap,725690,42.9,-106.47,82602
1844,NE,G5600270,Scottsbluff W B Heilig Field,725660,41.87,-103.6,
1845,WY,G5600290,Cody Muni  Awos,726700,44.52,-109.02,
1846,CO,G5600310,Fort Collins  Awos,724769,40.45,-105.02,80538
1847,WY,G5600330,Sheridan County Arpt,726660,44.77,-106.97,82801
1848,WY,G5600350,Jackson Hole,725776,43.6,-110.73,
1849,WY,G5600370,Rock Springs Arpt  Green River,725744,41.46,-109.44,
1850,WY,G5600390,Jackson Hole,725776,43.6,-110.73,
1851,WY,G5600410,Evanston Burns Fld,725775,41.28,-111.03,82930
1852,WY,G5600430,Worland Municipal,726665,43.97,-107.95,82401
1853,SD,G5600450,Ellsworth Afb,726625,44.15,-103.1,57706
